{"type": "FeatureCollection", "features": [{"type": "Feature", "geometry": {"type": "Point", "coordinates": [138.3106, 9.638]}, "properties": {"id": "us6000tlgm", "hazard": "earthquake", "title": "M5.3 \u2014 24 km ENE of Colonia, Micronesia", "severity": "low", "source": "USGS", "time": "2026-08-17T22:53:11.292000+00:00", "magnitude": 5.3, "depth_km": 10.0, "url": "https://earthquake.usgs.gov/earthquakes/eventpage/us6000tlgm", "description": "24 km ENE of Colonia, Micronesia", "tsunami_flag": false, "alert": null, "status": "reviewed", "place": "24 km ENE of Colonia, Micronesia"}}, {"type": "Feature", "geometry": {"type": "Point", "coordinates": [151.4468, 46.4392]}, "properties": {"id": "us6000tlbz", "hazard": "earthquake", "title": "M5.1 \u2014 Kuril Islands", "severity": "low", "source": "USGS", "time": "2026-08-17T21:36:36.105000+00:00", "magnitude": 5.1, "depth_km": 93.538, "url": "https://earthquake.usgs.gov/earthquakes/eventpage/us6000tlbz", "description": "Kuril Islands", "tsunami_flag": false, "alert": null, "status": "reviewed", "place": "Kuril Islands"}}, {"type": "Feature", "geometry": {"type": "Point", "coordinates": [-154.894, 57.279]}, "properties": {"id": "aka2026qgsene", "hazard": "earthquake", "title": "M4.5 \u2014 41 km SW of Karluk, Alaska", "severity": "low", "source": "USGS", "time": "2026-08-17T20:35:10.038000+00:00", "magnitude": 4.5, "depth_km": 57.9, "url": "https://earthquake.usgs.gov/earthquakes/eventpage/aka2026qgsene", "description": "41 km SW of Karluk, Alaska", "tsunami_flag": false, "alert": null, "status": "reviewed", "place": "41 km SW of Karluk, Alaska"}}, {"type": "Feature", "geometry": {"type": "Point", "coordinates": [6.791, 77.5754]}, "properties": {"id": "usd0015efp", "hazard": "earthquake", "title": "M4.8 \u2014 219 km WSW of Longyearbyen, Svalbard and Jan Mayen", "severity": "low", "source": "USGS", "time": "2026-08-17T19:51:23.274000+00:00", "magnitude": 4.8, "depth_km": 10.0, "url": "https://earthquake.usgs.gov/earthquakes/eventpage/usd0015efp", "description": "219 km WSW of Longyearbyen, Svalbard and Jan Mayen", "tsunami_flag": false, "alert": null, "status": "reviewed", "place": "219 km WSW of Longyearbyen, Svalbard and Jan Mayen"}}, {"type": "Feature", "geometry": {"type": "Point", "coordinates": [138.2886, 9.7108]}, "properties": {"id": "usd0015efc", "hazard": "earthquake", "title": "M4.9 \u2014 28 km NE of Colonia, Micronesia", "severity": "low", "source": "USGS", "time": "2026-08-17T18:51:11.299000+00:00", "magnitude": 4.9, "depth_km": 10.0, "url": "https://earthquake.usgs.gov/earthquakes/eventpage/usd0015efc", "description": "28 km NE of Colonia, Micronesia", "tsunami_flag": false, "alert": null, "status": "reviewed", "place": "28 km NE of Colonia, Micronesia"}}, {"type": "Feature", "geometry": {"type": "Point", "coordinates": [117.2457, -7.0242]}, "properties": {"id": "usd0015ef3", "hazard": "earthquake", "title": "M4.6 \u2014 155 km N of Pototano, Indonesia", "severity": "low", "source": "USGS", "time": "2026-08-17T18:10:05.545000+00:00", "magnitude": 4.6, "depth_km": 496.552, "url": "https://earthquake.usgs.gov/earthquakes/eventpage/usd0015ef3", "description": "155 km N of Pototano, Indonesia", "tsunami_flag": false, "alert": null, "status": "reviewed", "place": "155 km N of Pototano, Indonesia"}}, {"type": "Feature", "geometry": {"type": "Point", "coordinates": [120.4472, -8.3182]}, "properties": {"id": "usd0015ee2", "hazard": "earthquake", "title": "M5.0 \u2014 32 km N of Ruteng, Indonesia", "severity": "low", "source": "USGS", "time": "2026-08-17T13:58:34.474000+00:00", "magnitude": 5.0, "depth_km": 10.0, "url": "https://earthquake.usgs.gov/earthquakes/eventpage/usd0015ee2", "description": "32 km N of Ruteng, Indonesia", "tsunami_flag": false, "alert": null, "status": "reviewed", "place": "32 km N of Ruteng, Indonesia"}}, {"type": "Feature", "geometry": {"type": "Point", "coordinates": [120.6721, -8.2712]}, "properties": {"id": "usd0015edt", "hazard": "earthquake", "title": "M4.9 \u2014 44 km NNE of Ruteng, Indonesia", "severity": "low", "source": "USGS", "time": "2026-08-17T12:51:05.572000+00:00", "magnitude": 4.9, "depth_km": 30.025, "url": "https://earthquake.usgs.gov/earthquakes/eventpage/usd0015edt", "description": "44 km NNE of Ruteng, Indonesia", "tsunami_flag": false, "alert": null, "status": "reviewed", "place": "44 km NNE of Ruteng, Indonesia"}}, {"type": "Feature", "geometry": {"type": "Point", "coordinates": [120.3701, -8.0024]}, "properties": {"id": "usd0015eds", "hazard": "earthquake", "title": "M4.9 \u2014 68 km N of Ruteng, Indonesia", "severity": "low", "source": "USGS", "time": "2026-08-17T12:39:35.566000+00:00", "magnitude": 4.9, "depth_km": 10.0, "url": "https://earthquake.usgs.gov/earthquakes/eventpage/usd0015eds", "description": "68 km N of Ruteng, Indonesia", "tsunami_flag": false, "alert": null, "status": "reviewed", "place": "68 km N of Ruteng, Indonesia"}}, {"type": "Feature", "geometry": {"type": "Point", "coordinates": [159.7106, 53.024]}, "properties": {"id": "usd0015edq", "hazard": "earthquake", "title": "M5.8 \u2014 72 km E of Petropavlovsk-Kamchatsky, Russia", "severity": "moderate", "source": "USGS", "time": "2026-08-17T12:38:03.466000+00:00", "magnitude": 5.8, "depth_km": 54.741, "url": "https://earthquake.usgs.gov/earthquakes/eventpage/usd0015edq", "description": "72 km E of Petropavlovsk-Kamchatsky, Russia", "tsunami_flag": false, "alert": "green", "status": "reviewed", "place": "72 km E of Petropavlovsk-Kamchatsky, Russia"}}, {"type": "Feature", "geometry": {"type": "Point", "coordinates": [149.3577, -6.3769]}, "properties": {"id": "usd0015edb", "hazard": "earthquake", "title": "M5.1 \u2014 28 km SW of Kandrian, Papua New Guinea", "severity": "low", "source": "USGS", "time": "2026-08-17T11:00:23.022000+00:00", "magnitude": 5.1, "depth_km": 35.0, "url": "https://earthquake.usgs.gov/earthquakes/eventpage/usd0015edb", "description": "28 km SW of Kandrian, Papua New Guinea", "tsunami_flag": false, "alert": null, "status": "reviewed", "place": "28 km SW of Kandrian, Papua New Guinea"}}, {"type": "Feature", "geometry": {"type": "Point", "coordinates": [120.4324, -7.9289]}, "properties": {"id": "usd0015ed8", "hazard": "earthquake", "title": "M5.4 \u2014 75 km N of Ruteng, Indonesia", "severity": "low", "source": "USGS", "time": "2026-08-17T10:44:49.886000+00:00", "magnitude": 5.4, "depth_km": 10.0, "url": "https://earthquake.usgs.gov/earthquakes/eventpage/usd0015ed8", "description": "75 km N of Ruteng, Indonesia", "tsunami_flag": false, "alert": "green", "status": "reviewed", "place": "75 km N of Ruteng, Indonesia"}}, {"type": "Feature", "geometry": {"type": "Point", "coordinates": [120.5019, -7.8762]}, "properties": {"id": "usd0015ed7", "hazard": "earthquake", "title": "M5.2 \u2014 81 km N of Ruteng, Indonesia", "severity": "low", "source": "USGS", "time": "2026-08-17T10:42:41.971000+00:00", "magnitude": 5.2, "depth_km": 10.0, "url": "https://earthquake.usgs.gov/earthquakes/eventpage/usd0015ed7", "description": "81 km N of Ruteng, Indonesia", "tsunami_flag": false, "alert": null, "status": "reviewed", "place": "81 km N of Ruteng, Indonesia"}}, {"type": "Feature", "geometry": {"type": "Point", "coordinates": [121.5192, -8.3911]}, "properties": {"id": "usd0015ed1", "hazard": "earthquake", "title": "M4.8 \u2014 52 km NNW of Ende, Indonesia", "severity": "low", "source": "USGS", "time": "2026-08-17T09:16:05.268000+00:00", "magnitude": 4.8, "depth_km": 10.0, "url": "https://earthquake.usgs.gov/earthquakes/eventpage/usd0015ed1", "description": "52 km NNW of Ende, Indonesia", "tsunami_flag": false, "alert": null, "status": "reviewed", "place": "52 km NNW of Ende, Indonesia"}}, {"type": "Feature", "geometry": {"type": "Point", "coordinates": [121.1463, -8.3011]}, "properties": {"id": "usd0015ecv", "hazard": "earthquake", "title": "M4.5 \u2014 82 km ENE of Ruteng, Indonesia", "severity": "low", "source": "USGS", "time": "2026-08-17T08:52:00.116000+00:00", "magnitude": 4.5, "depth_km": 23.728, "url": "https://earthquake.usgs.gov/earthquakes/eventpage/usd0015ecv", "description": "82 km ENE of Ruteng, Indonesia", "tsunami_flag": false, "alert": null, "status": "reviewed", "place": "82 km ENE of Ruteng, Indonesia"}}, {"type": "Feature", "geometry": {"type": "Point", "coordinates": [135.6311, 34.8761]}, "properties": {"id": "usd0015ecj", "hazard": "earthquake", "title": "M4.6 \u2014 3 km NNE of Takatsuki, Japan", "severity": "low", "source": "USGS", "time": "2026-08-17T07:36:19.104000+00:00", "magnitude": 4.6, "depth_km": 370.457, "url": "https://earthquake.usgs.gov/earthquakes/eventpage/usd0015ecj", "description": "3 km NNE of Takatsuki, Japan", "tsunami_flag": false, "alert": null, "status": "reviewed", "place": "3 km NNE of Takatsuki, Japan"}}, {"type": "Feature", "geometry": {"type": "Point", "coordinates": [121.2007, -8.5254]}, "properties": {"id": "usd0015ech", "hazard": "earthquake", "title": "M4.9 \u2014 61 km NW of Ende, Indonesia", "severity": "low", "source": "USGS", "time": "2026-08-17T07:20:32.272000+00:00", "magnitude": 4.9, "depth_km": 28.252, "url": "https://earthquake.usgs.gov/earthquakes/eventpage/usd0015ech", "description": "61 km NW of Ende, Indonesia", "tsunami_flag": false, "alert": null, "status": "reviewed", "place": "61 km NW of Ende, Indonesia"}}, {"type": "Feature", "geometry": {"type": "Point", "coordinates": [147.0932, 14.5955]}, "properties": {"id": "usd0015ecf", "hazard": "earthquake", "title": "M4.8 \u2014 159 km ESE of Saipan, Northern Mariana Islands", "severity": "low", "source": "USGS", "time": "2026-08-17T06:55:11.062000+00:00", "magnitude": 4.8, "depth_km": 10.0, "url": "https://earthquake.usgs.gov/earthquakes/eventpage/usd0015ecf", "description": "159 km ESE of Saipan, Northern Mariana Islands", "tsunami_flag": false, "alert": null, "status": "reviewed", "place": "159 km ESE of Saipan, Northern Mariana Islands"}}, {"type": "Feature", "geometry": {"type": "Point", "coordinates": [175.3138, -38.907]}, "properties": {"id": "usd0015ebp", "hazard": "earthquake", "title": "M4.6 \u2014 43 km WNW of Turangi, New Zealand", "severity": "low", "source": "USGS", "time": "2026-08-17T05:18:41.824000+00:00", "magnitude": 4.6, "depth_km": 177.408, "url": "https://earthquake.usgs.gov/earthquakes/eventpage/usd0015ebp", "description": "43 km WNW of Turangi, New Zealand", "tsunami_flag": false, "alert": null, "status": "reviewed", "place": "43 km WNW of Turangi, New Zealand"}}, {"type": "Feature", "geometry": {"type": "Point", "coordinates": [121.327, -8.2999]}, "properties": {"id": "usd0015ebj", "hazard": "earthquake", "title": "M5.2 \u2014 70 km NNW of Ende, Indonesia", "severity": "low", "source": "USGS", "time": "2026-08-17T03:48:04.873000+00:00", "magnitude": 5.2, "depth_km": 16.335, "url": "https://earthquake.usgs.gov/earthquakes/eventpage/usd0015ebj", "description": "70 km NNW of Ende, Indonesia", "tsunami_flag": false, "alert": null, "status": "reviewed", "place": "70 km NNW of Ende, Indonesia"}}, {"type": "Feature", "geometry": {"type": "Point", "coordinates": [121.407, -8.278]}, "properties": {"id": "usd0015ebi", "hazard": "earthquake", "title": "M5.3 \u2014 68 km NNW of Ende, Indonesia", "severity": "low", "source": "USGS", "time": "2026-08-17T03:36:39.370000+00:00", "magnitude": 5.3, "depth_km": 10.0, "url": "https://earthquake.usgs.gov/earthquakes/eventpage/usd0015ebi", "description": "68 km NNW of Ende, Indonesia", "tsunami_flag": false, "alert": null, "status": "reviewed", "place": "68 km NNW of Ende, Indonesia"}}, {"type": "Feature", "geometry": {"type": "Point", "coordinates": [121.0947, -8.0913]}, "properties": {"id": "usd0015ebh", "hazard": "earthquake", "title": "M4.9 \u2014 90 km NE of Ruteng, Indonesia", "severity": "low", "source": "USGS", "time": "2026-08-17T03:33:53.507000+00:00", "magnitude": 4.9, "depth_km": 10.0, "url": "https://earthquake.usgs.gov/earthquakes/eventpage/usd0015ebh", "description": "90 km NE of Ruteng, Indonesia", "tsunami_flag": false, "alert": null, "status": "reviewed", "place": "90 km NE of Ruteng, Indonesia"}}, {"type": "Feature", "geometry": {"type": "Point", "coordinates": [120.2556, -7.8295]}, "properties": {"id": "usd0015ebc", "hazard": "earthquake", "title": "M4.8 \u2014 84 km NNE of Labuan Bajo, Indonesia", "severity": "low", "source": "USGS", "time": "2026-08-17T02:39:20.044000+00:00", "magnitude": 4.8, "depth_km": 29.528, "url": "https://earthquake.usgs.gov/earthquakes/eventpage/usd0015ebc", "description": "84 km NNE of Labuan Bajo, Indonesia", "tsunami_flag": false, "alert": null, "status": "reviewed", "place": "84 km NNE of Labuan Bajo, Indonesia"}}, {"type": "Feature", "geometry": {"type": "Point", "coordinates": [121.0709, -1.3664]}, "properties": {"id": "usd0015eb0", "hazard": "earthquake", "title": "M4.5 \u2014 35 km E of Poso, Indonesia", "severity": "low", "source": "USGS", "time": "2026-08-17T01:01:29.183000+00:00", "magnitude": 4.5, "depth_km": 10.0, "url": "https://earthquake.usgs.gov/earthquakes/eventpage/usd0015eb0", "description": "35 km E of Poso, Indonesia", "tsunami_flag": false, "alert": null, "status": "reviewed", "place": "35 km E of Poso, Indonesia"}}, {"type": "Feature", "geometry": {"type": "Point", "coordinates": [121.4724, -8.3149]}, "properties": {"id": "usd0015eay", "hazard": "earthquake", "title": "M5.5 \u2014 62 km NNW of Ende, Indonesia", "severity": "moderate", "source": "USGS", "time": "2026-08-17T00:46:41.245000+00:00", "magnitude": 5.5, "depth_km": 15.522, "url": "https://earthquake.usgs.gov/earthquakes/eventpage/usd0015eay", "description": "62 km NNW of Ende, Indonesia", "tsunami_flag": false, "alert": "green", "status": "reviewed", "place": "62 km NNW of Ende, Indonesia"}}, {"type": "Feature", "geometry": {"type": "Point", "coordinates": [120.2244, -7.9578]}, "properties": {"id": "usd0015eav", "hazard": "earthquake", "title": "M4.6 \u2014 70 km NNE of Labuan Bajo, Indonesia", "severity": "low", "source": "USGS", "time": "2026-08-17T00:27:36.214000+00:00", "magnitude": 4.6, "depth_km": 35.0, "url": "https://earthquake.usgs.gov/earthquakes/eventpage/usd0015eav", "description": "70 km NNE of Labuan Bajo, Indonesia", "tsunami_flag": false, "alert": null, "status": "reviewed", "place": "70 km NNE of Labuan Bajo, Indonesia"}}, {"type": "Feature", "geometry": {"type": "Point", "coordinates": [-178.7056, -17.7068]}, "properties": {"id": "usd0015eas", "hazard": "earthquake", "title": "M4.9 \u2014 213 km E of Levuka, Fiji", "severity": "low", "source": "USGS", "time": "2026-08-17T00:08:07.246000+00:00", "magnitude": 4.9, "depth_km": 562.262, "url": "https://earthquake.usgs.gov/earthquakes/eventpage/usd0015eas", "description": "213 km E of Levuka, Fiji", "tsunami_flag": false, "alert": null, "status": "reviewed", "place": "213 km E of Levuka, Fiji"}}, {"type": "Feature", "geometry": {"type": "Point", "coordinates": [120.6825, -8.1055]}, "properties": {"id": "usd0015eae", "hazard": "earthquake", "title": "M4.5 \u2014 60 km NNE of Ruteng, Indonesia", "severity": "low", "source": "USGS", "time": "2026-08-16T21:48:43.015000+00:00", "magnitude": 4.5, "depth_km": 10.0, "url": "https://earthquake.usgs.gov/earthquakes/eventpage/usd0015eae", "description": "60 km NNE of Ruteng, Indonesia", "tsunami_flag": false, "alert": null, "status": "reviewed", "place": "60 km NNE of Ruteng, Indonesia"}}, {"type": "Feature", "geometry": {"type": "Point", "coordinates": [129.5786, -7.1018]}, "properties": {"id": "usd0015ea9", "hazard": "earthquake", "title": "M4.5 \u2014 Kepulauan Babar, Indonesia", "severity": "low", "source": "USGS", "time": "2026-08-16T21:28:19.024000+00:00", "magnitude": 4.5, "depth_km": 163.466, "url": "https://earthquake.usgs.gov/earthquakes/eventpage/usd0015ea9", "description": "Kepulauan Babar, Indonesia", "tsunami_flag": false, "alert": null, "status": "reviewed", "place": "Kepulauan Babar, Indonesia"}}, {"type": "Feature", "geometry": {"type": "Point", "coordinates": [120.4602, -7.9109]}, "properties": {"id": "usd0015e9a", "hazard": "earthquake", "title": "M4.9 \u2014 77 km N of Ruteng, Indonesia", "severity": "low", "source": "USGS", "time": "2026-08-16T17:26:15.105000+00:00", "magnitude": 4.9, "depth_km": 9.309, "url": "https://earthquake.usgs.gov/earthquakes/eventpage/usd0015e9a", "description": "77 km N of Ruteng, Indonesia", "tsunami_flag": false, "alert": null, "status": "reviewed", "place": "77 km N of Ruteng, Indonesia"}}, {"type": "Feature", "geometry": {"type": "Point", "coordinates": [-20.3712, -22.5775]}, "properties": {"id": "usd0015e96", "hazard": "earthquake", "title": "M4.9 \u2014 South Atlantic Ocean", "severity": "low", "source": "USGS", "time": "2026-08-16T17:11:07.915000+00:00", "magnitude": 4.9, "depth_km": 10.0, "url": "https://earthquake.usgs.gov/earthquakes/eventpage/usd0015e96", "description": "South Atlantic Ocean", "tsunami_flag": false, "alert": null, "status": "reviewed", "place": "South Atlantic Ocean"}}, {"type": "Feature", "geometry": {"type": "Point", "coordinates": [-92.969, 14.4177]}, "properties": {"id": "usd0015e8n", "hazard": "earthquake", "title": "M5.2 \u2014 67 km WSW of Puerto Madero, Mexico", "severity": "low", "source": "USGS", "time": "2026-08-16T15:52:53.557000+00:00", "magnitude": 5.2, "depth_km": 35.0, "url": "https://earthquake.usgs.gov/earthquakes/eventpage/usd0015e8n", "description": "67 km WSW of Puerto Madero, Mexico", "tsunami_flag": false, "alert": null, "status": "reviewed", "place": "67 km WSW of Puerto Madero, Mexico"}}, {"type": "Feature", "geometry": {"type": "Point", "coordinates": [120.7165, -7.9176]}, "properties": {"id": "usd0015e86", "hazard": "earthquake", "title": "M5.0 \u2014 81 km NNE of Ruteng, Indonesia", "severity": "low", "source": "USGS", "time": "2026-08-16T13:38:39.493000+00:00", "magnitude": 5.0, "depth_km": 10.0, "url": "https://earthquake.usgs.gov/earthquakes/eventpage/usd0015e86", "description": "81 km NNE of Ruteng, Indonesia", "tsunami_flag": false, "alert": null, "status": "reviewed", "place": "81 km NNE of Ruteng, Indonesia"}}, {"type": "Feature", "geometry": {"type": "Point", "coordinates": [120.5903, -7.5415]}, "properties": {"id": "usd0015e7x", "hazard": "earthquake", "title": "M4.5 \u2014 119 km N of Ruteng, Indonesia", "severity": "low", "source": "USGS", "time": "2026-08-16T12:37:51.682000+00:00", "magnitude": 4.5, "depth_km": 10.0, "url": "https://earthquake.usgs.gov/earthquakes/eventpage/usd0015e7x", "description": "119 km N of Ruteng, Indonesia", "tsunami_flag": false, "alert": null, "status": "reviewed", "place": "119 km N of Ruteng, Indonesia"}}, {"type": "Feature", "geometry": {"type": "Point", "coordinates": [120.2356, -7.8283]}, "properties": {"id": "usd0015e7s", "hazard": "earthquake", "title": "M4.7 \u2014 83 km NNE of Labuan Bajo, Indonesia", "severity": "low", "source": "USGS", "time": "2026-08-16T11:21:11.806000+00:00", "magnitude": 4.7, "depth_km": 10.0, "url": "https://earthquake.usgs.gov/earthquakes/eventpage/usd0015e7s", "description": "83 km NNE of Labuan Bajo, Indonesia", "tsunami_flag": false, "alert": null, "status": "reviewed", "place": "83 km NNE of Labuan Bajo, Indonesia"}}, {"type": "Feature", "geometry": {"type": "Point", "coordinates": [120.8509, -7.6716]}, "properties": {"id": "usd0015e7q", "hazard": "earthquake", "title": "M4.9 \u2014 112 km NNE of Ruteng, Indonesia", "severity": "low", "source": "USGS", "time": "2026-08-16T11:11:46.392000+00:00", "magnitude": 4.9, "depth_km": 10.0, "url": "https://earthquake.usgs.gov/earthquakes/eventpage/usd0015e7q", "description": "112 km NNE of Ruteng, Indonesia", "tsunami_flag": false, "alert": null, "status": "reviewed", "place": "112 km NNE of Ruteng, Indonesia"}}, {"type": "Feature", "geometry": {"type": "Point", "coordinates": [146.7882, -5.5432]}, "properties": {"id": "usd0015e7p", "hazard": "earthquake", "title": "M5.5 \u2014 116 km ESE of Madang, Papua New Guinea", "severity": "moderate", "source": "USGS", "time": "2026-08-16T10:59:11.283000+00:00", "magnitude": 5.5, "depth_km": 147.71, "url": "https://earthquake.usgs.gov/earthquakes/eventpage/usd0015e7p", "description": "116 km ESE of Madang, Papua New Guinea", "tsunami_flag": false, "alert": "green", "status": "reviewed", "place": "116 km ESE of Madang, Papua New Guinea"}}, {"type": "Feature", "geometry": {"type": "Point", "coordinates": [120.5504, -7.8791]}, "properties": {"id": "usd0015e7k", "hazard": "earthquake", "title": "M5.1 \u2014 81 km N of Ruteng, Indonesia", "severity": "low", "source": "USGS", "time": "2026-08-16T10:31:34.822000+00:00", "magnitude": 5.1, "depth_km": 10.0, "url": "https://earthquake.usgs.gov/earthquakes/eventpage/usd0015e7k", "description": "81 km N of Ruteng, Indonesia", "tsunami_flag": false, "alert": null, "status": "reviewed", "place": "81 km N of Ruteng, Indonesia"}}, {"type": "Feature", "geometry": {"type": "Point", "coordinates": [120.5995, -7.9399]}, "properties": {"id": "usd0015e7j", "hazard": "earthquake", "title": "M5.3 \u2014 75 km NNE of Ruteng, Indonesia", "severity": "low", "source": "USGS", "time": "2026-08-16T10:14:36.343000+00:00", "magnitude": 5.3, "depth_km": 10.0, "url": "https://earthquake.usgs.gov/earthquakes/eventpage/usd0015e7j", "description": "75 km NNE of Ruteng, Indonesia", "tsunami_flag": false, "alert": "green", "status": "reviewed", "place": "75 km NNE of Ruteng, Indonesia"}}, {"type": "Feature", "geometry": {"type": "Point", "coordinates": [146.3275, -5.5296]}, "properties": {"id": "usd0015e6s", "hazard": "earthquake", "title": "M4.6 \u2014 68 km ESE of Madang, Papua New Guinea", "severity": "low", "source": "USGS", "time": "2026-08-16T08:06:50.468000+00:00", "magnitude": 4.6, "depth_km": 130.097, "url": "https://earthquake.usgs.gov/earthquakes/eventpage/usd0015e6s", "description": "68 km ESE of Madang, Papua New Guinea", "tsunami_flag": false, "alert": null, "status": "reviewed", "place": "68 km ESE of Madang, Papua New Guinea"}}, {"type": "Feature", "geometry": {"type": "Point", "coordinates": [120.5855, -7.9322]}, "properties": {"id": "us6000tl6a", "hazard": "earthquake", "title": "M5.5 \u2014 76 km N of Ruteng, Indonesia", "severity": "moderate", "source": "USGS", "time": "2026-08-16T06:51:47.338000+00:00", "magnitude": 5.5, "depth_km": 10.0, "url": "https://earthquake.usgs.gov/earthquakes/eventpage/us6000tl6a", "description": "76 km N of Ruteng, Indonesia", "tsunami_flag": false, "alert": "green", "status": "reviewed", "place": "76 km N of Ruteng, Indonesia"}}, {"type": "Feature", "geometry": {"type": "Point", "coordinates": [121.5082, -8.4615]}, "properties": {"id": "us6000tl55", "hazard": "earthquake", "title": "M5.0 \u2014 45 km NNW of Ende, Indonesia", "severity": "low", "source": "USGS", "time": "2026-08-16T03:42:59.885000+00:00", "magnitude": 5.0, "depth_km": 10.0, "url": "https://earthquake.usgs.gov/earthquakes/eventpage/us6000tl55", "description": "45 km NNW of Ende, Indonesia", "tsunami_flag": false, "alert": null, "status": "reviewed", "place": "45 km NNW of Ende, Indonesia"}}, {"type": "Feature", "geometry": {"type": "Point", "coordinates": [167.1934, -14.5474]}, "properties": {"id": "us6000tl4w", "hazard": "earthquake", "title": "M6.1 \u2014 56 km NNE of Port-Olry, Vanuatu", "severity": "moderate", "source": "USGS", "time": "2026-08-16T03:20:24.373000+00:00", "magnitude": 6.1, "depth_km": 188.148, "url": "https://earthquake.usgs.gov/earthquakes/eventpage/us6000tl4w", "description": "56 km NNE of Port-Olry, Vanuatu", "tsunami_flag": false, "alert": "green", "status": "reviewed", "place": "56 km NNE of Port-Olry, Vanuatu"}}, {"type": "Feature", "geometry": {"type": "Point", "coordinates": [120.5156, -7.8894]}, "properties": {"id": "us6000tl44", "hazard": "earthquake", "title": "M5.0 \u2014 80 km N of Ruteng, Indonesia", "severity": "low", "source": "USGS", "time": "2026-08-15T23:12:54.664000+00:00", "magnitude": 5.0, "depth_km": 10.0, "url": "https://earthquake.usgs.gov/earthquakes/eventpage/us6000tl44", "description": "80 km N of Ruteng, Indonesia", "tsunami_flag": false, "alert": null, "status": "reviewed", "place": "80 km N of Ruteng, Indonesia"}}, {"type": "Feature", "geometry": {"type": "Point", "coordinates": [138.224, 9.6571]}, "properties": {"id": "us6000tl43", "hazard": "earthquake", "title": "M5.4 \u2014 19 km NE of Colonia, Micronesia", "severity": "low", "source": "USGS", "time": "2026-08-15T22:52:55.761000+00:00", "magnitude": 5.4, "depth_km": 10.0, "url": "https://earthquake.usgs.gov/earthquakes/eventpage/us6000tl43", "description": "19 km NE of Colonia, Micronesia", "tsunami_flag": false, "alert": "green", "status": "reviewed", "place": "19 km NE of Colonia, Micronesia"}}, {"type": "Feature", "geometry": {"type": "Point", "coordinates": [120.5111, -7.8284]}, "properties": {"id": "us6000tl3n", "hazard": "earthquake", "title": "M4.7 \u2014 86 km N of Ruteng, Indonesia", "severity": "low", "source": "USGS", "time": "2026-08-15T21:08:32.582000+00:00", "magnitude": 4.7, "depth_km": 10.0, "url": "https://earthquake.usgs.gov/earthquakes/eventpage/us6000tl3n", "description": "86 km N of Ruteng, Indonesia", "tsunami_flag": false, "alert": null, "status": "reviewed", "place": "86 km N of Ruteng, Indonesia"}}, {"type": "Feature", "geometry": {"type": "Point", "coordinates": [120.4927, -8.0349]}, "properties": {"id": "us6000tl3k", "hazard": "earthquake", "title": "M4.5 \u2014 63 km N of Ruteng, Indonesia", "severity": "low", "source": "USGS", "time": "2026-08-15T20:29:44.571000+00:00", "magnitude": 4.5, "depth_km": 10.0, "url": "https://earthquake.usgs.gov/earthquakes/eventpage/us6000tl3k", "description": "63 km N of Ruteng, Indonesia", "tsunami_flag": false, "alert": null, "status": "reviewed", "place": "63 km N of Ruteng, Indonesia"}}, {"type": "Feature", "geometry": {"type": "Point", "coordinates": [142.7868, 23.4461]}, "properties": {"id": "us6000tl36", "hazard": "earthquake", "title": "M5.5 \u2014 Volcano Islands, Japan region", "severity": "moderate", "source": "USGS", "time": "2026-08-15T19:32:30.371000+00:00", "magnitude": 5.5, "depth_km": 39.954, "url": "https://earthquake.usgs.gov/earthquakes/eventpage/us6000tl36", "description": "Volcano Islands, Japan region", "tsunami_flag": false, "alert": "green", "status": "reviewed", "place": "Volcano Islands, Japan region"}}, {"type": "Feature", "geometry": {"type": "Point", "coordinates": [120.6399, -8.2203]}, "properties": {"id": "us6000tl31", "hazard": "earthquake", "title": "M4.5 \u2014 47 km NNE of Ruteng, Indonesia", "severity": "low", "source": "USGS", "time": "2026-08-15T18:40:21.369000+00:00", "magnitude": 4.5, "depth_km": 10.0, "url": "https://earthquake.usgs.gov/earthquakes/eventpage/us6000tl31", "description": "47 km NNE of Ruteng, Indonesia", "tsunami_flag": false, "alert": null, "status": "reviewed", "place": "47 km NNE of Ruteng, Indonesia"}}, {"type": "Feature", "geometry": {"type": "Point", "coordinates": [120.6775, -7.7671]}, "properties": {"id": "us6000tl2u", "hazard": "earthquake", "title": "M4.7 \u2014 96 km NNE of Ruteng, Indonesia", "severity": "low", "source": "USGS", "time": "2026-08-15T17:51:27.384000+00:00", "magnitude": 4.7, "depth_km": 10.0, "url": "https://earthquake.usgs.gov/earthquakes/eventpage/us6000tl2u", "description": "96 km NNE of Ruteng, Indonesia", "tsunami_flag": false, "alert": null, "status": "reviewed", "place": "96 km NNE of Ruteng, Indonesia"}}, {"type": "Feature", "geometry": {"type": "Point", "coordinates": [120.4122, -7.9256]}, "properties": {"id": "us6000tl2t", "hazard": "earthquake", "title": "M4.7 \u2014 76 km N of Ruteng, Indonesia", "severity": "low", "source": "USGS", "time": "2026-08-15T17:44:14.375000+00:00", "magnitude": 4.7, "depth_km": 10.0, "url": "https://earthquake.usgs.gov/earthquakes/eventpage/us6000tl2t", "description": "76 km N of Ruteng, Indonesia", "tsunami_flag": false, "alert": null, "status": "reviewed", "place": "76 km N of Ruteng, Indonesia"}}, {"type": "Feature", "geometry": {"type": "Point", "coordinates": [159.9696, 51.4925]}, "properties": {"id": "us6000tl2s", "hazard": "earthquake", "title": "M4.6 \u2014 192 km SSE of Vilyuchinsk, Russia", "severity": "low", "source": "USGS", "time": "2026-08-15T17:41:42.009000+00:00", "magnitude": 4.6, "depth_km": 10.0, "url": "https://earthquake.usgs.gov/earthquakes/eventpage/us6000tl2s", "description": "192 km SSE of Vilyuchinsk, Russia", "tsunami_flag": false, "alert": null, "status": "reviewed", "place": "192 km SSE of Vilyuchinsk, Russia"}}, {"type": "Feature", "geometry": {"type": "Point", "coordinates": [121.4952, -8.3799]}, "properties": {"id": "us6000tl2p", "hazard": "earthquake", "title": "M4.5 \u2014 54 km NNW of Ende, Indonesia", "severity": "low", "source": "USGS", "time": "2026-08-15T17:21:07.767000+00:00", "magnitude": 4.5, "depth_km": 10.0, "url": "https://earthquake.usgs.gov/earthquakes/eventpage/us6000tl2p", "description": "54 km NNW of Ende, Indonesia", "tsunami_flag": false, "alert": null, "status": "reviewed", "place": "54 km NNW of Ende, Indonesia"}}, {"type": "Feature", "geometry": {"type": "Point", "coordinates": [120.6878, -7.795]}, "properties": {"id": "us6000tl2c", "hazard": "earthquake", "title": "M4.5 \u2014 93 km NNE of Ruteng, Indonesia", "severity": "low", "source": "USGS", "time": "2026-08-15T16:58:05.970000+00:00", "magnitude": 4.5, "depth_km": 9.95, "url": "https://earthquake.usgs.gov/earthquakes/eventpage/us6000tl2c", "description": "93 km NNE of Ruteng, Indonesia", "tsunami_flag": false, "alert": null, "status": "reviewed", "place": "93 km NNE of Ruteng, Indonesia"}}, {"type": "Feature", "geometry": {"type": "Point", "coordinates": [120.2965, 0.2087]}, "properties": {"id": "us6000tl1s", "hazard": "earthquake", "title": "M5.7 \u2014 132 km NNE of Palu, Indonesia", "severity": "moderate", "source": "USGS", "time": "2026-08-15T16:25:18.277000+00:00", "magnitude": 5.7, "depth_km": 72.017, "url": "https://earthquake.usgs.gov/earthquakes/eventpage/us6000tl1s", "description": "132 km NNE of Palu, Indonesia", "tsunami_flag": false, "alert": "green", "status": "reviewed", "place": "132 km NNE of Palu, Indonesia"}}, {"type": "Feature", "geometry": {"type": "Point", "coordinates": [121.3861, -8.2101]}, "properties": {"id": "us6000tl1p", "hazard": "earthquake", "title": "M4.9 \u2014 76 km NNW of Ende, Indonesia", "severity": "low", "source": "USGS", "time": "2026-08-15T15:52:32.416000+00:00", "magnitude": 4.9, "depth_km": 10.0, "url": "https://earthquake.usgs.gov/earthquakes/eventpage/us6000tl1p", "description": "76 km NNW of Ende, Indonesia", "tsunami_flag": false, "alert": null, "status": "reviewed", "place": "76 km NNW of Ende, Indonesia"}}, {"type": "Feature", "geometry": {"type": "Point", "coordinates": [129.8692, -6.5656]}, "properties": {"id": "us6000tl19", "hazard": "earthquake", "title": "M4.5 \u2014 Banda Sea", "severity": "low", "source": "USGS", "time": "2026-08-15T13:56:26.203000+00:00", "magnitude": 4.5, "depth_km": 171.398, "url": "https://earthquake.usgs.gov/earthquakes/eventpage/us6000tl19", "description": "Banda Sea", "tsunami_flag": false, "alert": null, "status": "reviewed", "place": "Banda Sea"}}, {"type": "Feature", "geometry": {"type": "Point", "coordinates": [121.2565, -8.2575]}, "properties": {"id": "us6000tl0v", "hazard": "earthquake", "title": "M5.2 \u2014 78 km NW of Ende, Indonesia", "severity": "low", "source": "USGS", "time": "2026-08-15T12:14:39.321000+00:00", "magnitude": 5.2, "depth_km": 10.0, "url": "https://earthquake.usgs.gov/earthquakes/eventpage/us6000tl0v", "description": "78 km NW of Ende, Indonesia", "tsunami_flag": false, "alert": null, "status": "reviewed", "place": "78 km NW of Ende, Indonesia"}}, {"type": "Feature", "geometry": {"type": "Point", "coordinates": [122.2931, 24.4732]}, "properties": {"id": "us6000tl0a", "hazard": "earthquake", "title": "M4.9 \u2014 63 km ESE of Yilan, Taiwan", "severity": "low", "source": "USGS", "time": "2026-08-15T11:30:15.368000+00:00", "magnitude": 4.9, "depth_km": 66.357, "url": "https://earthquake.usgs.gov/earthquakes/eventpage/us6000tl0a", "description": "63 km ESE of Yilan, Taiwan", "tsunami_flag": false, "alert": null, "status": "reviewed", "place": "63 km ESE of Yilan, Taiwan"}}, {"type": "Feature", "geometry": {"type": "Point", "coordinates": [143.9212, -4.411]}, "properties": {"id": "us6000tkyz", "hazard": "earthquake", "title": "M5.4 \u2014 41 km SSW of Angoram, Papua New Guinea", "severity": "low", "source": "USGS", "time": "2026-08-15T11:10:24.937000+00:00", "magnitude": 5.4, "depth_km": 120.214, "url": "https://earthquake.usgs.gov/earthquakes/eventpage/us6000tkyz", "description": "41 km SSW of Angoram, Papua New Guinea", "tsunami_flag": false, "alert": "green", "status": "reviewed", "place": "41 km SSW of Angoram, Papua New Guinea"}}, {"type": "Feature", "geometry": {"type": "Point", "coordinates": [99.015, 3.0856]}, "properties": {"id": "us6000tkyk", "hazard": "earthquake", "title": "M6.9 \u2014 15 km NNW of Pematangsiantar, Indonesia", "severity": "moderate", "source": "USGS", "time": "2026-08-15T10:54:51.796000+00:00", "magnitude": 6.9, "depth_km": 172.526, "url": "https://earthquake.usgs.gov/earthquakes/eventpage/us6000tkyk", "description": "15 km NNW of Pematangsiantar, Indonesia", "tsunami_flag": false, "alert": "green", "status": "reviewed", "place": "15 km NNW of Pematangsiantar, Indonesia"}}, {"type": "Feature", "geometry": {"type": "Point", "coordinates": [120.3675, -8.264]}, "properties": {"id": "us6000tkyg", "hazard": "earthquake", "title": "M5.1 \u2014 39 km NNW of Ruteng, Indonesia", "severity": "low", "source": "USGS", "time": "2026-08-15T10:31:30.185000+00:00", "magnitude": 5.1, "depth_km": 10.0, "url": "https://earthquake.usgs.gov/earthquakes/eventpage/us6000tkyg", "description": "39 km NNW of Ruteng, Indonesia", "tsunami_flag": false, "alert": null, "status": "reviewed", "place": "39 km NNW of Ruteng, Indonesia"}}, {"type": "Feature", "geometry": {"type": "Point", "coordinates": [122.0236, -0.1583]}, "properties": {"id": "us6000tkya", "hazard": "earthquake", "title": "M4.6 \u2014 122 km NW of Luwuk, Indonesia", "severity": "low", "source": "USGS", "time": "2026-08-15T09:51:45.571000+00:00", "magnitude": 4.6, "depth_km": 272.756, "url": "https://earthquake.usgs.gov/earthquakes/eventpage/us6000tkya", "description": "122 km NW of Luwuk, Indonesia", "tsunami_flag": false, "alert": null, "status": "reviewed", "place": "122 km NW of Luwuk, Indonesia"}}, {"type": "Feature", "geometry": {"type": "Point", "coordinates": [121.4883, -8.2814]}, "properties": {"id": "us6000tky8", "hazard": "earthquake", "title": "M4.9 \u2014 65 km NNW of Ende, Indonesia", "severity": "low", "source": "USGS", "time": "2026-08-15T09:32:53.800000+00:00", "magnitude": 4.9, "depth_km": 10.0, "url": "https://earthquake.usgs.gov/earthquakes/eventpage/us6000tky8", "description": "65 km NNW of Ende, Indonesia", "tsunami_flag": false, "alert": null, "status": "reviewed", "place": "65 km NNW of Ende, Indonesia"}}, {"type": "Feature", "geometry": {"type": "Point", "coordinates": [120.4925, -8.1297]}, "properties": {"id": "us6000tky5", "hazard": "earthquake", "title": "M4.6 \u2014 53 km N of Ruteng, Indonesia", "severity": "low", "source": "USGS", "time": "2026-08-15T09:08:22.294000+00:00", "magnitude": 4.6, "depth_km": 10.0, "url": "https://earthquake.usgs.gov/earthquakes/eventpage/us6000tky5", "description": "53 km N of Ruteng, Indonesia", "tsunami_flag": false, "alert": null, "status": "reviewed", "place": "53 km N of Ruteng, Indonesia"}}, {"type": "Feature", "geometry": {"type": "Point", "coordinates": [120.7765, -8.0446]}, "properties": {"id": "us6000tkx5", "hazard": "earthquake", "title": "M5.1 \u2014 71 km NNE of Ruteng, Indonesia", "severity": "low", "source": "USGS", "time": "2026-08-15T07:39:38.975000+00:00", "magnitude": 5.1, "depth_km": 10.0, "url": "https://earthquake.usgs.gov/earthquakes/eventpage/us6000tkx5", "description": "71 km NNE of Ruteng, Indonesia", "tsunami_flag": false, "alert": null, "status": "reviewed", "place": "71 km NNE of Ruteng, Indonesia"}}, {"type": "Feature", "geometry": {"type": "Point", "coordinates": [121.4064, -8.2926]}, "properties": {"id": "us6000tkwz", "hazard": "earthquake", "title": "M4.5 \u2014 67 km NNW of Ende, Indonesia", "severity": "low", "source": "USGS", "time": "2026-08-15T07:16:07.016000+00:00", "magnitude": 4.5, "depth_km": 10.0, "url": "https://earthquake.usgs.gov/earthquakes/eventpage/us6000tkwz", "description": "67 km NNW of Ende, Indonesia", "tsunami_flag": false, "alert": null, "status": "reviewed", "place": "67 km NNW of Ende, Indonesia"}}, {"type": "Feature", "geometry": {"type": "Point", "coordinates": [120.6523, -8.2384]}, "properties": {"id": "us6000tkwt", "hazard": "earthquake", "title": "M4.7 \u2014 46 km NNE of Ruteng, Indonesia", "severity": "low", "source": "USGS", "time": "2026-08-15T06:43:07.500000+00:00", "magnitude": 4.7, "depth_km": 10.0, "url": "https://earthquake.usgs.gov/earthquakes/eventpage/us6000tkwt", "description": "46 km NNE of Ruteng, Indonesia", "tsunami_flag": false, "alert": null, "status": "reviewed", "place": "46 km NNE of Ruteng, Indonesia"}}, {"type": "Feature", "geometry": {"type": "Point", "coordinates": [121.3664, -8.2671]}, "properties": {"id": "us6000tkwq", "hazard": "earthquake", "title": "M5.1 \u2014 71 km NNW of Ende, Indonesia", "severity": "low", "source": "USGS", "time": "2026-08-15T06:28:51.109000+00:00", "magnitude": 5.1, "depth_km": 10.0, "url": "https://earthquake.usgs.gov/earthquakes/eventpage/us6000tkwq", "description": "71 km NNW of Ende, Indonesia", "tsunami_flag": false, "alert": null, "status": "reviewed", "place": "71 km NNW of Ende, Indonesia"}}, {"type": "Feature", "geometry": {"type": "Point", "coordinates": [121.3609, -8.3681]}, "properties": {"id": "us6000tkwj", "hazard": "earthquake", "title": "M5.0 \u2014 62 km NNW of Ende, Indonesia", "severity": "low", "source": "USGS", "time": "2026-08-15T05:45:08.046000+00:00", "magnitude": 5.0, "depth_km": 10.0, "url": "https://earthquake.usgs.gov/earthquakes/eventpage/us6000tkwj", "description": "62 km NNW of Ende, Indonesia", "tsunami_flag": false, "alert": null, "status": "reviewed", "place": "62 km NNW of Ende, Indonesia"}}, {"type": "Feature", "geometry": {"type": "Point", "coordinates": [121.2851, -8.3988]}, "properties": {"id": "us6000tkwd", "hazard": "earthquake", "title": "M4.6 \u2014 64 km NW of Ende, Indonesia", "severity": "low", "source": "USGS", "time": "2026-08-15T04:23:07.762000+00:00", "magnitude": 4.6, "depth_km": 10.0, "url": "https://earthquake.usgs.gov/earthquakes/eventpage/us6000tkwd", "description": "64 km NW of Ende, Indonesia", "tsunami_flag": false, "alert": null, "status": "reviewed", "place": "64 km NW of Ende, Indonesia"}}, {"type": "Feature", "geometry": {"type": "Point", "coordinates": [121.3458, -8.32]}, "properties": {"id": "us6000tkw9", "hazard": "earthquake", "title": "M5.0 \u2014 67 km NNW of Ende, Indonesia", "severity": "low", "source": "USGS", "time": "2026-08-15T03:54:13.099000+00:00", "magnitude": 5.0, "depth_km": 10.0, "url": "https://earthquake.usgs.gov/earthquakes/eventpage/us6000tkw9", "description": "67 km NNW of Ende, Indonesia", "tsunami_flag": false, "alert": null, "status": "reviewed", "place": "67 km NNW of Ende, Indonesia"}}, {"type": "Feature", "geometry": {"type": "Point", "coordinates": [121.3427, -8.299]}, "properties": {"id": "us6000tkw2", "hazard": "earthquake", "title": "M4.9 \u2014 69 km NNW of Ende, Indonesia", "severity": "low", "source": "USGS", "time": "2026-08-15T02:46:55.923000+00:00", "magnitude": 4.9, "depth_km": 10.0, "url": "https://earthquake.usgs.gov/earthquakes/eventpage/us6000tkw2", "description": "69 km NNW of Ende, Indonesia", "tsunami_flag": false, "alert": null, "status": "reviewed", "place": "69 km NNW of Ende, Indonesia"}}, {"type": "Feature", "geometry": {"type": "Point", "coordinates": [121.3629, -8.2289]}, "properties": {"id": "us6000tkw0", "hazard": "earthquake", "title": "M4.5 \u2014 75 km NNW of Ende, Indonesia", "severity": "low", "source": "USGS", "time": "2026-08-15T02:18:46.795000+00:00", "magnitude": 4.5, "depth_km": 10.0, "url": "https://earthquake.usgs.gov/earthquakes/eventpage/us6000tkw0", "description": "75 km NNW of Ende, Indonesia", "tsunami_flag": false, "alert": null, "status": "reviewed", "place": "75 km NNW of Ende, Indonesia"}}, {"type": "Feature", "geometry": {"type": "Point", "coordinates": [121.2637, -8.1754]}, "properties": {"id": "us6000tkvy", "hazard": "earthquake", "title": "M4.6 \u2014 85 km NNW of Ende, Indonesia", "severity": "low", "source": "USGS", "time": "2026-08-15T02:03:45.840000+00:00", "magnitude": 4.6, "depth_km": 10.0, "url": "https://earthquake.usgs.gov/earthquakes/eventpage/us6000tkvy", "description": "85 km NNW of Ende, Indonesia", "tsunami_flag": false, "alert": null, "status": "reviewed", "place": "85 km NNW of Ende, Indonesia"}}, {"type": "Feature", "geometry": {"type": "Point", "coordinates": [120.5052, -8.0505]}, "properties": {"id": "us6000tkvt", "hazard": "earthquake", "title": "M4.9 \u2014 62 km N of Ruteng, Indonesia", "severity": "low", "source": "USGS", "time": "2026-08-15T01:37:40.307000+00:00", "magnitude": 4.9, "depth_km": 10.0, "url": "https://earthquake.usgs.gov/earthquakes/eventpage/us6000tkvt", "description": "62 km N of Ruteng, Indonesia", "tsunami_flag": false, "alert": null, "status": "reviewed", "place": "62 km N of Ruteng, Indonesia"}}, {"type": "Feature", "geometry": {"type": "Point", "coordinates": [120.6888, -8.0088]}, "properties": {"id": "us6000tkvp", "hazard": "earthquake", "title": "M5.1 \u2014 71 km NNE of Ruteng, Indonesia", "severity": "low", "source": "USGS", "time": "2026-08-15T01:17:20.014000+00:00", "magnitude": 5.1, "depth_km": 10.0, "url": "https://earthquake.usgs.gov/earthquakes/eventpage/us6000tkvp", "description": "71 km NNE of Ruteng, Indonesia", "tsunami_flag": false, "alert": null, "status": "reviewed", "place": "71 km NNE of Ruteng, Indonesia"}}, {"type": "Feature", "geometry": {"type": "Point", "coordinates": [141.1138, 37.2084]}, "properties": {"id": "us6000tkvn", "hazard": "earthquake", "title": "M4.7 \u2014 16 km SSE of Tomioka, Japan", "severity": "low", "source": "USGS", "time": "2026-08-15T01:10:51.635000+00:00", "magnitude": 4.7, "depth_km": 50.197, "url": "https://earthquake.usgs.gov/earthquakes/eventpage/us6000tkvn", "description": "16 km SSE of Tomioka, Japan", "tsunami_flag": false, "alert": null, "status": "reviewed", "place": "16 km SSE of Tomioka, Japan"}}, {"type": "Feature", "geometry": {"type": "Point", "coordinates": [156.3863, 50.3745]}, "properties": {"id": "us6000tkvj", "hazard": "earthquake", "title": "M5.4 \u2014 38 km SSE of Severo-Kuril\u2019sk, Russia", "severity": "low", "source": "USGS", "time": "2026-08-15T00:43:29.640000+00:00", "magnitude": 5.4, "depth_km": 78.982, "url": "https://earthquake.usgs.gov/earthquakes/eventpage/us6000tkvj", "description": "38 km SSE of Severo-Kuril\u2019sk, Russia", "tsunami_flag": false, "alert": "green", "status": "reviewed", "place": "38 km SSE of Severo-Kuril\u2019sk, Russia"}}, {"type": "Feature", "geometry": {"type": "Point", "coordinates": [121.4162, -8.248]}, "properties": {"id": "us6000tkvh", "hazard": "earthquake", "title": "M5.1 \u2014 71 km NNW of Ende, Indonesia", "severity": "low", "source": "USGS", "time": "2026-08-15T00:40:18.406000+00:00", "magnitude": 5.1, "depth_km": 10.0, "url": "https://earthquake.usgs.gov/earthquakes/eventpage/us6000tkvh", "description": "71 km NNW of Ende, Indonesia", "tsunami_flag": false, "alert": null, "status": "reviewed", "place": "71 km NNW of Ende, Indonesia"}}, {"type": "Feature", "geometry": {"type": "Point", "coordinates": [165.89, -62.9125]}, "properties": {"id": "us6000tkvi", "hazard": "earthquake", "title": "M5.3 \u2014 Balleny Islands region", "severity": "low", "source": "USGS", "time": "2026-08-15T00:40:13.397000+00:00", "magnitude": 5.3, "depth_km": 10.0, "url": "https://earthquake.usgs.gov/earthquakes/eventpage/us6000tkvi", "description": "Balleny Islands region", "tsunami_flag": false, "alert": null, "status": "reviewed", "place": "Balleny Islands region"}}, {"type": "Feature", "geometry": {"type": "Point", "coordinates": [121.2789, -8.6065]}, "properties": {"id": "us6000tkvg", "hazard": "earthquake", "title": "M4.6 \u2014 49 km WNW of Ende, Indonesia", "severity": "low", "source": "USGS", "time": "2026-08-15T00:20:27.120000+00:00", "magnitude": 4.6, "depth_km": 10.0, "url": "https://earthquake.usgs.gov/earthquakes/eventpage/us6000tkvg", "description": "49 km WNW of Ende, Indonesia", "tsunami_flag": false, "alert": null, "status": "reviewed", "place": "49 km WNW of Ende, Indonesia"}}, {"type": "Feature", "geometry": {"type": "Point", "coordinates": [121.3126, -8.2265]}, "properties": {"id": "us6000tkvd", "hazard": "earthquake", "title": "M4.7 \u2014 78 km NNW of Ende, Indonesia", "severity": "low", "source": "USGS", "time": "2026-08-15T00:03:22.963000+00:00", "magnitude": 4.7, "depth_km": 10.0, "url": "https://earthquake.usgs.gov/earthquakes/eventpage/us6000tkvd", "description": "78 km NNW of Ende, Indonesia", "tsunami_flag": false, "alert": null, "status": "reviewed", "place": "78 km NNW of Ende, Indonesia"}}, {"type": "Feature", "geometry": {"type": "Point", "coordinates": [121.5158, -8.1975]}, "properties": {"id": "us6000tkvc", "hazard": "earthquake", "title": "M4.8 \u2014 73 km NNW of Ende, Indonesia", "severity": "low", "source": "USGS", "time": "2026-08-14T23:52:55.591000+00:00", "magnitude": 4.8, "depth_km": 10.0, "url": "https://earthquake.usgs.gov/earthquakes/eventpage/us6000tkvc", "description": "73 km NNW of Ende, Indonesia", "tsunami_flag": false, "alert": null, "status": "reviewed", "place": "73 km NNW of Ende, Indonesia"}}, {"type": "Feature", "geometry": {"type": "Point", "coordinates": [121.3939, -8.2074]}, "properties": {"id": "us6000tkvb", "hazard": "earthquake", "title": "M4.5 \u2014 76 km NNW of Ende, Indonesia", "severity": "low", "source": "USGS", "time": "2026-08-14T23:49:58.157000+00:00", "magnitude": 4.5, "depth_km": 10.0, "url": "https://earthquake.usgs.gov/earthquakes/eventpage/us6000tkvb", "description": "76 km NNW of Ende, Indonesia", "tsunami_flag": false, "alert": null, "status": "reviewed", "place": "76 km NNW of Ende, Indonesia"}}, {"type": "Feature", "geometry": {"type": "Point", "coordinates": [121.359, -8.3348]}, "properties": {"id": "us6000tkv9", "hazard": "earthquake", "title": "M5.0 \u2014 65 km NNW of Ende, Indonesia", "severity": "low", "source": "USGS", "time": "2026-08-14T23:17:05.284000+00:00", "magnitude": 5.0, "depth_km": 10.0, "url": "https://earthquake.usgs.gov/earthquakes/eventpage/us6000tkv9", "description": "65 km NNW of Ende, Indonesia", "tsunami_flag": false, "alert": null, "status": "reviewed", "place": "65 km NNW of Ende, Indonesia"}}, {"type": "Feature", "geometry": {"type": "Point", "coordinates": [120.4166, -8.1694]}, "properties": {"id": "us6000tkv7", "hazard": "earthquake", "title": "M5.1 \u2014 49 km N of Ruteng, Indonesia", "severity": "low", "source": "USGS", "time": "2026-08-14T23:12:31.091000+00:00", "magnitude": 5.1, "depth_km": 10.0, "url": "https://earthquake.usgs.gov/earthquakes/eventpage/us6000tkv7", "description": "49 km N of Ruteng, Indonesia", "tsunami_flag": false, "alert": null, "status": "reviewed", "place": "49 km N of Ruteng, Indonesia"}}, {"type": "Feature", "geometry": {"type": "Point", "coordinates": [-3.6486, 37.0789]}, "properties": {"id": "us6000tkv2", "hazard": "earthquake", "title": "M5.2 \u2014 1 km SW of Otura, Spain", "severity": "moderate", "source": "USGS", "time": "2026-08-14T23:04:40.797000+00:00", "magnitude": 5.2, "depth_km": 10.0, "url": "https://earthquake.usgs.gov/earthquakes/eventpage/us6000tkv2", "description": "1 km SW of Otura, Spain", "tsunami_flag": false, "alert": "yellow", "status": "reviewed", "place": "1 km SW of Otura, Spain"}}, {"type": "Feature", "geometry": {"type": "Point", "coordinates": [120.829, -8.2899]}, "properties": {"id": "us6000tl1g", "hazard": "earthquake", "title": "M4.8 \u2014 53 km NE of Ruteng, Indonesia", "severity": "low", "source": "USGS", "time": "2026-08-14T23:00:03.603000+00:00", "magnitude": 4.8, "depth_km": 11.296, "url": "https://earthquake.usgs.gov/earthquakes/eventpage/us6000tl1g", "description": "53 km NE of Ruteng, Indonesia", "tsunami_flag": false, "alert": null, "status": "reviewed", "place": "53 km NE of Ruteng, Indonesia"}}, {"type": "Feature", "geometry": {"type": "Point", "coordinates": [120.2424, -8.146]}, "properties": {"id": "us6000tkv1", "hazard": "earthquake", "title": "M4.7 \u2014 55 km NE of Labuan Bajo, Indonesia", "severity": "low", "source": "USGS", "time": "2026-08-14T22:59:12.662000+00:00", "magnitude": 4.7, "depth_km": 10.0, "url": "https://earthquake.usgs.gov/earthquakes/eventpage/us6000tkv1", "description": "55 km NE of Labuan Bajo, Indonesia", "tsunami_flag": false, "alert": null, "status": "reviewed", "place": "55 km NE of Labuan Bajo, Indonesia"}}, {"type": "Feature", "geometry": {"type": "Point", "coordinates": [120.2253, -8.2053]}, "properties": {"id": "us6000tkuw", "hazard": "earthquake", "title": "M5.3 \u2014 49 km NE of Labuan Bajo, Indonesia", "severity": "low", "source": "USGS", "time": "2026-08-14T22:53:11.834000+00:00", "magnitude": 5.3, "depth_km": 10.0, "url": "https://earthquake.usgs.gov/earthquakes/eventpage/us6000tkuw", "description": "49 km NE of Labuan Bajo, Indonesia", "tsunami_flag": false, "alert": null, "status": "reviewed", "place": "49 km NE of Labuan Bajo, Indonesia"}}, {"type": "Feature", "geometry": {"type": "Point", "coordinates": [120.1908, -8.1604]}, "properties": {"id": "us6000tkuf", "hazard": "earthquake", "title": "M5.5 \u2014 49 km NE of Labuan Bajo, Indonesia", "severity": "moderate", "source": "USGS", "time": "2026-08-14T22:37:17.172000+00:00", "magnitude": 5.5, "depth_km": 10.0, "url": "https://earthquake.usgs.gov/earthquakes/eventpage/us6000tkuf", "description": "49 km NE of Labuan Bajo, Indonesia", "tsunami_flag": false, "alert": "green", "status": "reviewed", "place": "49 km NE of Labuan Bajo, Indonesia"}}, {"type": "Feature", "geometry": {"type": "Point", "coordinates": [121.5717, -8.3186]}, "properties": {"id": "us6000tkuc", "hazard": "earthquake", "title": "M6.1 \u2014 58 km N of Ende, Indonesia", "severity": "moderate", "source": "USGS", "time": "2026-08-14T22:28:37.550000+00:00", "magnitude": 6.1, "depth_km": 10.0, "url": "https://earthquake.usgs.gov/earthquakes/eventpage/us6000tkuc", "description": "58 km N of Ende, Indonesia", "tsunami_flag": false, "alert": "green", "status": "reviewed", "place": "58 km N of Ende, Indonesia"}}, {"type": "Feature", "geometry": {"type": "Point", "coordinates": [121.4284, -8.3406]}, "properties": {"id": "us6000tku7", "hazard": "earthquake", "title": "M5.6 \u2014 61 km NNW of Ende, Indonesia", "severity": "moderate", "source": "USGS", "time": "2026-08-14T22:18:06.706000+00:00", "magnitude": 5.6, "depth_km": 10.0, "url": "https://earthquake.usgs.gov/earthquakes/eventpage/us6000tku7", "description": "61 km NNW of Ende, Indonesia", "tsunami_flag": false, "alert": "green", "status": "reviewed", "place": "61 km NNW of Ende, Indonesia"}}, {"type": "Feature", "geometry": {"type": "Point", "coordinates": [121.0058, -8.4696]}, "properties": {"id": "us6000tkub", "hazard": "earthquake", "title": "M5.5 \u2014 61 km ENE of Ruteng, Indonesia", "severity": "moderate", "source": "USGS", "time": "2026-08-14T22:17:00.060000+00:00", "magnitude": 5.5, "depth_km": 10.0, "url": "https://earthquake.usgs.gov/earthquakes/eventpage/us6000tkub", "description": "61 km ENE of Ruteng, Indonesia", "tsunami_flag": false, "alert": "green", "status": "reviewed", "place": "61 km ENE of Ruteng, Indonesia"}}, {"type": "Feature", "geometry": {"type": "Point", "coordinates": [120.1465, -8.2849]}, "properties": {"id": "us6000tkta", "hazard": "earthquake", "title": "M5.9 \u2014 36 km NE of Labuan Bajo, Indonesia", "severity": "moderate", "source": "USGS", "time": "2026-08-14T22:13:50.869000+00:00", "magnitude": 5.9, "depth_km": 10.0, "url": "https://earthquake.usgs.gov/earthquakes/eventpage/us6000tkta", "description": "36 km NE of Labuan Bajo, Indonesia", "tsunami_flag": false, "alert": "green", "status": "reviewed", "place": "36 km NE of Labuan Bajo, Indonesia"}}, {"type": "Feature", "geometry": {"type": "Point", "coordinates": [121.3517, -8.3101]}, "properties": {"id": "us6000tkt2", "hazard": "earthquake", "title": "M7.7 \u2014 68 km NNW of Ende, Indonesia", "severity": "high", "source": "USGS", "time": "2026-08-14T21:58:21.564000+00:00", "magnitude": 7.7, "depth_km": 10.0, "url": "https://earthquake.usgs.gov/earthquakes/eventpage/us6000tkt2", "description": "68 km NNW of Ende, Indonesia", "tsunami_flag": false, "alert": "yellow", "status": "reviewed", "place": "68 km NNW of Ende, Indonesia"}}, {"type": "Feature", "geometry": {"type": "Point", "coordinates": [161.7858, -10.4124]}, "properties": {"id": "us6000tksg", "hazard": "earthquake", "title": "M4.8 \u2014 15 km WNW of Kirakira, Solomon Islands", "severity": "low", "source": "USGS", "time": "2026-08-14T20:23:53.872000+00:00", "magnitude": 4.8, "depth_km": 69.797, "url": "https://earthquake.usgs.gov/earthquakes/eventpage/us6000tksg", "description": "15 km WNW of Kirakira, Solomon Islands", "tsunami_flag": false, "alert": null, "status": "reviewed", "place": "15 km WNW of Kirakira, Solomon Islands"}}, {"type": "Feature", "geometry": {"type": "Point", "coordinates": [167.4799, -12.3805]}, "properties": {"id": "us6000tkrw", "hazard": "earthquake", "title": "M4.5 \u2014 165 km N of Sola, Vanuatu", "severity": "low", "source": "USGS", "time": "2026-08-14T18:33:25.499000+00:00", "magnitude": 4.5, "depth_km": 369.326, "url": "https://earthquake.usgs.gov/earthquakes/eventpage/us6000tkrw", "description": "165 km N of Sola, Vanuatu", "tsunami_flag": false, "alert": null, "status": "reviewed", "place": "165 km N of Sola, Vanuatu"}}, {"type": "Feature", "geometry": {"type": "Point", "coordinates": [128.0475, 4.2883]}, "properties": {"id": "us6000tkrs", "hazard": "earthquake", "title": "M4.7 \u2014 283 km N of Tobelo, Indonesia", "severity": "low", "source": "USGS", "time": "2026-08-14T18:03:54.327000+00:00", "magnitude": 4.7, "depth_km": 10.0, "url": "https://earthquake.usgs.gov/earthquakes/eventpage/us6000tkrs", "description": "283 km N of Tobelo, Indonesia", "tsunami_flag": false, "alert": null, "status": "reviewed", "place": "283 km N of Tobelo, Indonesia"}}, {"type": "Feature", "geometry": {"type": "Point", "coordinates": [158.869, 51.371]}, "properties": {"id": "us6000tkrq", "hazard": "earthquake", "title": "M4.5 \u2014 165 km E of Ozernovskiy, Russia", "severity": "low", "source": "USGS", "time": "2026-08-14T17:47:42.334000+00:00", "magnitude": 4.5, "depth_km": 35.0, "url": "https://earthquake.usgs.gov/earthquakes/eventpage/us6000tkrq", "description": "165 km E of Ozernovskiy, Russia", "tsunami_flag": false, "alert": null, "status": "reviewed", "place": "165 km E of Ozernovskiy, Russia"}}, {"type": "Feature", "geometry": {"type": "Point", "coordinates": [48.7787, 41.1279]}, "properties": {"id": "us6000tkrg", "hazard": "earthquake", "title": "M4.9 \u2014 19 km WSW of Divichibazar, Azerbaijan", "severity": "low", "source": "USGS", "time": "2026-08-14T16:56:14.767000+00:00", "magnitude": 4.9, "depth_km": 10.0, "url": "https://earthquake.usgs.gov/earthquakes/eventpage/us6000tkrg", "description": "19 km WSW of Divichibazar, Azerbaijan", "tsunami_flag": false, "alert": null, "status": "reviewed", "place": "19 km WSW of Divichibazar, Azerbaijan"}}, {"type": "Feature", "geometry": {"type": "Point", "coordinates": [141.619, 33.615]}, "properties": {"id": "us6000tkmy", "hazard": "earthquake", "title": "M4.8 \u2014 207 km SE of Katsuura, Japan", "severity": "low", "source": "USGS", "time": "2026-08-14T09:58:43.693000+00:00", "magnitude": 4.8, "depth_km": 10.0, "url": "https://earthquake.usgs.gov/earthquakes/eventpage/us6000tkmy", "description": "207 km SE of Katsuura, Japan", "tsunami_flag": false, "alert": null, "status": "reviewed", "place": "207 km SE of Katsuura, Japan"}}, {"type": "Feature", "geometry": {"type": "Point", "coordinates": [139.5875, 27.6391]}, "properties": {"id": "us6000tklc", "hazard": "earthquake", "title": "M4.8 \u2014 Bonin Islands, Japan region", "severity": "low", "source": "USGS", "time": "2026-08-14T04:53:15.378000+00:00", "magnitude": 4.8, "depth_km": 516.445, "url": "https://earthquake.usgs.gov/earthquakes/eventpage/us6000tklc", "description": "Bonin Islands, Japan region", "tsunami_flag": false, "alert": null, "status": "reviewed", "place": "Bonin Islands, Japan region"}}, {"type": "Feature", "geometry": {"type": "Point", "coordinates": [125.1585, 5.3865]}, "properties": {"id": "us6000tkkw", "hazard": "earthquake", "title": "M4.9 \u2014 29 km SW of Balangonan, Philippines", "severity": "low", "source": "USGS", "time": "2026-08-14T01:14:53.627000+00:00", "magnitude": 4.9, "depth_km": 92.559, "url": "https://earthquake.usgs.gov/earthquakes/eventpage/us6000tkkw", "description": "29 km SW of Balangonan, Philippines", "tsunami_flag": false, "alert": null, "status": "reviewed", "place": "29 km SW of Balangonan, Philippines"}}, {"type": "Feature", "geometry": {"type": "Point", "coordinates": [125.4836, 5.3002]}, "properties": {"id": "us6000tkig", "hazard": "earthquake", "title": "M5.3 \u2014 11 km S of Sarangani, Philippines", "severity": "low", "source": "USGS", "time": "2026-08-13T18:39:31.327000+00:00", "magnitude": 5.3, "depth_km": 66.312, "url": "https://earthquake.usgs.gov/earthquakes/eventpage/us6000tkig", "description": "11 km S of Sarangani, Philippines", "tsunami_flag": false, "alert": null, "status": "reviewed", "place": "11 km S of Sarangani, Philippines"}}, {"type": "Feature", "geometry": {"type": "Point", "coordinates": [147.2281, -56.8562]}, "properties": {"id": "us6000tki8", "hazard": "earthquake", "title": "M5.1 \u2014 west of Macquarie Island", "severity": "low", "source": "USGS", "time": "2026-08-13T17:39:29.650000+00:00", "magnitude": 5.1, "depth_km": 10.0, "url": "https://earthquake.usgs.gov/earthquakes/eventpage/us6000tki8", "description": "west of Macquarie Island", "tsunami_flag": false, "alert": null, "status": "reviewed", "place": "west of Macquarie Island"}}, {"type": "Feature", "geometry": {"type": "Point", "coordinates": [-176.3124, -28.6742]}, "properties": {"id": "us6000tkhm", "hazard": "earthquake", "title": "M5.6 \u2014 Kermadec Islands region", "severity": "moderate", "source": "USGS", "time": "2026-08-13T16:11:45.826000+00:00", "magnitude": 5.6, "depth_km": 10.0, "url": "https://earthquake.usgs.gov/earthquakes/eventpage/us6000tkhm", "description": "Kermadec Islands region", "tsunami_flag": false, "alert": "green", "status": "reviewed", "place": "Kermadec Islands region"}}, {"type": "Feature", "geometry": {"type": "Point", "coordinates": [143.8885, -4.4318]}, "properties": {"id": "us6000tkgn", "hazard": "earthquake", "title": "M5.0 \u2014 45 km SSW of Angoram, Papua New Guinea", "severity": "low", "source": "USGS", "time": "2026-08-13T12:44:59.102000+00:00", "magnitude": 5.0, "depth_km": 134.025, "url": "https://earthquake.usgs.gov/earthquakes/eventpage/us6000tkgn", "description": "45 km SSW of Angoram, Papua New Guinea", "tsunami_flag": false, "alert": null, "status": "reviewed", "place": "45 km SSW of Angoram, Papua New Guinea"}}, {"type": "Feature", "geometry": {"type": "Point", "coordinates": [114.1762, -8.4115]}, "properties": {"id": "us6000tkg4", "hazard": "earthquake", "title": "M4.6 \u2014 3 km ESE of Gambiran Satu, Indonesia", "severity": "low", "source": "USGS", "time": "2026-08-13T10:23:19.536000+00:00", "magnitude": 4.6, "depth_km": 145.679, "url": "https://earthquake.usgs.gov/earthquakes/eventpage/us6000tkg4", "description": "3 km ESE of Gambiran Satu, Indonesia", "tsunami_flag": false, "alert": null, "status": "reviewed", "place": "3 km ESE of Gambiran Satu, Indonesia"}}, {"type": "Feature", "geometry": {"type": "Point", "coordinates": [125.8789, 6.2479]}, "properties": {"id": "us6000tkfh", "hazard": "earthquake", "title": "M5.1 \u2014 22 km ENE of Lapuan, Philippines", "severity": "low", "source": "USGS", "time": "2026-08-13T09:22:58.999000+00:00", "magnitude": 5.1, "depth_km": 91.206, "url": "https://earthquake.usgs.gov/earthquakes/eventpage/us6000tkfh", "description": "22 km ENE of Lapuan, Philippines", "tsunami_flag": false, "alert": null, "status": "reviewed", "place": "22 km ENE of Lapuan, Philippines"}}, {"type": "Feature", "geometry": {"type": "Point", "coordinates": [155.3646, 48.738]}, "properties": {"id": "us6000tkeb", "hazard": "earthquake", "title": "M4.5 \u2014 222 km SSW of Severo-Kuril\u2019sk, Russia", "severity": "low", "source": "USGS", "time": "2026-08-13T07:09:24.608000+00:00", "magnitude": 4.5, "depth_km": 35.0, "url": "https://earthquake.usgs.gov/earthquakes/eventpage/us6000tkeb", "description": "222 km SSW of Severo-Kuril\u2019sk, Russia", "tsunami_flag": false, "alert": null, "status": "reviewed", "place": "222 km SSW of Severo-Kuril\u2019sk, Russia"}}, {"type": "Feature", "geometry": {"type": "Point", "coordinates": [74.3579, 36.7849]}, "properties": {"id": "us6000tkci", "hazard": "earthquake", "title": "M5.1 \u2014 59 km NNW of Barishal, Pakistan", "severity": "low", "source": "USGS", "time": "2026-08-13T00:35:18.815000+00:00", "magnitude": 5.1, "depth_km": 58.893, "url": "https://earthquake.usgs.gov/earthquakes/eventpage/us6000tkci", "description": "59 km NNW of Barishal, Pakistan", "tsunami_flag": false, "alert": null, "status": "reviewed", "place": "59 km NNW of Barishal, Pakistan"}}, {"type": "Feature", "geometry": {"type": "Point", "coordinates": [7.8276, 73.4757]}, "properties": {"id": "us6000tkcj", "hazard": "earthquake", "title": "M4.7 \u2014 Greenland Sea", "severity": "low", "source": "USGS", "time": "2026-08-13T00:33:27.168000+00:00", "magnitude": 4.7, "depth_km": 10.0, "url": "https://earthquake.usgs.gov/earthquakes/eventpage/us6000tkcj", "description": "Greenland Sea", "tsunami_flag": false, "alert": null, "status": "reviewed", "place": "Greenland Sea"}}, {"type": "Feature", "geometry": {"type": "Point", "coordinates": [-88.2864, 12.6084]}, "properties": {"id": "us6000tkcb", "hazard": "earthquake", "title": "M5.5 \u2014 69 km SSW of Chirilagua, El Salvador", "severity": "moderate", "source": "USGS", "time": "2026-08-13T00:30:04.840000+00:00", "magnitude": 5.5, "depth_km": 56.794, "url": "https://earthquake.usgs.gov/earthquakes/eventpage/us6000tkcb", "description": "69 km SSW of Chirilagua, El Salvador", "tsunami_flag": false, "alert": "green", "status": "reviewed", "place": "69 km SSW of Chirilagua, El Salvador"}}, {"type": "Feature", "geometry": {"type": "Point", "coordinates": [-178.554, -17.8749]}, "properties": {"id": "us6000tkba", "hazard": "earthquake", "title": "M5.1 \u2014 226 km E of Levuka, Fiji", "severity": "low", "source": "USGS", "time": "2026-08-12T22:13:33.611000+00:00", "magnitude": 5.1, "depth_km": 570.792, "url": "https://earthquake.usgs.gov/earthquakes/eventpage/us6000tkba", "description": "226 km E of Levuka, Fiji", "tsunami_flag": false, "alert": null, "status": "reviewed", "place": "226 km E of Levuka, Fiji"}}, {"type": "Feature", "geometry": {"type": "Point", "coordinates": [122.2726, 20.4966]}, "properties": {"id": "us6000tkax", "hazard": "earthquake", "title": "M4.7 \u2014 31 km E of Basco, Philippines", "severity": "low", "source": "USGS", "time": "2026-08-12T21:25:20.192000+00:00", "magnitude": 4.7, "depth_km": 10.0, "url": "https://earthquake.usgs.gov/earthquakes/eventpage/us6000tkax", "description": "31 km E of Basco, Philippines", "tsunami_flag": false, "alert": null, "status": "reviewed", "place": "31 km E of Basco, Philippines"}}, {"type": "Feature", "geometry": {"type": "Point", "coordinates": [130.4343, 32.4765]}, "properties": {"id": "us6000tkaw", "hazard": "earthquake", "title": "M4.6 \u2014 15 km WSW of Honmachi, Japan", "severity": "low", "source": "USGS", "time": "2026-08-12T21:21:29.025000+00:00", "magnitude": 4.6, "depth_km": 10.0, "url": "https://earthquake.usgs.gov/earthquakes/eventpage/us6000tkaw", "description": "15 km WSW of Honmachi, Japan", "tsunami_flag": false, "alert": null, "status": "reviewed", "place": "15 km WSW of Honmachi, Japan"}}, {"type": "Feature", "geometry": {"type": "Point", "coordinates": [129.516, -6.5002]}, "properties": {"id": "us6000tk9q", "hazard": "earthquake", "title": "M4.5 \u2014 Banda Sea", "severity": "low", "source": "USGS", "time": "2026-08-12T18:58:25.658000+00:00", "magnitude": 4.5, "depth_km": 178.38, "url": "https://earthquake.usgs.gov/earthquakes/eventpage/us6000tk9q", "description": "Banda Sea", "tsunami_flag": false, "alert": null, "status": "reviewed", "place": "Banda Sea"}}, {"type": "Feature", "geometry": {"type": "Point", "coordinates": [-92.3028, 13.9641]}, "properties": {"id": "us6000tk75", "hazard": "earthquake", "title": "M4.6 \u2014 55 km SW of Champerico, Guatemala", "severity": "low", "source": "USGS", "time": "2026-08-12T11:56:29.774000+00:00", "magnitude": 4.6, "depth_km": 35.0, "url": "https://earthquake.usgs.gov/earthquakes/eventpage/us6000tk75", "description": "55 km SW of Champerico, Guatemala", "tsunami_flag": false, "alert": null, "status": "reviewed", "place": "55 km SW of Champerico, Guatemala"}}, {"type": "Feature", "geometry": {"type": "Point", "coordinates": [-28.9899, -60.2445]}, "properties": {"id": "us6000tk74", "hazard": "earthquake", "title": "M6.0 \u2014 South Sandwich Islands region", "severity": "moderate", "source": "USGS", "time": "2026-08-12T11:47:12.117000+00:00", "magnitude": 6.0, "depth_km": 10.0, "url": "https://earthquake.usgs.gov/earthquakes/eventpage/us6000tk74", "description": "South Sandwich Islands region", "tsunami_flag": false, "alert": "green", "status": "reviewed", "place": "South Sandwich Islands region"}}, {"type": "Feature", "geometry": {"type": "Point", "coordinates": [127.7768, -2.6342]}, "properties": {"id": "us6000tk6n", "hazard": "earthquake", "title": "M4.5 \u2014 125 km NNW of Ambon, Indonesia", "severity": "low", "source": "USGS", "time": "2026-08-12T10:15:28.554000+00:00", "magnitude": 4.5, "depth_km": 10.0, "url": "https://earthquake.usgs.gov/earthquakes/eventpage/us6000tk6n", "description": "125 km NNW of Ambon, Indonesia", "tsunami_flag": false, "alert": null, "status": "reviewed", "place": "125 km NNW of Ambon, Indonesia"}}, {"type": "Feature", "geometry": {"type": "Point", "coordinates": [75.3037, 42.0411]}, "properties": {"id": "us6000tk5x", "hazard": "earthquake", "title": "M5.0 \u2014 66 km E of Chayek, Kyrgyzstan", "severity": "low", "source": "USGS", "time": "2026-08-12T07:14:52.581000+00:00", "magnitude": 5.0, "depth_km": 10.0, "url": "https://earthquake.usgs.gov/earthquakes/eventpage/us6000tk5x", "description": "66 km E of Chayek, Kyrgyzstan", "tsunami_flag": false, "alert": null, "status": "reviewed", "place": "66 km E of Chayek, Kyrgyzstan"}}, {"type": "Feature", "geometry": {"type": "Point", "coordinates": [-143.4933, -55.9202]}, "properties": {"id": "us6000tk5j", "hazard": "earthquake", "title": "M5.1 \u2014 Pacific-Antarctic Ridge", "severity": "low", "source": "USGS", "time": "2026-08-12T05:11:27.487000+00:00", "magnitude": 5.1, "depth_km": 10.0, "url": "https://earthquake.usgs.gov/earthquakes/eventpage/us6000tk5j", "description": "Pacific-Antarctic Ridge", "tsunami_flag": false, "alert": null, "status": "reviewed", "place": "Pacific-Antarctic Ridge"}}, {"type": "Feature", "geometry": {"type": "Point", "coordinates": [130.4504, 32.4564]}, "properties": {"id": "us6000tk5c", "hazard": "earthquake", "title": "M4.9 \u2014 14 km WSW of Honmachi, Japan", "severity": "low", "source": "USGS", "time": "2026-08-12T04:05:51.903000+00:00", "magnitude": 4.9, "depth_km": 10.0, "url": "https://earthquake.usgs.gov/earthquakes/eventpage/us6000tk5c", "description": "14 km WSW of Honmachi, Japan", "tsunami_flag": false, "alert": null, "status": "reviewed", "place": "14 km WSW of Honmachi, Japan"}}, {"type": "Feature", "geometry": {"type": "Point", "coordinates": [-155.233333333333, 18.879]}, "properties": {"id": "hv75018296", "hazard": "earthquake", "title": "M5.2 \u2014 42 km ESE of Naalehu, Hawaii", "severity": "low", "source": "USGS", "time": "2026-08-12T03:48:33.980000+00:00", "magnitude": 5.2, "depth_km": 10.73, "url": "https://earthquake.usgs.gov/earthquakes/eventpage/hv75018296", "description": "42 km ESE of Naalehu, Hawaii", "tsunami_flag": false, "alert": "green", "status": "reviewed", "place": "42 km ESE of Naalehu, Hawaii"}}, {"type": "Feature", "geometry": {"type": "Point", "coordinates": [139.9386, -3.9381]}, "properties": {"id": "us6000tk41", "hazard": "earthquake", "title": "M4.7 \u2014 167 km SSW of Abepura, Indonesia", "severity": "low", "source": "USGS", "time": "2026-08-11T23:33:14.884000+00:00", "magnitude": 4.7, "depth_km": 34.264, "url": "https://earthquake.usgs.gov/earthquakes/eventpage/us6000tk41", "description": "167 km SSW of Abepura, Indonesia", "tsunami_flag": false, "alert": null, "status": "reviewed", "place": "167 km SSW of Abepura, Indonesia"}}, {"type": "Feature", "geometry": {"type": "Point", "coordinates": [142.1187, 41.5705]}, "properties": {"id": "us6000tk3b", "hazard": "earthquake", "title": "M4.8 \u2014 81 km ENE of Mutsu, Japan", "severity": "low", "source": "USGS", "time": "2026-08-11T21:45:53.951000+00:00", "magnitude": 4.8, "depth_km": 59.553, "url": "https://earthquake.usgs.gov/earthquakes/eventpage/us6000tk3b", "description": "81 km ENE of Mutsu, Japan", "tsunami_flag": false, "alert": null, "status": "reviewed", "place": "81 km ENE of Mutsu, Japan"}}, {"type": "Feature", "geometry": {"type": "Point", "coordinates": [69.6826, 32.3871]}, "properties": {"id": "us6000tk33", "hazard": "earthquake", "title": "M4.6 \u2014 14 km NE of Wana, Pakistan", "severity": "low", "source": "USGS", "time": "2026-08-11T21:37:04.529000+00:00", "magnitude": 4.6, "depth_km": 43.011, "url": "https://earthquake.usgs.gov/earthquakes/eventpage/us6000tk33", "description": "14 km NE of Wana, Pakistan", "tsunami_flag": false, "alert": null, "status": "reviewed", "place": "14 km NE of Wana, Pakistan"}}, {"type": "Feature", "geometry": {"type": "Point", "coordinates": [152.9875, -4.7193]}, "properties": {"id": "us6000tk29", "hazard": "earthquake", "title": "M5.0 \u2014 89 km ESE of Kokopo, Papua New Guinea", "severity": "low", "source": "USGS", "time": "2026-08-11T20:31:28.580000+00:00", "magnitude": 5.0, "depth_km": 68.887, "url": "https://earthquake.usgs.gov/earthquakes/eventpage/us6000tk29", "description": "89 km ESE of Kokopo, Papua New Guinea", "tsunami_flag": false, "alert": null, "status": "reviewed", "place": "89 km ESE of Kokopo, Papua New Guinea"}}, {"type": "Feature", "geometry": {"type": "Point", "coordinates": [128.4742, 1.7064]}, "properties": {"id": "us6000tk1y", "hazard": "earthquake", "title": "M5.1 \u2014 51 km E of Tobelo, Indonesia", "severity": "low", "source": "USGS", "time": "2026-08-11T20:14:18.452000+00:00", "magnitude": 5.1, "depth_km": 10.0, "url": "https://earthquake.usgs.gov/earthquakes/eventpage/us6000tk1y", "description": "51 km E of Tobelo, Indonesia", "tsunami_flag": false, "alert": null, "status": "reviewed", "place": "51 km E of Tobelo, Indonesia"}}, {"type": "Feature", "geometry": {"type": "Point", "coordinates": [93.4884, 10.5351]}, "properties": {"id": "us6000tk1m", "hazard": "earthquake", "title": "M4.9 \u2014 149 km SSE of Port Blair, India", "severity": "low", "source": "USGS", "time": "2026-08-11T19:55:41.269000+00:00", "magnitude": 4.9, "depth_km": 113.482, "url": "https://earthquake.usgs.gov/earthquakes/eventpage/us6000tk1m", "description": "149 km SSE of Port Blair, India", "tsunami_flag": false, "alert": null, "status": "reviewed", "place": "149 km SSE of Port Blair, India"}}, {"type": "Feature", "geometry": {"type": "Point", "coordinates": [-172.9513, -19.0842]}, "properties": {"id": "us6000tk14", "hazard": "earthquake", "title": "M4.6 \u2014 118 km ESE of Neiafu, Tonga", "severity": "low", "source": "USGS", "time": "2026-08-11T18:45:19.680000+00:00", "magnitude": 4.6, "depth_km": 10.0, "url": "https://earthquake.usgs.gov/earthquakes/eventpage/us6000tk14", "description": "118 km ESE of Neiafu, Tonga", "tsunami_flag": false, "alert": null, "status": "reviewed", "place": "118 km ESE of Neiafu, Tonga"}}, {"type": "Feature", "geometry": {"type": "Point", "coordinates": [126.5708, -31.5799]}, "properties": {"id": "us6000tk0u", "hazard": "earthquake", "title": "M4.6 \u2014 Western Australia", "severity": "low", "source": "USGS", "time": "2026-08-11T18:10:25.542000+00:00", "magnitude": 4.6, "depth_km": 10.0, "url": "https://earthquake.usgs.gov/earthquakes/eventpage/us6000tk0u", "description": "Western Australia", "tsunami_flag": false, "alert": null, "status": "reviewed", "place": "Western Australia"}}, {"type": "Feature", "geometry": {"type": "Point", "coordinates": [26.1598, 45.487]}, "properties": {"id": "us6000tk0c", "hazard": "earthquake", "title": "M4.6 \u2014 7 km W of Lunca Jari\u0219tei, Romania", "severity": "low", "source": "USGS", "time": "2026-08-11T17:21:15.884000+00:00", "magnitude": 4.6, "depth_km": 140.003, "url": "https://earthquake.usgs.gov/earthquakes/eventpage/us6000tk0c", "description": "7 km W of Lunca Jari\u0219tei, Romania", "tsunami_flag": false, "alert": null, "status": "reviewed", "place": "7 km W of Lunca Jari\u0219tei, Romania"}}, {"type": "Feature", "geometry": {"type": "Point", "coordinates": [144.8583, -7.6341]}, "properties": {"id": "us6000tk0a", "hazard": "earthquake", "title": "M5.0 \u2014 107 km WNW of Kerema, Papua New Guinea", "severity": "low", "source": "USGS", "time": "2026-08-11T17:06:18.902000+00:00", "magnitude": 5.0, "depth_km": 10.0, "url": "https://earthquake.usgs.gov/earthquakes/eventpage/us6000tk0a", "description": "107 km WNW of Kerema, Papua New Guinea", "tsunami_flag": false, "alert": null, "status": "reviewed", "place": "107 km WNW of Kerema, Papua New Guinea"}}, {"type": "Feature", "geometry": {"type": "Point", "coordinates": [130.3922, -7.397]}, "properties": {"id": "us6000tjxa", "hazard": "earthquake", "title": "M4.8 \u2014 Pulau Pulau Tanimbar, Indonesia", "severity": "low", "source": "USGS", "time": "2026-08-11T12:45:12.884000+00:00", "magnitude": 4.8, "depth_km": 30.609, "url": "https://earthquake.usgs.gov/earthquakes/eventpage/us6000tjxa", "description": "Pulau Pulau Tanimbar, Indonesia", "tsunami_flag": false, "alert": null, "status": "reviewed", "place": "Pulau Pulau Tanimbar, Indonesia"}}, {"type": "Feature", "geometry": {"type": "Point", "coordinates": [153.1425, 49.2842]}, "properties": {"id": "us6000tjx7", "hazard": "earthquake", "title": "M4.5 \u2014 264 km SW of Severo-Kuril\u2019sk, Russia", "severity": "low", "source": "USGS", "time": "2026-08-11T12:13:41.963000+00:00", "magnitude": 4.5, "depth_km": 174.304, "url": "https://earthquake.usgs.gov/earthquakes/eventpage/us6000tjx7", "description": "264 km SW of Severo-Kuril\u2019sk, Russia", "tsunami_flag": false, "alert": null, "status": "reviewed", "place": "264 km SW of Severo-Kuril\u2019sk, Russia"}}, {"type": "Feature", "geometry": {"type": "Point", "coordinates": [129.7317, -6.7252]}, "properties": {"id": "us6000tjx1", "hazard": "earthquake", "title": "M4.6 \u2014 Banda Sea", "severity": "low", "source": "USGS", "time": "2026-08-11T10:49:52.149000+00:00", "magnitude": 4.6, "depth_km": 170.699, "url": "https://earthquake.usgs.gov/earthquakes/eventpage/us6000tjx1", "description": "Banda Sea", "tsunami_flag": false, "alert": null, "status": "reviewed", "place": "Banda Sea"}}, {"type": "Feature", "geometry": {"type": "Point", "coordinates": [-159.9971, 54.4899]}, "properties": {"id": "us6000tjwh", "hazard": "earthquake", "title": "M4.6 \u2014 99 km SSE of Sand Point, Alaska", "severity": "low", "source": "USGS", "time": "2026-08-11T08:49:24.635000+00:00", "magnitude": 4.6, "depth_km": 36.925, "url": "https://earthquake.usgs.gov/earthquakes/eventpage/us6000tjwh", "description": "99 km SSE of Sand Point, Alaska", "tsunami_flag": false, "alert": null, "status": "reviewed", "place": "99 km SSE of Sand Point, Alaska"}}, {"type": "Feature", "geometry": {"type": "Point", "coordinates": [-81.0116, -5.8682]}, "properties": {"id": "us6000tjwd", "hazard": "earthquake", "title": "M4.6 \u2014 40 km SSW of Sechura, Peru", "severity": "low", "source": "USGS", "time": "2026-08-11T08:00:34.362000+00:00", "magnitude": 4.6, "depth_km": 39.674, "url": "https://earthquake.usgs.gov/earthquakes/eventpage/us6000tjwd", "description": "40 km SSW of Sechura, Peru", "tsunami_flag": false, "alert": null, "status": "reviewed", "place": "40 km SSW of Sechura, Peru"}}, {"type": "Feature", "geometry": {"type": "Point", "coordinates": [-179.7759, -23.5978]}, "properties": {"id": "us6000tjvb", "hazard": "earthquake", "title": "M4.5 \u2014 south of the Fiji Islands", "severity": "low", "source": "USGS", "time": "2026-08-11T03:11:19.919000+00:00", "magnitude": 4.5, "depth_km": 548.449, "url": "https://earthquake.usgs.gov/earthquakes/eventpage/us6000tjvb", "description": "south of the Fiji Islands", "tsunami_flag": false, "alert": null, "status": "reviewed", "place": "south of the Fiji Islands"}}, {"type": "Feature", "geometry": {"type": "Point", "coordinates": [-135.8731, -54.0512]}, "properties": {"id": "us6000tkfr", "hazard": "earthquake", "title": "M4.6 \u2014 Pacific-Antarctic Ridge", "severity": "low", "source": "USGS", "time": "2026-08-11T02:46:07.844000+00:00", "magnitude": 4.6, "depth_km": 10.0, "url": "https://earthquake.usgs.gov/earthquakes/eventpage/us6000tkfr", "description": "Pacific-Antarctic Ridge", "tsunami_flag": false, "alert": null, "status": "reviewed", "place": "Pacific-Antarctic Ridge"}}, {"type": "Feature", "geometry": {"type": "Point", "coordinates": [102.5519, -4.4801]}, "properties": {"id": "us6000tjug", "hazard": "earthquake", "title": "M4.7 \u2014 81 km SSE of Bengkulu, Indonesia", "severity": "low", "source": "USGS", "time": "2026-08-11T01:12:46.205000+00:00", "magnitude": 4.7, "depth_km": 61.94, "url": "https://earthquake.usgs.gov/earthquakes/eventpage/us6000tjug", "description": "81 km SSE of Bengkulu, Indonesia", "tsunami_flag": false, "alert": null, "status": "reviewed", "place": "81 km SSE of Bengkulu, Indonesia"}}]}