{"type": "FeatureCollection", "features": [{"type": "Feature", "geometry": {"type": "Point", "coordinates": [47.4222062, 16.1720378]}, "properties": {"id": "EONET_23075", "hazard": "flood", "title": "Flood in Austria 1104115", "severity": "moderate", "source": "NASA EONET", "time": "2026-08-19T20:00:00Z", "magnitude": null, "depth_km": null, "url": "https://eonet.gsfc.nasa.gov/api/v3/events/EONET_23075/geojson", "description": "Flood in Austria 1104115", "status": "closed"}}, {"type": "Feature", "geometry": {"type": "Point", "coordinates": [14.834947054954956, -15.8851484]}, "properties": {"id": "EONET_23076", "hazard": "flood", "title": "Flood in Senegal 1104113", "severity": "moderate", "source": "NASA EONET", "time": "2026-08-18T20:00:00Z", "magnitude": null, "depth_km": null, "url": "https://eonet.gsfc.nasa.gov/api/v3/events/EONET_23076/geojson", "description": "Flood in Senegal 1104113", "status": "closed"}}, {"type": "Feature", "geometry": {"type": "Point", "coordinates": [-8.5999234, -35.7736465]}, "properties": {"id": "EONET_22934", "hazard": "flood", "title": "Flood in Brazil 1104106", "severity": "moderate", "source": "NASA EONET", "time": "2026-08-17T20:00:00Z", "magnitude": null, "depth_km": null, "url": "https://eonet.gsfc.nasa.gov/api/v3/events/EONET_22934/geojson", "description": "Flood in Brazil 1104106", "status": "closed"}}, {"type": "Feature", "geometry": {"type": "Point", "coordinates": [24.752851454954957, -107.393395]}, "properties": {"id": "EONET_22803", "hazard": "flood", "title": "Flood in Mexico 1104099", "severity": "moderate", "source": "NASA EONET", "time": "2026-08-16T20:00:00Z", "magnitude": null, "depth_km": null, "url": "https://eonet.gsfc.nasa.gov/api/v3/events/EONET_22803/geojson", "description": "Flood in Mexico 1104099", "status": "closed"}}, {"type": "Feature", "geometry": {"type": "Point", "coordinates": [49.9724893, 17.8684964]}, "properties": {"id": "EONET_22848", "hazard": "flood", "title": "Flood in Poland 1104102", "severity": "moderate", "source": "NASA EONET", "time": "2026-08-16T20:00:00Z", "magnitude": null, "depth_km": null, "url": "https://eonet.gsfc.nasa.gov/api/v3/events/EONET_22848/geojson", "description": "Flood in Poland 1104102", "status": "closed"}}, {"type": "Feature", "geometry": {"type": "Point", "coordinates": [14.797186854954955, 120.2880193]}, "properties": {"id": "EONET_22935", "hazard": "flood", "title": "Flood in Philippines 1104107", "severity": "moderate", "source": "NASA EONET", "time": "2026-08-16T20:00:00Z", "magnitude": null, "depth_km": null, "url": "https://eonet.gsfc.nasa.gov/api/v3/events/EONET_22935/geojson", "description": "Flood in Philippines 1104107", "status": "closed"}}, {"type": "Feature", "geometry": {"type": "Point", "coordinates": [-32.3935153, -54.1677787]}, "properties": {"id": "EONET_23077", "hazard": "flood", "title": "Flood in Uruguay 1104112", "severity": "moderate", "source": "NASA EONET", "time": "2026-08-15T20:00:00Z", "magnitude": null, "depth_km": null, "url": "https://eonet.gsfc.nasa.gov/api/v3/events/EONET_23077/geojson", "description": "Flood in Uruguay 1104112", "status": "closed"}}, {"type": "Feature", "geometry": {"type": "Point", "coordinates": [34.74708885495496, 126.3876448]}, "properties": {"id": "EONET_22736", "hazard": "flood", "title": "Flood in South Korea 1104095", "severity": "moderate", "source": "NASA EONET", "time": "2026-08-14T20:00:00Z", "magnitude": null, "depth_km": null, "url": "https://eonet.gsfc.nasa.gov/api/v3/events/EONET_22736/geojson", "description": "Flood in South Korea 1104095", "status": "closed"}}, {"type": "Feature", "geometry": {"type": "Point", "coordinates": [6.1501107, -74.07905]}, "properties": {"id": "EONET_22737", "hazard": "flood", "title": "Flood in Venezuela 1104096", "severity": "moderate", "source": "NASA EONET", "time": "2026-08-14T20:00:00Z", "magnitude": null, "depth_km": null, "url": "https://eonet.gsfc.nasa.gov/api/v3/events/EONET_22737/geojson", "description": "Flood in Venezuela 1104096", "status": "closed"}}, {"type": "Feature", "geometry": {"type": "Point", "coordinates": [42.499664754954956, 1.7334940000000003]}, "properties": {"id": "EONET_22738", "hazard": "flood", "title": "Flood in Andorra 1104092", "severity": "moderate", "source": "NASA EONET", "time": "2026-08-14T20:00:00Z", "magnitude": null, "depth_km": null, "url": "https://eonet.gsfc.nasa.gov/api/v3/events/EONET_22738/geojson", "description": "Flood in Andorra 1104092", "status": "closed"}}, {"type": "Feature", "geometry": {"type": "Point", "coordinates": [15.1196602, -89.6660996]}, "properties": {"id": "EONET_22804", "hazard": "flood", "title": "Flood in Guatemala 1104100", "severity": "moderate", "source": "NASA EONET", "time": "2026-08-14T20:00:00Z", "magnitude": null, "depth_km": null, "url": "https://eonet.gsfc.nasa.gov/api/v3/events/EONET_22804/geojson", "description": "Flood in Guatemala 1104100", "status": "closed"}}, {"type": "Feature", "geometry": {"type": "Point", "coordinates": [10.3226619, -84.4320327]}, "properties": {"id": "EONET_22805", "hazard": "flood", "title": "Flood in Costa Rica 1104101", "severity": "moderate", "source": "NASA EONET", "time": "2026-08-14T20:00:00Z", "magnitude": null, "depth_km": null, "url": "https://eonet.gsfc.nasa.gov/api/v3/events/EONET_22805/geojson", "description": "Flood in Costa Rica 1104101", "status": "closed"}}, {"type": "Feature", "geometry": {"type": "Point", "coordinates": [0.5118946549549552, 120.8160243]}, "properties": {"id": "EONET_22849", "hazard": "flood", "title": "Flood in Indonesia 1104104", "severity": "moderate", "source": "NASA EONET", "time": "2026-08-14T20:00:00Z", "magnitude": null, "depth_km": null, "url": "https://eonet.gsfc.nasa.gov/api/v3/events/EONET_22849/geojson", "description": "Flood in Indonesia 1104104", "status": "closed"}}, {"type": "Feature", "geometry": {"type": "Point", "coordinates": [7.987866, 33.036476]}, "properties": {"id": "EONET_22936", "hazard": "flood", "title": "Flood in South Sudan 1104110", "severity": "moderate", "source": "NASA EONET", "time": "2026-08-14T20:00:00Z", "magnitude": null, "depth_km": null, "url": "https://eonet.gsfc.nasa.gov/api/v3/events/EONET_22936/geojson", "description": "Flood in South Sudan 1104110", "status": "closed"}}, {"type": "Feature", "geometry": {"type": "Point", "coordinates": [36.092573, 6.586329]}, "properties": {"id": "EONET_22739", "hazard": "flood", "title": "Flood in Algeria 1104093", "severity": "moderate", "source": "NASA EONET", "time": "2026-08-13T20:00:00Z", "magnitude": null, "depth_km": null, "url": "https://eonet.gsfc.nasa.gov/api/v3/events/EONET_22739/geojson", "description": "Flood in Algeria 1104093", "status": "closed"}}, {"type": "Feature", "geometry": {"type": "Point", "coordinates": [6.0395809, -77.1427282]}, "properties": {"id": "EONET_22740", "hazard": "flood", "title": "Flood in Colombia 1104097", "severity": "moderate", "source": "NASA EONET", "time": "2026-08-13T20:00:00Z", "magnitude": null, "depth_km": null, "url": "https://eonet.gsfc.nasa.gov/api/v3/events/EONET_22740/geojson", "description": "Flood in Colombia 1104097", "status": "closed"}}, {"type": "Feature", "geometry": {"type": "Point", "coordinates": [35.19229, 9.603054]}, "properties": {"id": "EONET_22806", "hazard": "flood", "title": "Flood in Tunisia 1104098", "severity": "moderate", "source": "NASA EONET", "time": "2026-08-13T20:00:00Z", "magnitude": null, "depth_km": null, "url": "https://eonet.gsfc.nasa.gov/api/v3/events/EONET_22806/geojson", "description": "Flood in Tunisia 1104098", "status": "closed"}}, {"type": "Feature", "geometry": {"type": "Point", "coordinates": [41.7239482, 44.7991213]}, "properties": {"id": "EONET_22850", "hazard": "flood", "title": "Flood in Georgia 1104103", "severity": "moderate", "source": "NASA EONET", "time": "2026-08-13T20:00:00Z", "magnitude": null, "depth_km": null, "url": "https://eonet.gsfc.nasa.gov/api/v3/events/EONET_22850/geojson", "description": "Flood in Georgia 1104103", "status": "closed"}}, {"type": "Feature", "geometry": {"type": "Point", "coordinates": [12.321411654954955, 106.0609131]}, "properties": {"id": "EONET_22937", "hazard": "flood", "title": "Flood in Cambodia 1104108", "severity": "moderate", "source": "NASA EONET", "time": "2026-08-13T20:00:00Z", "magnitude": null, "depth_km": null, "url": "https://eonet.gsfc.nasa.gov/api/v3/events/EONET_22937/geojson", "description": "Flood in Cambodia 1104108", "status": "closed"}}, {"type": "Feature", "geometry": {"type": "Point", "coordinates": [35.53632745495496, 140.1311573]}, "properties": {"id": "EONET_22651", "hazard": "flood", "title": "Flood in Japan 1104090", "severity": "moderate", "source": "NASA EONET", "time": "2026-08-12T20:00:00Z", "magnitude": null, "depth_km": null, "url": "https://eonet.gsfc.nasa.gov/api/v3/events/EONET_22651/geojson", "description": "Flood in Japan 1104090", "status": "closed"}}, {"type": "Feature", "geometry": {"type": "Point", "coordinates": [12.4681206, 9.8610063]}, "properties": {"id": "EONET_23208", "hazard": "flood", "title": "Flood in Nigeria 1104105", "severity": "moderate", "source": "NASA EONET", "time": "2026-08-12T20:00:00Z", "magnitude": null, "depth_km": null, "url": "https://eonet.gsfc.nasa.gov/api/v3/events/EONET_23208/geojson", "description": "Flood in Nigeria 1104105", "status": "closed"}}, {"type": "Feature", "geometry": {"type": "Point", "coordinates": [45.362810654954956, 25.2003748]}, "properties": {"id": "EONET_22623", "hazard": "flood", "title": "Flood in Romania 1104088", "severity": "moderate", "source": "NASA EONET", "time": "2026-08-11T20:00:00Z", "magnitude": null, "depth_km": null, "url": "https://eonet.gsfc.nasa.gov/api/v3/events/EONET_22623/geojson", "description": "Flood in Romania 1104088", "status": "closed"}}, {"type": "Feature", "geometry": {"type": "Point", "coordinates": [28.938757, 80.9809188]}, "properties": {"id": "EONET_22652", "hazard": "flood", "title": "Flood in Nepal 1104091", "severity": "moderate", "source": "NASA EONET", "time": "2026-08-11T20:00:00Z", "magnitude": null, "depth_km": null, "url": "https://eonet.gsfc.nasa.gov/api/v3/events/EONET_22652/geojson", "description": "Flood in Nepal 1104091", "status": "closed"}}, {"type": "Feature", "geometry": {"type": "Point", "coordinates": [13.421411254954956, 22.1977187]}, "properties": {"id": "EONET_22624", "hazard": "flood", "title": "Flood in Chad 1104086", "severity": "moderate", "source": "NASA EONET", "time": "2026-08-10T20:00:00Z", "magnitude": null, "depth_km": null, "url": "https://eonet.gsfc.nasa.gov/api/v3/events/EONET_22624/geojson", "description": "Flood in Chad 1104086", "status": "closed"}}, {"type": "Feature", "geometry": {"type": "Point", "coordinates": [11.7217143, 27.2269385]}, "properties": {"id": "EONET_22741", "hazard": "flood", "title": "Flood in Sudan 1104094", "severity": "moderate", "source": "NASA EONET", "time": "2026-08-10T20:00:00Z", "magnitude": null, "depth_km": null, "url": "https://eonet.gsfc.nasa.gov/api/v3/events/EONET_22741/geojson", "description": "Flood in Sudan 1104094", "status": "closed"}}, {"type": "Feature", "geometry": {"type": "Point", "coordinates": [-34.6372265, 138.6702543]}, "properties": {"id": "EONET_22455", "hazard": "flood", "title": "Flood in Australia 1104085", "severity": "moderate", "source": "NASA EONET", "time": "2026-08-08T20:00:00Z", "magnitude": null, "depth_km": null, "url": "https://eonet.gsfc.nasa.gov/api/v3/events/EONET_22455/geojson", "description": "Flood in Australia 1104085", "status": "closed"}}, {"type": "Feature", "geometry": {"type": "Point", "coordinates": [31.653059854954957, -6.5461765]}, "properties": {"id": "EONET_22456", "hazard": "flood", "title": "Flood in Morocco 1104083", "severity": "moderate", "source": "NASA EONET", "time": "2026-08-07T20:00:00Z", "magnitude": null, "depth_km": null, "url": "https://eonet.gsfc.nasa.gov/api/v3/events/EONET_22456/geojson", "description": "Flood in Morocco 1104083", "status": "closed"}}, {"type": "Feature", "geometry": {"type": "Point", "coordinates": [45.4134751, 4.3000872]}, "properties": {"id": "EONET_22457", "hazard": "flood", "title": "Flood in France 1104084", "severity": "moderate", "source": "NASA EONET", "time": "2026-08-07T20:00:00Z", "magnitude": null, "depth_km": null, "url": "https://eonet.gsfc.nasa.gov/api/v3/events/EONET_22457/geojson", "description": "Flood in France 1104084", "status": "closed"}}, {"type": "Feature", "geometry": {"type": "Point", "coordinates": [41.710328, 1.4525299]}, "properties": {"id": "EONET_22246", "hazard": "flood", "title": "Flood in Spain 1104080", "severity": "moderate", "source": "NASA EONET", "time": "2026-08-05T20:00:00Z", "magnitude": null, "depth_km": null, "url": "https://eonet.gsfc.nasa.gov/api/v3/events/EONET_22246/geojson", "description": "Flood in Spain 1104080", "status": "closed"}}, {"type": "Feature", "geometry": {"type": "Point", "coordinates": [38.6752195, -27.0646596]}, "properties": {"id": "EONET_22247", "hazard": "flood", "title": "Flood in Portugal 1104079", "severity": "moderate", "source": "NASA EONET", "time": "2026-08-04T20:00:00Z", "magnitude": null, "depth_km": null, "url": "https://eonet.gsfc.nasa.gov/api/v3/events/EONET_22247/geojson", "description": "Flood in Portugal 1104079", "status": "closed"}}, {"type": "Feature", "geometry": {"type": "Point", "coordinates": [4.3770283, 9.4775641]}, "properties": {"id": "EONET_22248", "hazard": "flood", "title": "Flood in Cameroon 1104078", "severity": "moderate", "source": "NASA EONET", "time": "2026-08-03T20:00:00Z", "magnitude": null, "depth_km": null, "url": "https://eonet.gsfc.nasa.gov/api/v3/events/EONET_22248/geojson", "description": "Flood in Cameroon 1104078", "status": "closed"}}, {"type": "Feature", "geometry": {"type": "Point", "coordinates": [35.72955895495495, 71.253447]}, "properties": {"id": "EONET_22249", "hazard": "flood", "title": "Flood in Afghanistan 1104077", "severity": "moderate", "source": "NASA EONET", "time": "2026-08-02T20:00:00Z", "magnitude": null, "depth_km": null, "url": "https://eonet.gsfc.nasa.gov/api/v3/events/EONET_22249/geojson", "description": "Flood in Afghanistan 1104077", "status": "closed"}}, {"type": "Feature", "geometry": {"type": "Point", "coordinates": [-12.2525551, -76.9274066]}, "properties": {"id": "EONET_22161", "hazard": "flood", "title": "Flood in Peru 1104071", "severity": "moderate", "source": "NASA EONET", "time": "2026-08-01T20:00:00Z", "magnitude": null, "depth_km": null, "url": "https://eonet.gsfc.nasa.gov/api/v3/events/EONET_22161/geojson", "description": "Flood in Peru 1104071", "status": "closed"}}, {"type": "Feature", "geometry": {"type": "Point", "coordinates": [7.118603654954955, 80.5702744]}, "properties": {"id": "EONET_22162", "hazard": "flood", "title": "Flood in Sri Lanka 1104075", "severity": "moderate", "source": "NASA EONET", "time": "2026-08-01T20:00:00Z", "magnitude": null, "depth_km": null, "url": "https://eonet.gsfc.nasa.gov/api/v3/events/EONET_22162/geojson", "description": "Flood in Sri Lanka 1104075", "status": "closed"}}, {"type": "Feature", "geometry": {"type": "Point", "coordinates": [53.6773032, 23.7094451]}, "properties": {"id": "EONET_22080", "hazard": "flood", "title": "Flood in Belarus 1104065", "severity": "moderate", "source": "NASA EONET", "time": "2026-07-31T20:00:00Z", "magnitude": null, "depth_km": null, "url": "https://eonet.gsfc.nasa.gov/api/v3/events/EONET_22080/geojson", "description": "Flood in Belarus 1104065", "status": "closed"}}, {"type": "Feature", "geometry": {"type": "Point", "coordinates": [54.7017322, 25.2843286]}, "properties": {"id": "EONET_22163", "hazard": "flood", "title": "Flood in Lithuania 1104069", "severity": "moderate", "source": "NASA EONET", "time": "2026-07-31T20:00:00Z", "magnitude": null, "depth_km": null, "url": "https://eonet.gsfc.nasa.gov/api/v3/events/EONET_22163/geojson", "description": "Flood in Lithuania 1104069", "status": "closed"}}, {"type": "Feature", "geometry": {"type": "Point", "coordinates": [10.036194254954955, -83.3452188]}, "properties": {"id": "EONET_22164", "hazard": "flood", "title": "Flood in Costa Rica 1104070", "severity": "moderate", "source": "NASA EONET", "time": "2026-07-31T20:00:00Z", "magnitude": null, "depth_km": null, "url": "https://eonet.gsfc.nasa.gov/api/v3/events/EONET_22164/geojson", "description": "Flood in Costa Rica 1104070", "status": "closed"}}, {"type": "Feature", "geometry": {"type": "Point", "coordinates": [47.6661434, 108.2937527]}, "properties": {"id": "EONET_22165", "hazard": "flood", "title": "Flood in Mongolia 1104073", "severity": "moderate", "source": "NASA EONET", "time": "2026-07-31T20:00:00Z", "magnitude": null, "depth_km": null, "url": "https://eonet.gsfc.nasa.gov/api/v3/events/EONET_22165/geojson", "description": "Flood in Mongolia 1104073", "status": "closed"}}, {"type": "Feature", "geometry": {"type": "Point", "coordinates": [31.066803, 70.216728]}, "properties": {"id": "EONET_22206", "hazard": "flood", "title": "Flood in Pakistan 1104076", "severity": "moderate", "source": "NASA EONET", "time": "2026-07-31T20:00:00Z", "magnitude": null, "depth_km": null, "url": "https://eonet.gsfc.nasa.gov/api/v3/events/EONET_22206/geojson", "description": "Flood in Pakistan 1104076", "status": "closed"}}, {"type": "Feature", "geometry": {"type": "Point", "coordinates": [52.0334291, 23.0650961]}, "properties": {"id": "EONET_22045", "hazard": "flood", "title": "Flood in Poland 1104064", "severity": "moderate", "source": "NASA EONET", "time": "2026-07-30T20:00:00Z", "magnitude": null, "depth_km": null, "url": "https://eonet.gsfc.nasa.gov/api/v3/events/EONET_22045/geojson", "description": "Flood in Poland 1104064", "status": "closed"}}, {"type": "Feature", "geometry": {"type": "Point", "coordinates": [48.7350552, 8.9291311]}, "properties": {"id": "EONET_22081", "hazard": "flood", "title": "Flood in Germany 1104066", "severity": "moderate", "source": "NASA EONET", "time": "2026-07-30T20:00:00Z", "magnitude": null, "depth_km": null, "url": "https://eonet.gsfc.nasa.gov/api/v3/events/EONET_22081/geojson", "description": "Flood in Germany 1104066", "status": "closed"}}, {"type": "Feature", "geometry": {"type": "Point", "coordinates": [30.782469, 110.31869]}, "properties": {"id": "EONET_22307", "hazard": "flood", "title": "Flood in China 1104081", "severity": "moderate", "source": "NASA EONET", "time": "2026-07-30T20:00:00Z", "magnitude": null, "depth_km": null, "url": "https://eonet.gsfc.nasa.gov/api/v3/events/EONET_22307/geojson", "description": "Flood in China 1104081", "status": "closed"}}, {"type": "Feature", "geometry": {"type": "Point", "coordinates": [17.921877, 98.0080391]}, "properties": {"id": "EONET_22082", "hazard": "flood", "title": "Flood in Thailand 1104067", "severity": "moderate", "source": "NASA EONET", "time": "2026-07-29T20:00:00Z", "magnitude": null, "depth_km": null, "url": "https://eonet.gsfc.nasa.gov/api/v3/events/EONET_22082/geojson", "description": "Flood in Thailand 1104067", "status": "closed"}}, {"type": "Feature", "geometry": {"type": "Point", "coordinates": [10.5914126, -68.8883382]}, "properties": {"id": "EONET_22166", "hazard": "flood", "title": "Flood in Venezuela 1104072", "severity": "moderate", "source": "NASA EONET", "time": "2026-07-29T20:00:00Z", "magnitude": null, "depth_km": null, "url": "https://eonet.gsfc.nasa.gov/api/v3/events/EONET_22166/geojson", "description": "Flood in Venezuela 1104072", "status": "closed"}}, {"type": "Feature", "geometry": {"type": "Point", "coordinates": [-1.0336376, 98.2364008]}, "properties": {"id": "EONET_22167", "hazard": "flood", "title": "Flood in Indonesia 1104074", "severity": "moderate", "source": "NASA EONET", "time": "2026-07-29T20:00:00Z", "magnitude": null, "depth_km": null, "url": "https://eonet.gsfc.nasa.gov/api/v3/events/EONET_22167/geojson", "description": "Flood in Indonesia 1104074", "status": "closed"}}, {"type": "Feature", "geometry": {"type": "Point", "coordinates": [46.762851, 10.882964]}, "properties": {"id": "EONET_21922", "hazard": "flood", "title": "Flood in Austria 1104059", "severity": "moderate", "source": "NASA EONET", "time": "2026-07-28T20:00:00Z", "magnitude": null, "depth_km": null, "url": "https://eonet.gsfc.nasa.gov/api/v3/events/EONET_21922/geojson", "description": "Flood in Austria 1104059", "status": "closed"}}, {"type": "Feature", "geometry": {"type": "Point", "coordinates": [23.158533454954956, -106.4208391]}, "properties": {"id": "EONET_21923", "hazard": "flood", "title": "Flood in Mexico 1104061", "severity": "moderate", "source": "NASA EONET", "time": "2026-07-28T20:00:00Z", "magnitude": null, "depth_km": null, "url": "https://eonet.gsfc.nasa.gov/api/v3/events/EONET_21923/geojson", "description": "Flood in Mexico 1104061", "status": "closed"}}, {"type": "Feature", "geometry": {"type": "Point", "coordinates": [-33.096248145045045, -71.6231412]}, "properties": {"id": "EONET_21979", "hazard": "flood", "title": "Flood in Chile 1104063", "severity": "moderate", "source": "NASA EONET", "time": "2026-07-28T20:00:00Z", "magnitude": null, "depth_km": null, "url": "https://eonet.gsfc.nasa.gov/api/v3/events/EONET_21979/geojson", "description": "Flood in Chile 1104063", "status": "closed"}}, {"type": "Feature", "geometry": {"type": "Point", "coordinates": [48.5108956, 34.4798366]}, "properties": {"id": "EONET_21924", "hazard": "flood", "title": "Flood in Ukraine 1104060", "severity": "moderate", "source": "NASA EONET", "time": "2026-07-27T20:00:00Z", "magnitude": null, "depth_km": null, "url": "https://eonet.gsfc.nasa.gov/api/v3/events/EONET_21924/geojson", "description": "Flood in Ukraine 1104060", "status": "closed"}}, {"type": "Feature", "geometry": {"type": "Point", "coordinates": [43.1601883, -79.2393054]}, "properties": {"id": "EONET_21888", "hazard": "flood", "title": "Flood in Canada 1104058", "severity": "moderate", "source": "NASA EONET", "time": "2026-07-26T20:00:00Z", "magnitude": null, "depth_km": null, "url": "https://eonet.gsfc.nasa.gov/api/v3/events/EONET_21888/geojson", "description": "Flood in Canada 1104058", "status": "closed"}}, {"type": "Feature", "geometry": {"type": "Point", "coordinates": [42.354828554954956, 20.6527389]}, "properties": {"id": "EONET_21980", "hazard": "flood", "title": "Flood in Kosovo 1104062", "severity": "moderate", "source": "NASA EONET", "time": "2026-07-26T20:00:00Z", "magnitude": null, "depth_km": null, "url": "https://eonet.gsfc.nasa.gov/api/v3/events/EONET_21980/geojson", "description": "Flood in Kosovo 1104062", "status": "closed"}}, {"type": "Feature", "geometry": {"type": "Point", "coordinates": [34.8870743, 104.0524765]}, "properties": {"id": "EONET_21769", "hazard": "flood", "title": "Flood in China 1104051", "severity": "moderate", "source": "NASA EONET", "time": "2026-07-25T20:00:00Z", "magnitude": null, "depth_km": null, "url": "https://eonet.gsfc.nasa.gov/api/v3/events/EONET_21769/geojson", "description": "Flood in China 1104051", "status": "closed"}}, {"type": "Feature", "geometry": {"type": "Point", "coordinates": [44.5304918, 11.2296206]}, "properties": {"id": "EONET_21770", "hazard": "flood", "title": "Flood in Italy 1104053", "severity": "moderate", "source": "NASA EONET", "time": "2026-07-25T20:00:00Z", "magnitude": null, "depth_km": null, "url": "https://eonet.gsfc.nasa.gov/api/v3/events/EONET_21770/geojson", "description": "Flood in Italy 1104053", "status": "closed"}}, {"type": "Feature", "geometry": {"type": "Point", "coordinates": [45.7073666, 4.8376822]}, "properties": {"id": "EONET_21771", "hazard": "flood", "title": "Flood in France 1104050", "severity": "moderate", "source": "NASA EONET", "time": "2026-07-24T20:00:00Z", "magnitude": null, "depth_km": null, "url": "https://eonet.gsfc.nasa.gov/api/v3/events/EONET_21771/geojson", "description": "Flood in France 1104050", "status": "closed"}}, {"type": "Feature", "geometry": {"type": "Point", "coordinates": [43.3041829, -3.9260614]}, "properties": {"id": "EONET_21772", "hazard": "flood", "title": "Flood in Spain 1104054", "severity": "moderate", "source": "NASA EONET", "time": "2026-07-24T20:00:00Z", "magnitude": null, "depth_km": null, "url": "https://eonet.gsfc.nasa.gov/api/v3/events/EONET_21772/geojson", "description": "Flood in Spain 1104054", "status": "closed"}}, {"type": "Feature", "geometry": {"type": "Point", "coordinates": [13.3576607, 43.8703506]}, "properties": {"id": "EONET_22083", "hazard": "flood", "title": "Flood in Yemen 1104068", "severity": "moderate", "source": "NASA EONET", "time": "2026-07-24T20:00:00Z", "magnitude": null, "depth_km": null, "url": "https://eonet.gsfc.nasa.gov/api/v3/events/EONET_22083/geojson", "description": "Flood in Yemen 1104068", "status": "closed"}}, {"type": "Feature", "geometry": {"type": "Point", "coordinates": [4.198475554954957, 117.88533100000001]}, "properties": {"id": "EONET_21773", "hazard": "flood", "title": "Flood in Malaysia 1104052", "severity": "moderate", "source": "NASA EONET", "time": "2026-07-23T20:00:00Z", "magnitude": null, "depth_km": null, "url": "https://eonet.gsfc.nasa.gov/api/v3/events/EONET_21773/geojson", "description": "Flood in Malaysia 1104052", "status": "closed"}}, {"type": "Feature", "geometry": {"type": "Point", "coordinates": [-28.8023811, -56.2970181]}, "properties": {"id": "EONET_21774", "hazard": "flood", "title": "Flood in Argentina 1104057", "severity": "moderate", "source": "NASA EONET", "time": "2026-07-23T20:00:00Z", "magnitude": null, "depth_km": null, "url": "https://eonet.gsfc.nasa.gov/api/v3/events/EONET_21774/geojson", "description": "Flood in Argentina 1104057", "status": "closed"}}, {"type": "Feature", "geometry": {"type": "Point", "coordinates": [44.4013816, 33.9817042]}, "properties": {"id": "EONET_21597", "hazard": "flood", "title": "Flood in Russia, Ukraine 1104048", "severity": "moderate", "source": "NASA EONET", "time": "2026-07-22T20:00:00Z", "magnitude": null, "depth_km": null, "url": "https://eonet.gsfc.nasa.gov/api/v3/events/EONET_21597/geojson", "description": "Flood in Russia, Ukraine 1104048", "status": "closed"}}, {"type": "Feature", "geometry": {"type": "Point", "coordinates": [51.1107853, 71.2179735]}, "properties": {"id": "EONET_21643", "hazard": "flood", "title": "Flood in Kazakhstan 1104049", "severity": "moderate", "source": "NASA EONET", "time": "2026-07-22T20:00:00Z", "magnitude": null, "depth_km": null, "url": "https://eonet.gsfc.nasa.gov/api/v3/events/EONET_21643/geojson", "description": "Flood in Kazakhstan 1104049", "status": "closed"}}, {"type": "Feature", "geometry": {"type": "Point", "coordinates": [1.0392404, -78.786824]}, "properties": {"id": "EONET_21598", "hazard": "flood", "title": "Flood in Ecuador 1104047", "severity": "moderate", "source": "NASA EONET", "time": "2026-07-20T20:00:00Z", "magnitude": null, "depth_km": null, "url": "https://eonet.gsfc.nasa.gov/api/v3/events/EONET_21598/geojson", "description": "Flood in Ecuador 1104047", "status": "closed"}}, {"type": "Feature", "geometry": {"type": "Point", "coordinates": [8.4614686, -78.3523357]}, "properties": {"id": "EONET_21775", "hazard": "flood", "title": "Flood in Panama 1104056", "severity": "moderate", "source": "NASA EONET", "time": "2026-07-20T20:00:00Z", "magnitude": null, "depth_km": null, "url": "https://eonet.gsfc.nasa.gov/api/v3/events/EONET_21775/geojson", "description": "Flood in Panama 1104056", "status": "closed"}}, {"type": "Feature", "geometry": {"type": "Point", "coordinates": [57.14483625495496, 22.9366248]}, "properties": {"id": "EONET_21440", "hazard": "flood", "title": "Flood in Latvia 1104037", "severity": "moderate", "source": "NASA EONET", "time": "2026-07-19T20:00:00Z", "magnitude": null, "depth_km": null, "url": "https://eonet.gsfc.nasa.gov/api/v3/events/EONET_21440/geojson", "description": "Flood in Latvia 1104037", "status": "closed"}}, {"type": "Feature", "geometry": {"type": "Point", "coordinates": [41.9696049, 22.7600474]}, "properties": {"id": "EONET_21535", "hazard": "flood", "title": "Flood in The Republic of North Macedonia 1104043", "severity": "moderate", "source": "NASA EONET", "time": "2026-07-19T20:00:00Z", "magnitude": null, "depth_km": null, "url": "https://eonet.gsfc.nasa.gov/api/v3/events/EONET_21535/geojson", "description": "Flood in The Republic of North Macedonia 1104043", "status": "closed"}}, {"type": "Feature", "geometry": {"type": "Point", "coordinates": [34.902529, 70.380678]}, "properties": {"id": "EONET_21438", "hazard": "flood", "title": "Flood in Afghanistan 1104033", "severity": "moderate", "source": "NASA EONET", "time": "2026-07-18T20:00:00Z", "magnitude": null, "depth_km": null, "url": "https://eonet.gsfc.nasa.gov/api/v3/events/EONET_21438/geojson", "description": "Flood in Afghanistan 1104033", "status": "closed"}}, {"type": "Feature", "geometry": {"type": "Point", "coordinates": [47.0658928, 28.7451209]}, "properties": {"id": "EONET_21441", "hazard": "flood", "title": "Flood in Moldova 1104038", "severity": "moderate", "source": "NASA EONET", "time": "2026-07-18T20:00:00Z", "magnitude": null, "depth_km": null, "url": "https://eonet.gsfc.nasa.gov/api/v3/events/EONET_21441/geojson", "description": "Flood in Moldova 1104038", "status": "closed"}}, {"type": "Feature", "geometry": {"type": "Point", "coordinates": [47.5834313, 25.3671488]}, "properties": {"id": "EONET_21442", "hazard": "flood", "title": "Flood in Romania 1104039", "severity": "moderate", "source": "NASA EONET", "time": "2026-07-18T20:00:00Z", "magnitude": null, "depth_km": null, "url": "https://eonet.gsfc.nasa.gov/api/v3/events/EONET_21442/geojson", "description": "Flood in Romania 1104039", "status": "closed"}}, {"type": "Feature", "geometry": {"type": "Point", "coordinates": [10.164142054954954, -84.1613818]}, "properties": {"id": "EONET_21443", "hazard": "flood", "title": "Flood in Costa Rica 1104040", "severity": "moderate", "source": "NASA EONET", "time": "2026-07-18T20:00:00Z", "magnitude": null, "depth_km": null, "url": "https://eonet.gsfc.nasa.gov/api/v3/events/EONET_21443/geojson", "description": "Flood in Costa Rica 1104040", "status": "closed"}}, {"type": "Feature", "geometry": {"type": "Point", "coordinates": [-6.9996524, -78.9439301]}, "properties": {"id": "EONET_21444", "hazard": "flood", "title": "Flood in Peru 1104041", "severity": "moderate", "source": "NASA EONET", "time": "2026-07-18T20:00:00Z", "magnitude": null, "depth_km": null, "url": "https://eonet.gsfc.nasa.gov/api/v3/events/EONET_21444/geojson", "description": "Flood in Peru 1104041", "status": "closed"}}, {"type": "Feature", "geometry": {"type": "Point", "coordinates": [41.80202125495496, 23.1218421]}, "properties": {"id": "EONET_21445", "hazard": "flood", "title": "Flood in Bulgaria 1104036", "severity": "moderate", "source": "NASA EONET", "time": "2026-07-18T20:00:00Z", "magnitude": null, "depth_km": null, "url": "https://eonet.gsfc.nasa.gov/api/v3/events/EONET_21445/geojson", "description": "Flood in Bulgaria 1104036", "status": "closed"}}, {"type": "Feature", "geometry": {"type": "Point", "coordinates": [31.066803, 70.216728]}, "properties": {"id": "EONET_21536", "hazard": "flood", "title": "Flood in Pakistan 1104045", "severity": "moderate", "source": "NASA EONET", "time": "2026-07-18T20:00:00Z", "magnitude": null, "depth_km": null, "url": "https://eonet.gsfc.nasa.gov/api/v3/events/EONET_21536/geojson", "description": "Flood in Pakistan 1104045", "status": "closed"}}, {"type": "Feature", "geometry": {"type": "Point", "coordinates": [49.5848964, 25.458604]}, "properties": {"id": "EONET_21599", "hazard": "flood", "title": "Flood in Ukraine 1104046", "severity": "moderate", "source": "NASA EONET", "time": "2026-07-18T20:00:00Z", "magnitude": null, "depth_km": null, "url": "https://eonet.gsfc.nasa.gov/api/v3/events/EONET_21599/geojson", "description": "Flood in Ukraine 1104046", "status": "closed"}}, {"type": "Feature", "geometry": {"type": "Point", "coordinates": [37.5553162, 126.7644328]}, "properties": {"id": "EONET_21398", "hazard": "flood", "title": "Flood in South Korea 1104032", "severity": "moderate", "source": "NASA EONET", "time": "2026-07-17T20:00:00Z", "magnitude": null, "depth_km": null, "url": "https://eonet.gsfc.nasa.gov/api/v3/events/EONET_21398/geojson", "description": "Flood in South Korea 1104032", "status": "closed"}}, {"type": "Feature", "geometry": {"type": "Point", "coordinates": [36.3765396, 139.7374929]}, "properties": {"id": "EONET_21439", "hazard": "flood", "title": "Flood in Japan 1104034", "severity": "moderate", "source": "NASA EONET", "time": "2026-07-16T20:00:00Z", "magnitude": null, "depth_km": null, "url": "https://eonet.gsfc.nasa.gov/api/v3/events/EONET_21439/geojson", "description": "Flood in Japan 1104034", "status": "closed"}}, {"type": "Feature", "geometry": {"type": "Point", "coordinates": [-28.4118702, -52.5065804]}, "properties": {"id": "EONET_21537", "hazard": "flood", "title": "Flood in Brazil 1104044", "severity": "moderate", "source": "NASA EONET", "time": "2026-07-16T20:00:00Z", "magnitude": null, "depth_km": null, "url": "https://eonet.gsfc.nasa.gov/api/v3/events/EONET_21537/geojson", "description": "Flood in Brazil 1104044", "status": "closed"}}, {"type": "Feature", "geometry": {"type": "Point", "coordinates": [45.7510347, 4.7718132]}, "properties": {"id": "EONET_21396", "hazard": "flood", "title": "Flood in France 1104028", "severity": "moderate", "source": "NASA EONET", "time": "2026-07-14T20:00:00Z", "magnitude": null, "depth_km": null, "url": "https://eonet.gsfc.nasa.gov/api/v3/events/EONET_21396/geojson", "description": "Flood in France 1104028", "status": "closed"}}, {"type": "Feature", "geometry": {"type": "Point", "coordinates": [21.3259198, 104.7786781]}, "properties": {"id": "EONET_21397", "hazard": "flood", "title": "Flood in Vietnam 1104029", "severity": "moderate", "source": "NASA EONET", "time": "2026-07-14T20:00:00Z", "magnitude": null, "depth_km": null, "url": "https://eonet.gsfc.nasa.gov/api/v3/events/EONET_21397/geojson", "description": "Flood in Vietnam 1104029", "status": "closed"}}, {"type": "Feature", "geometry": {"type": "Point", "coordinates": [47.7552059, 16.1465067]}, "properties": {"id": "EONET_21391", "hazard": "flood", "title": "Flood in Austria 1104023", "severity": "moderate", "source": "NASA EONET", "time": "2026-07-13T20:00:00Z", "magnitude": null, "depth_km": null, "url": "https://eonet.gsfc.nasa.gov/api/v3/events/EONET_21391/geojson", "description": "Flood in Austria 1104023", "status": "closed"}}, {"type": "Feature", "geometry": {"type": "Point", "coordinates": [49.501346, 13.9320273]}, "properties": {"id": "EONET_21392", "hazard": "flood", "title": "Flood in Czech Republic 1104024", "severity": "moderate", "source": "NASA EONET", "time": "2026-07-13T20:00:00Z", "magnitude": null, "depth_km": null, "url": "https://eonet.gsfc.nasa.gov/api/v3/events/EONET_21392/geojson", "description": "Flood in Czech Republic 1104024", "status": "closed"}}, {"type": "Feature", "geometry": {"type": "Point", "coordinates": [51.0426686, 17.0280601]}, "properties": {"id": "EONET_21393", "hazard": "flood", "title": "Flood in Poland 1104025", "severity": "moderate", "source": "NASA EONET", "time": "2026-07-13T20:00:00Z", "magnitude": null, "depth_km": null, "url": "https://eonet.gsfc.nasa.gov/api/v3/events/EONET_21393/geojson", "description": "Flood in Poland 1104025", "status": "closed"}}, {"type": "Feature", "geometry": {"type": "Point", "coordinates": [14.615845, -84.4718524]}, "properties": {"id": "EONET_21359", "hazard": "flood", "title": "Flood in Honduras 1104021", "severity": "moderate", "source": "NASA EONET", "time": "2026-07-11T20:00:00Z", "magnitude": null, "depth_km": null, "url": "https://eonet.gsfc.nasa.gov/api/v3/events/EONET_21359/geojson", "description": "Flood in Honduras 1104021", "status": "closed"}}, {"type": "Feature", "geometry": {"type": "Point", "coordinates": [-0.8474499450450448, 120.1710748]}, "properties": {"id": "EONET_21394", "hazard": "flood", "title": "Flood in Indonesia 1104026", "severity": "moderate", "source": "NASA EONET", "time": "2026-07-11T20:00:00Z", "magnitude": null, "depth_km": null, "url": "https://eonet.gsfc.nasa.gov/api/v3/events/EONET_21394/geojson", "description": "Flood in Indonesia 1104026", "status": "closed"}}, {"type": "Feature", "geometry": {"type": "Point", "coordinates": [2.1492196549549556, 102.2486651]}, "properties": {"id": "EONET_21342", "hazard": "flood", "title": "Flood in Malaysia 1104020", "severity": "moderate", "source": "NASA EONET", "time": "2026-07-10T20:00:00Z", "magnitude": null, "depth_km": null, "url": "https://eonet.gsfc.nasa.gov/api/v3/events/EONET_21342/geojson", "description": "Flood in Malaysia 1104020", "status": "closed"}}, {"type": "Feature", "geometry": {"type": "Point", "coordinates": [41.9026763, 45.4658675]}, "properties": {"id": "EONET_21343", "hazard": "flood", "title": "Flood in Georgia 1104018", "severity": "moderate", "source": "NASA EONET", "time": "2026-07-10T20:00:00Z", "magnitude": null, "depth_km": null, "url": "https://eonet.gsfc.nasa.gov/api/v3/events/EONET_21343/geojson", "description": "Flood in Georgia 1104018", "status": "closed"}}, {"type": "Feature", "geometry": {"type": "Point", "coordinates": [15.3216284, -90.2180255]}, "properties": {"id": "EONET_21271", "hazard": "flood", "title": "Flood in Guatemala 1104013", "severity": "moderate", "source": "NASA EONET", "time": "2026-07-08T20:00:00Z", "magnitude": null, "depth_km": null, "url": "https://eonet.gsfc.nasa.gov/api/v3/events/EONET_21271/geojson", "description": "Flood in Guatemala 1104013", "status": "closed"}}, {"type": "Feature", "geometry": {"type": "Point", "coordinates": [24.2513618, 91.378273]}, "properties": {"id": "EONET_21272", "hazard": "flood", "title": "Flood in Bangladesh 1104015", "severity": "moderate", "source": "NASA EONET", "time": "2026-07-08T20:00:00Z", "magnitude": null, "depth_km": null, "url": "https://eonet.gsfc.nasa.gov/api/v3/events/EONET_21272/geojson", "description": "Flood in Bangladesh 1104015", "status": "closed"}}, {"type": "Feature", "geometry": {"type": "Point", "coordinates": [57.9881914, 25.9221749]}, "properties": {"id": "EONET_21273", "hazard": "flood", "title": "Flood in Estonia 1104017", "severity": "moderate", "source": "NASA EONET", "time": "2026-07-07T20:00:00Z", "magnitude": null, "depth_km": null, "url": "https://eonet.gsfc.nasa.gov/api/v3/events/EONET_21273/geojson", "description": "Flood in Estonia 1104017", "status": "closed"}}, {"type": "Feature", "geometry": {"type": "Point", "coordinates": [5.394365454954955, -72.1848383]}, "properties": {"id": "EONET_21274", "hazard": "flood", "title": "Flood in Colombia 1104014", "severity": "moderate", "source": "NASA EONET", "time": "2026-07-07T20:00:00Z", "magnitude": null, "depth_km": null, "url": "https://eonet.gsfc.nasa.gov/api/v3/events/EONET_21274/geojson", "description": "Flood in Colombia 1104014", "status": "closed"}}, {"type": "Feature", "geometry": {"type": "Point", "coordinates": [-39.6460143, -72.5926574]}, "properties": {"id": "EONET_21189", "hazard": "flood", "title": "Flood in Chile 1104010", "severity": "moderate", "source": "NASA EONET", "time": "2026-07-06T20:00:00Z", "magnitude": null, "depth_km": null, "url": "https://eonet.gsfc.nasa.gov/api/v3/events/EONET_21189/geojson", "description": "Flood in Chile 1104010", "status": "closed"}}, {"type": "Feature", "geometry": {"type": "Point", "coordinates": [37.5687181, 126.9890647]}, "properties": {"id": "EONET_21252", "hazard": "flood", "title": "Flood in South Korea 1104012", "severity": "moderate", "source": "NASA EONET", "time": "2026-07-06T20:00:00Z", "magnitude": null, "depth_km": null, "url": "https://eonet.gsfc.nasa.gov/api/v3/events/EONET_21252/geojson", "description": "Flood in South Korea 1104012", "status": "closed"}}, {"type": "Feature", "geometry": {"type": "Point", "coordinates": [-45.14502834504504, 170.9697933]}, "properties": {"id": "EONET_20995", "hazard": "flood", "title": "Flood in New Zealand 1104006", "severity": "moderate", "source": "NASA EONET", "time": "2026-07-04T20:00:00Z", "magnitude": null, "depth_km": null, "url": "https://eonet.gsfc.nasa.gov/api/v3/events/EONET_20995/geojson", "description": "Flood in New Zealand 1104006", "status": "closed"}}, {"type": "Feature", "geometry": {"type": "Point", "coordinates": [60.5081313, 24.6634023]}, "properties": {"id": "EONET_21160", "hazard": "flood", "title": "Flood in Finland 1104008", "severity": "moderate", "source": "NASA EONET", "time": "2026-07-04T20:00:00Z", "magnitude": null, "depth_km": null, "url": "https://eonet.gsfc.nasa.gov/api/v3/events/EONET_21160/geojson", "description": "Flood in Finland 1104008", "status": "closed"}}, {"type": "Feature", "geometry": {"type": "Point", "coordinates": [21.1695355, 92.7156281]}, "properties": {"id": "EONET_21253", "hazard": "flood", "title": "Flood in Myanmar 1104011", "severity": "moderate", "source": "NASA EONET", "time": "2026-07-03T20:00:00Z", "magnitude": null, "depth_km": null, "url": "https://eonet.gsfc.nasa.gov/api/v3/events/EONET_21253/geojson", "description": "Flood in Myanmar 1104011", "status": "closed"}}, {"type": "Feature", "geometry": {"type": "Point", "coordinates": [-4.3051135, -78.9537326]}, "properties": {"id": "EONET_20996", "hazard": "flood", "title": "Flood in Ecuador 1104007", "severity": "moderate", "source": "NASA EONET", "time": "2026-07-02T20:00:00Z", "magnitude": null, "depth_km": null, "url": "https://eonet.gsfc.nasa.gov/api/v3/events/EONET_20996/geojson", "description": "Flood in Ecuador 1104007", "status": "closed"}}, {"type": "Feature", "geometry": {"type": "Point", "coordinates": [25.77564, 49.98711]}, "properties": {"id": "EONET_20925", "hazard": "flood", "title": "Flood in Ukraine 1104001", "severity": "moderate", "source": "NASA EONET", "time": "2026-07-01T20:00:00Z", "magnitude": null, "depth_km": null, "url": "https://eonet.gsfc.nasa.gov/api/v3/events/EONET_20925/geojson", "description": "Flood in Ukraine 1104001", "status": "closed"}}, {"type": "Feature", "geometry": {"type": "Point", "coordinates": [-83.5088959, 10.0926794]}, "properties": {"id": "EONET_20981", "hazard": "flood", "title": "Flood in Costa Rica 1104003", "severity": "moderate", "source": "NASA EONET", "time": "2026-07-01T20:00:00Z", "magnitude": null, "depth_km": null, "url": "https://eonet.gsfc.nasa.gov/api/v3/events/EONET_20981/geojson", "description": "Flood in Costa Rica 1104003", "status": "closed"}}, {"type": "Feature", "geometry": {"type": "Point", "coordinates": [17.7221491, 48.28845]}, "properties": {"id": "EONET_20879", "hazard": "flood", "title": "Flood in Slovakia 1103998", "severity": "moderate", "source": "NASA EONET", "time": "2026-06-30T20:00:00Z", "magnitude": null, "depth_km": null, "url": "https://eonet.gsfc.nasa.gov/api/v3/events/EONET_20879/geojson", "description": "Flood in Slovakia 1103998", "status": "closed"}}, {"type": "Feature", "geometry": {"type": "Point", "coordinates": [98.918584, 8.0617339]}, "properties": {"id": "EONET_20880", "hazard": "flood", "title": "Flood in Thailand 1103996", "severity": "moderate", "source": "NASA EONET", "time": "2026-06-30T20:00:00Z", "magnitude": null, "depth_km": null, "url": "https://eonet.gsfc.nasa.gov/api/v3/events/EONET_20880/geojson", "description": "Flood in Thailand 1103996", "status": "closed"}}, {"type": "Feature", "geometry": {"type": "Point", "coordinates": [3.3941795, 6.4550575]}, "properties": {"id": "EONET_20881", "hazard": "flood", "title": "Flood in Nigeria 1103997", "severity": "moderate", "source": "NASA EONET", "time": "2026-06-30T20:00:00Z", "magnitude": null, "depth_km": null, "url": "https://eonet.gsfc.nasa.gov/api/v3/events/EONET_20881/geojson", "description": "Flood in Nigeria 1103997", "status": "closed"}}, {"type": "Feature", "geometry": {"type": "Point", "coordinates": [-76.3777409, -10.7195033]}, "properties": {"id": "EONET_20897", "hazard": "flood", "title": "Flood in Peru 1104000", "severity": "moderate", "source": "NASA EONET", "time": "2026-06-30T20:00:00Z", "magnitude": null, "depth_km": null, "url": "https://eonet.gsfc.nasa.gov/api/v3/events/EONET_20897/geojson", "description": "Flood in Peru 1104000", "status": "closed"}}, {"type": "Feature", "geometry": {"type": "Point", "coordinates": [-37.757550845045046, 146.6717437]}, "properties": {"id": "EONET_20997", "hazard": "flood", "title": "Flood in Australia 1104005", "severity": "moderate", "source": "NASA EONET", "time": "2026-06-30T20:00:00Z", "magnitude": null, "depth_km": null, "url": "https://eonet.gsfc.nasa.gov/api/v3/events/EONET_20997/geojson", "description": "Flood in Australia 1104005", "status": "closed"}}, {"type": "Feature", "geometry": {"type": "Point", "coordinates": [42.6237021, 77.0885267]}, "properties": {"id": "EONET_20998", "hazard": "flood", "title": "Flood in Kyrgyzstan 1104004", "severity": "moderate", "source": "NASA EONET", "time": "2026-06-30T20:00:00Z", "magnitude": null, "depth_km": null, "url": "https://eonet.gsfc.nasa.gov/api/v3/events/EONET_20998/geojson", "description": "Flood in Kyrgyzstan 1104004", "status": "closed"}}, {"type": "Feature", "geometry": {"type": "Point", "coordinates": [7.923549, 45.060735]}, "properties": {"id": "EONET_20858", "hazard": "flood", "title": "Flood in Italy 1103980", "severity": "moderate", "source": "NASA EONET", "time": "2026-06-28T20:00:00Z", "magnitude": null, "depth_km": null, "url": "https://eonet.gsfc.nasa.gov/api/v3/events/EONET_20858/geojson", "description": "Flood in Italy 1103980", "status": "closed"}}, {"type": "Feature", "geometry": {"type": "Point", "coordinates": [-57.1252096, -26.408432]}, "properties": {"id": "EONET_20898", "hazard": "flood", "title": "Flood in Paraguay 1103999", "severity": "moderate", "source": "NASA EONET", "time": "2026-06-28T20:00:00Z", "magnitude": null, "depth_km": null, "url": "https://eonet.gsfc.nasa.gov/api/v3/events/EONET_20898/geojson", "description": "Flood in Paraguay 1103999", "status": "closed"}}, {"type": "Feature", "geometry": {"type": "Point", "coordinates": [36.4534072, 37.2401223]}, "properties": {"id": "EONET_20292", "hazard": "flood", "title": "Flood in T\u00fcrkiye 1103920", "severity": "moderate", "source": "NASA EONET", "time": "2026-06-27T20:00:00Z", "magnitude": null, "depth_km": null, "url": "https://eonet.gsfc.nasa.gov/api/v3/events/EONET_20292/geojson", "description": "Flood in T\u00fcrkiye 1103920", "status": "closed"}}, {"type": "Feature", "geometry": {"type": "Point", "coordinates": [-98.0, 18.833333]}, "properties": {"id": "EONET_20859", "hazard": "flood", "title": "Flood in Mexico 1103981", "severity": "moderate", "source": "NASA EONET", "time": "2026-06-27T20:00:00Z", "magnitude": null, "depth_km": null, "url": "https://eonet.gsfc.nasa.gov/api/v3/events/EONET_20859/geojson", "description": "Flood in Mexico 1103981", "status": "closed"}}, {"type": "Feature", "geometry": {"type": "Point", "coordinates": [-69.7415288, 9.0369521]}, "properties": {"id": "EONET_20860", "hazard": "flood", "title": "Flood in Venezuela 1103982", "severity": "moderate", "source": "NASA EONET", "time": "2026-06-27T20:00:00Z", "magnitude": null, "depth_km": null, "url": "https://eonet.gsfc.nasa.gov/api/v3/events/EONET_20860/geojson", "description": "Flood in Venezuela 1103982", "status": "closed"}}, {"type": "Feature", "geometry": {"type": "Point", "coordinates": [4.9202409, 52.2325145]}, "properties": {"id": "EONET_20823", "hazard": "flood", "title": "Flood in Netherlands 1103978", "severity": "moderate", "source": "NASA EONET", "time": "2026-06-26T20:00:00Z", "magnitude": null, "depth_km": null, "url": "https://eonet.gsfc.nasa.gov/api/v3/events/EONET_20823/geojson", "description": "Flood in Netherlands 1103978", "status": "closed"}}, {"type": "Feature", "geometry": {"type": "Point", "coordinates": [47.6764836, 38.3979293]}, "properties": {"id": "EONET_20824", "hazard": "flood", "title": "Flood in Islamic Republic of Iran 1103976", "severity": "moderate", "source": "NASA EONET", "time": "2026-06-26T20:00:00Z", "magnitude": null, "depth_km": null, "url": "https://eonet.gsfc.nasa.gov/api/v3/events/EONET_20824/geojson", "description": "Flood in Islamic Republic of Iran 1103976", "status": "closed"}}, {"type": "Feature", "geometry": {"type": "Point", "coordinates": [42.1359434, 43.1939185]}, "properties": {"id": "EONET_20861", "hazard": "flood", "title": "Flood in Georgia 1103979", "severity": "moderate", "source": "NASA EONET", "time": "2026-06-26T20:00:00Z", "magnitude": null, "depth_km": null, "url": "https://eonet.gsfc.nasa.gov/api/v3/events/EONET_20861/geojson", "description": "Flood in Georgia 1103979", "status": "closed"}}, {"type": "Feature", "geometry": {"type": "Point", "coordinates": [-53.6421338, -27.6616073]}, "properties": {"id": "EONET_20825", "hazard": "flood", "title": "Flood in Brazil 1103977", "severity": "moderate", "source": "NASA EONET", "time": "2026-06-25T20:00:00Z", "magnitude": null, "depth_km": null, "url": "https://eonet.gsfc.nasa.gov/api/v3/events/EONET_20825/geojson", "description": "Flood in Brazil 1103977", "status": "closed"}}, {"type": "Feature", "geometry": {"type": "Point", "coordinates": [106.1060926, 22.7426936]}, "properties": {"id": "EONET_20882", "hazard": "flood", "title": "Flood in Vietnam 1103992", "severity": "moderate", "source": "NASA EONET", "time": "2026-06-24T20:00:00Z", "magnitude": null, "depth_km": null, "url": "https://eonet.gsfc.nasa.gov/api/v3/events/EONET_20882/geojson", "description": "Flood in Vietnam 1103992", "status": "closed"}}, {"type": "Feature", "geometry": {"type": "Point", "coordinates": [96.0263532, 19.91049]}, "properties": {"id": "EONET_20736", "hazard": "flood", "title": "Flood in Myanmar 1103975", "severity": "moderate", "source": "NASA EONET", "time": "2026-06-23T20:00:00Z", "magnitude": null, "depth_km": null, "url": "https://eonet.gsfc.nasa.gov/api/v3/events/EONET_20736/geojson", "description": "Flood in Myanmar 1103975", "status": "closed"}}, {"type": "Feature", "geometry": {"type": "Point", "coordinates": [130.6341345, 32.6450475]}, "properties": {"id": "EONET_20926", "hazard": "flood", "title": "Flood in Japan 1103993", "severity": "moderate", "source": "NASA EONET", "time": "2026-06-23T20:00:00Z", "magnitude": null, "depth_km": null, "url": "https://eonet.gsfc.nasa.gov/api/v3/events/EONET_20926/geojson", "description": "Flood in Japan 1103993", "status": "closed"}}, {"type": "Feature", "geometry": {"type": "Point", "coordinates": [72.9257184, 19.114541]}, "properties": {"id": "EONET_20693", "hazard": "flood", "title": "Flood in India 1103972", "severity": "moderate", "source": "NASA EONET", "time": "2026-06-22T20:00:00Z", "magnitude": null, "depth_km": null, "url": "https://eonet.gsfc.nasa.gov/api/v3/events/EONET_20693/geojson", "description": "Flood in India 1103972", "status": "closed"}}, {"type": "Feature", "geometry": {"type": "Point", "coordinates": [24.39821, 43.64638]}, "properties": {"id": "EONET_20711", "hazard": "flood", "title": "Flood in Bulgaria 1103973", "severity": "moderate", "source": "NASA EONET", "time": "2026-06-22T20:00:00Z", "magnitude": null, "depth_km": null, "url": "https://eonet.gsfc.nasa.gov/api/v3/events/EONET_20711/geojson", "description": "Flood in Bulgaria 1103973", "status": "closed"}}, {"type": "Feature", "geometry": {"type": "Point", "coordinates": [21.3302511, 41.0316005]}, "properties": {"id": "EONET_20712", "hazard": "flood", "title": "Flood in The Republic of North Macedonia 1103974", "severity": "moderate", "source": "NASA EONET", "time": "2026-06-22T20:00:00Z", "magnitude": null, "depth_km": null, "url": "https://eonet.gsfc.nasa.gov/api/v3/events/EONET_20712/geojson", "description": "Flood in The Republic of North Macedonia 1103974", "status": "closed"}}, {"type": "Feature", "geometry": {"type": "Point", "coordinates": [20.1946279, 47.1753833]}, "properties": {"id": "EONET_20650", "hazard": "flood", "title": "Flood in Hungary 1103967", "severity": "moderate", "source": "NASA EONET", "time": "2026-06-21T20:00:00Z", "magnitude": null, "depth_km": null, "url": "https://eonet.gsfc.nasa.gov/api/v3/events/EONET_20650/geojson", "description": "Flood in Hungary 1103967", "status": "closed"}}, {"type": "Feature", "geometry": {"type": "Point", "coordinates": [22.3481728, 47.3819953]}, "properties": {"id": "EONET_20651", "hazard": "flood", "title": "Flood in Romania 1103966", "severity": "moderate", "source": "NASA EONET", "time": "2026-06-20T20:00:00Z", "magnitude": null, "depth_km": null, "url": "https://eonet.gsfc.nasa.gov/api/v3/events/EONET_20651/geojson", "description": "Flood in Romania 1103966", "status": "closed"}}, {"type": "Feature", "geometry": {"type": "Point", "coordinates": [-73.8471749, 45.4955083]}, "properties": {"id": "EONET_20635", "hazard": "flood", "title": "Flood in Canada 1103963", "severity": "moderate", "source": "NASA EONET", "time": "2026-06-19T20:00:00Z", "magnitude": null, "depth_km": null, "url": "https://eonet.gsfc.nasa.gov/api/v3/events/EONET_20635/geojson", "description": "Flood in Canada 1103963", "status": "closed"}}, {"type": "Feature", "geometry": {"type": "Point", "coordinates": [14.0103663, 49.6901444]}, "properties": {"id": "EONET_20636", "hazard": "flood", "title": "Flood in Czech Republic 1103964", "severity": "moderate", "source": "NASA EONET", "time": "2026-06-19T20:00:00Z", "magnitude": null, "depth_km": null, "url": "https://eonet.gsfc.nasa.gov/api/v3/events/EONET_20636/geojson", "description": "Flood in Czech Republic 1103964", "status": "closed"}}, {"type": "Feature", "geometry": {"type": "Point", "coordinates": [4.841761, 50.4613937]}, "properties": {"id": "EONET_20652", "hazard": "flood", "title": "Flood in Belgium 1103965", "severity": "moderate", "source": "NASA EONET", "time": "2026-06-19T20:00:00Z", "magnitude": null, "depth_km": null, "url": "https://eonet.gsfc.nasa.gov/api/v3/events/EONET_20652/geojson", "description": "Flood in Belgium 1103965", "status": "closed"}}, {"type": "Feature", "geometry": {"type": "Point", "coordinates": [-88.4690631, 14.6181139]}, "properties": {"id": "EONET_20672", "hazard": "flood", "title": "Flood in Honduras 1103969", "severity": "moderate", "source": "NASA EONET", "time": "2026-06-19T20:00:00Z", "magnitude": null, "depth_km": null, "url": "https://eonet.gsfc.nasa.gov/api/v3/events/EONET_20672/geojson", "description": "Flood in Honduras 1103969", "status": "closed"}}, {"type": "Feature", "geometry": {"type": "Point", "coordinates": [-1.2417103, 5.1080932]}, "properties": {"id": "EONET_20607", "hazard": "flood", "title": "Flood in Ghana 1103954", "severity": "moderate", "source": "NASA EONET", "time": "2026-06-18T20:00:00Z", "magnitude": null, "depth_km": null, "url": "https://eonet.gsfc.nasa.gov/api/v3/events/EONET_20607/geojson", "description": "Flood in Ghana 1103954", "status": "closed"}}, {"type": "Feature", "geometry": {"type": "Point", "coordinates": [15.6723805, 47.6053538]}, "properties": {"id": "EONET_20608", "hazard": "flood", "title": "Flood in Austria 1103957", "severity": "moderate", "source": "NASA EONET", "time": "2026-06-18T20:00:00Z", "magnitude": null, "depth_km": null, "url": "https://eonet.gsfc.nasa.gov/api/v3/events/EONET_20608/geojson", "description": "Flood in Austria 1103957", "status": "closed"}}, {"type": "Feature", "geometry": {"type": "Point", "coordinates": [14.2413131, 53.2977629]}, "properties": {"id": "EONET_20609", "hazard": "flood", "title": "Flood in Germany 1103958", "severity": "moderate", "source": "NASA EONET", "time": "2026-06-18T20:00:00Z", "magnitude": null, "depth_km": null, "url": "https://eonet.gsfc.nasa.gov/api/v3/events/EONET_20609/geojson", "description": "Flood in Germany 1103958", "status": "closed"}}, {"type": "Feature", "geometry": {"type": "Point", "coordinates": [127.0062576, 36.7919981]}, "properties": {"id": "EONET_20610", "hazard": "flood", "title": "Flood in South Korea 1103961", "severity": "moderate", "source": "NASA EONET", "time": "2026-06-18T20:00:00Z", "magnitude": null, "depth_km": null, "url": "https://eonet.gsfc.nasa.gov/api/v3/events/EONET_20610/geojson", "description": "Flood in South Korea 1103961", "status": "closed"}}, {"type": "Feature", "geometry": {"type": "Point", "coordinates": [125.255502, -9.3148991]}, "properties": {"id": "EONET_20673", "hazard": "flood", "title": "Flood in Timor-Leste 1103968", "severity": "moderate", "source": "NASA EONET", "time": "2026-06-18T20:00:00Z", "magnitude": null, "depth_km": null, "url": "https://eonet.gsfc.nasa.gov/api/v3/events/EONET_20673/geojson", "description": "Flood in Timor-Leste 1103968", "status": "closed"}}, {"type": "Feature", "geometry": {"type": "Point", "coordinates": [-74.5373433, -8.3907581]}, "properties": {"id": "EONET_20593", "hazard": "flood", "title": "Flood in Peru 1103951", "severity": "moderate", "source": "NASA EONET", "time": "2026-06-17T20:00:00Z", "magnitude": null, "depth_km": null, "url": "https://eonet.gsfc.nasa.gov/api/v3/events/EONET_20593/geojson", "description": "Flood in Peru 1103951", "status": "closed"}}, {"type": "Feature", "geometry": {"type": "Point", "coordinates": [14.5928676, 53.4298114]}, "properties": {"id": "EONET_20611", "hazard": "flood", "title": "Flood in Poland 1103955", "severity": "moderate", "source": "NASA EONET", "time": "2026-06-17T20:00:00Z", "magnitude": null, "depth_km": null, "url": "https://eonet.gsfc.nasa.gov/api/v3/events/EONET_20611/geojson", "description": "Flood in Poland 1103955", "status": "closed"}}, {"type": "Feature", "geometry": {"type": "Point", "coordinates": [3.4973822, 50.1851628]}, "properties": {"id": "EONET_20612", "hazard": "flood", "title": "Flood in France 1103956", "severity": "moderate", "source": "NASA EONET", "time": "2026-06-17T20:00:00Z", "magnitude": null, "depth_km": null, "url": "https://eonet.gsfc.nasa.gov/api/v3/events/EONET_20612/geojson", "description": "Flood in France 1103956", "status": "closed"}}, {"type": "Feature", "geometry": {"type": "Point", "coordinates": [69.5711653, 39.9407091]}, "properties": {"id": "EONET_20613", "hazard": "flood", "title": "Flood in Kyrgyzstan 1103960", "severity": "moderate", "source": "NASA EONET", "time": "2026-06-17T20:00:00Z", "magnitude": null, "depth_km": null, "url": "https://eonet.gsfc.nasa.gov/api/v3/events/EONET_20613/geojson", "description": "Flood in Kyrgyzstan 1103960", "status": "closed"}}, {"type": "Feature", "geometry": {"type": "Point", "coordinates": [-74.6212148, 7.2775955]}, "properties": {"id": "EONET_20594", "hazard": "flood", "title": "Flood in Colombia 1103952", "severity": "moderate", "source": "NASA EONET", "time": "2026-06-16T20:00:00Z", "magnitude": null, "depth_km": null, "url": "https://eonet.gsfc.nasa.gov/api/v3/events/EONET_20594/geojson", "description": "Flood in Colombia 1103952", "status": "closed"}}, {"type": "Feature", "geometry": {"type": "Point", "coordinates": [70.9090919, 31.827527]}, "properties": {"id": "EONET_20595", "hazard": "flood", "title": "Flood in Pakistan 1103953", "severity": "moderate", "source": "NASA EONET", "time": "2026-06-16T20:00:00Z", "magnitude": null, "depth_km": null, "url": "https://eonet.gsfc.nasa.gov/api/v3/events/EONET_20595/geojson", "description": "Flood in Pakistan 1103953", "status": "closed"}}, {"type": "Feature", "geometry": {"type": "Point", "coordinates": [44.6959371, 42.0844709]}, "properties": {"id": "EONET_20614", "hazard": "flood", "title": "Flood in Georgia 1103959", "severity": "moderate", "source": "NASA EONET", "time": "2026-06-16T20:00:00Z", "magnitude": null, "depth_km": null, "url": "https://eonet.gsfc.nasa.gov/api/v3/events/EONET_20614/geojson", "description": "Flood in Georgia 1103959", "status": "closed"}}, {"type": "Feature", "geometry": {"type": "Point", "coordinates": [-1.4860622, 43.1653625]}, "properties": {"id": "EONET_20540", "hazard": "flood", "title": "Flood in Spain 1103948", "severity": "moderate", "source": "NASA EONET", "time": "2026-06-15T20:00:00Z", "magnitude": null, "depth_km": null, "url": "https://eonet.gsfc.nasa.gov/api/v3/events/EONET_20540/geojson", "description": "Flood in Spain 1103948", "status": "closed"}}, {"type": "Feature", "geometry": {"type": "Point", "coordinates": [-7.128034, 40.7818172]}, "properties": {"id": "EONET_20541", "hazard": "flood", "title": "Flood in Portugal 1103947", "severity": "moderate", "source": "NASA EONET", "time": "2026-06-14T20:00:00Z", "magnitude": null, "depth_km": null, "url": "https://eonet.gsfc.nasa.gov/api/v3/events/EONET_20541/geojson", "description": "Flood in Portugal 1103947", "status": "closed"}}, {"type": "Feature", "geometry": {"type": "Point", "coordinates": [8.3547342, 36.2220401]}, "properties": {"id": "EONET_20542", "hazard": "flood", "title": "Flood in Tunisia 1103945", "severity": "moderate", "source": "NASA EONET", "time": "2026-06-14T20:00:00Z", "magnitude": null, "depth_km": null, "url": "https://eonet.gsfc.nasa.gov/api/v3/events/EONET_20542/geojson", "description": "Flood in Tunisia 1103945", "status": "closed"}}, {"type": "Feature", "geometry": {"type": "Point", "coordinates": [18.4309501, 43.8591032]}, "properties": {"id": "EONET_20543", "hazard": "flood", "title": "Flood in Bosnia &amp; Herzegovina 1103946", "severity": "moderate", "source": "NASA EONET", "time": "2026-06-14T20:00:00Z", "magnitude": null, "depth_km": null, "url": "https://eonet.gsfc.nasa.gov/api/v3/events/EONET_20543/geojson", "description": "Flood in Bosnia &amp; Herzegovina 1103946", "status": "closed"}}, {"type": "Feature", "geometry": {"type": "Point", "coordinates": [-91.5647814, 14.3040004]}, "properties": {"id": "EONET_20572", "hazard": "flood", "title": "Flood in Guatemala 1103949", "severity": "moderate", "source": "NASA EONET", "time": "2026-06-14T20:00:00Z", "magnitude": null, "depth_km": null, "url": "https://eonet.gsfc.nasa.gov/api/v3/events/EONET_20572/geojson", "description": "Flood in Guatemala 1103949", "status": "closed"}}, {"type": "Feature", "geometry": {"type": "Point", "coordinates": [95.9715039, 4.418877]}, "properties": {"id": "EONET_20585", "hazard": "flood", "title": "Flood in Indonesia 1103950", "severity": "moderate", "source": "NASA EONET", "time": "2026-06-14T20:00:00Z", "magnitude": null, "depth_km": null, "url": "https://eonet.gsfc.nasa.gov/api/v3/events/EONET_20585/geojson", "description": "Flood in Indonesia 1103950", "status": "closed"}}, {"type": "Feature", "geometry": {"type": "Point", "coordinates": [-100.5403411, 28.6913408]}, "properties": {"id": "EONET_20525", "hazard": "flood", "title": "Flood in Mexico 1103944", "severity": "moderate", "source": "NASA EONET", "time": "2026-06-13T20:00:00Z", "magnitude": null, "depth_km": null, "url": "https://eonet.gsfc.nasa.gov/api/v3/events/EONET_20525/geojson", "description": "Flood in Mexico 1103944", "status": "closed"}}, {"type": "Feature", "geometry": {"type": "Point", "coordinates": [124.8500742, 5.8883557]}, "properties": {"id": "EONET_20499", "hazard": "flood", "title": "Flood in Philippines 1103942", "severity": "moderate", "source": "NASA EONET", "time": "2026-06-12T20:00:00Z", "magnitude": null, "depth_km": null, "url": "https://eonet.gsfc.nasa.gov/api/v3/events/EONET_20499/geojson", "description": "Flood in Philippines 1103942", "status": "closed"}}, {"type": "Feature", "geometry": {"type": "Point", "coordinates": [32.8087786, 39.9661061]}, "properties": {"id": "EONET_20500", "hazard": "flood", "title": "Flood in T\u00fcrkiye 1103943", "severity": "moderate", "source": "NASA EONET", "time": "2026-06-12T20:00:00Z", "magnitude": null, "depth_km": null, "url": "https://eonet.gsfc.nasa.gov/api/v3/events/EONET_20500/geojson", "description": "Flood in T\u00fcrkiye 1103943", "status": "closed"}}, {"type": "Feature", "geometry": {"type": "Point", "coordinates": [113.0472803, 3.1874261]}, "properties": {"id": "EONET_20465", "hazard": "flood", "title": "Flood in Malaysia 1103939", "severity": "moderate", "source": "NASA EONET", "time": "2026-06-10T20:00:00Z", "magnitude": null, "depth_km": null, "url": "https://eonet.gsfc.nasa.gov/api/v3/events/EONET_20465/geojson", "description": "Flood in Malaysia 1103939", "status": "closed"}}, {"type": "Feature", "geometry": {"type": "Point", "coordinates": [-51.8148872, -24.4842187]}, "properties": {"id": "EONET_20501", "hazard": "flood", "title": "Flood in Brazil 1103940", "severity": "moderate", "source": "NASA EONET", "time": "2026-06-10T20:00:00Z", "magnitude": null, "depth_km": null, "url": "https://eonet.gsfc.nasa.gov/api/v3/events/EONET_20501/geojson", "description": "Flood in Brazil 1103940", "status": "closed"}}, {"type": "Feature", "geometry": {"type": "Point", "coordinates": [28.445337, 50.5959845]}, "properties": {"id": "EONET_20423", "hazard": "flood", "title": "Flood in Ukraine 1103936", "severity": "moderate", "source": "NASA EONET", "time": "2026-06-07T20:00:00Z", "magnitude": null, "depth_km": null, "url": "https://eonet.gsfc.nasa.gov/api/v3/events/EONET_20423/geojson", "description": "Flood in Ukraine 1103936", "status": "closed"}}, {"type": "Feature", "geometry": {"type": "Point", "coordinates": [-85.3037739, 13.0626733]}, "properties": {"id": "EONET_20449", "hazard": "flood", "title": "Flood in Nicaragua 1103938", "severity": "moderate", "source": "NASA EONET", "time": "2026-06-07T20:00:00Z", "magnitude": null, "depth_km": null, "url": "https://eonet.gsfc.nasa.gov/api/v3/events/EONET_20449/geojson", "description": "Flood in Nicaragua 1103938", "status": "closed"}}, {"type": "Feature", "geometry": {"type": "Point", "coordinates": [1.921502, 34.9651795]}, "properties": {"id": "EONET_20393", "hazard": "flood", "title": "Flood in Algeria 1103932", "severity": "moderate", "source": "NASA EONET", "time": "2026-06-06T20:00:00Z", "magnitude": null, "depth_km": null, "url": "https://eonet.gsfc.nasa.gov/api/v3/events/EONET_20393/geojson", "description": "Flood in Algeria 1103932", "status": "closed"}}, {"type": "Feature", "geometry": {"type": "Point", "coordinates": [106.0346469, 27.0272531]}, "properties": {"id": "EONET_20394", "hazard": "flood", "title": "Flood in China 1103933", "severity": "moderate", "source": "NASA EONET", "time": "2026-06-05T20:00:00Z", "magnitude": null, "depth_km": null, "url": "https://eonet.gsfc.nasa.gov/api/v3/events/EONET_20394/geojson", "description": "Flood in China 1103933", "status": "closed"}}, {"type": "Feature", "geometry": {"type": "Point", "coordinates": [-101.2326802, 52.1230486]}, "properties": {"id": "EONET_20414", "hazard": "flood", "title": "Flood in Canada 1103935", "severity": "moderate", "source": "NASA EONET", "time": "2026-06-05T20:00:00Z", "magnitude": null, "depth_km": null, "url": "https://eonet.gsfc.nasa.gov/api/v3/events/EONET_20414/geojson", "description": "Flood in Canada 1103935", "status": "closed"}}, {"type": "Feature", "geometry": {"type": "Point", "coordinates": [-89.5678141, 14.1145585]}, "properties": {"id": "EONET_20359", "hazard": "flood", "title": "Flood in El Salvador 1103930", "severity": "moderate", "source": "NASA EONET", "time": "2026-06-04T20:00:00Z", "magnitude": null, "depth_km": null, "url": "https://eonet.gsfc.nasa.gov/api/v3/events/EONET_20359/geojson", "description": "Flood in El Salvador 1103930", "status": "closed"}}, {"type": "Feature", "geometry": {"type": "Point", "coordinates": [27.8212536, 48.0307914]}, "properties": {"id": "EONET_20415", "hazard": "flood", "title": "Flood in Moldova 1103934", "severity": "moderate", "source": "NASA EONET", "time": "2026-06-04T20:00:00Z", "magnitude": null, "depth_km": null, "url": "https://eonet.gsfc.nasa.gov/api/v3/events/EONET_20415/geojson", "description": "Flood in Moldova 1103934", "status": "closed"}}, {"type": "Feature", "geometry": {"type": "Point", "coordinates": [94.4210021, 16.3432538]}, "properties": {"id": "EONET_20424", "hazard": "flood", "title": "Flood in Myanmar 1103937", "severity": "moderate", "source": "NASA EONET", "time": "2026-06-04T20:00:00Z", "magnitude": null, "depth_km": null, "url": "https://eonet.gsfc.nasa.gov/api/v3/events/EONET_20424/geojson", "description": "Flood in Myanmar 1103937", "status": "closed"}}, {"type": "Feature", "geometry": {"type": "Point", "coordinates": [16.4399659, 43.5116383]}, "properties": {"id": "EONET_20302", "hazard": "flood", "title": "Flood in Croatia 1103925", "severity": "moderate", "source": "NASA EONET", "time": "2026-06-02T20:00:00Z", "magnitude": null, "depth_km": null, "url": "https://eonet.gsfc.nasa.gov/api/v3/events/EONET_20302/geojson", "description": "Flood in Croatia 1103925", "status": "closed"}}, {"type": "Feature", "geometry": {"type": "Point", "coordinates": [18.5941478, 50.0661004]}, "properties": {"id": "EONET_20303", "hazard": "flood", "title": "Flood in Poland 1103926", "severity": "moderate", "source": "NASA EONET", "time": "2026-06-02T20:00:00Z", "magnitude": null, "depth_km": null, "url": "https://eonet.gsfc.nasa.gov/api/v3/events/EONET_20303/geojson", "description": "Flood in Poland 1103926", "status": "closed"}}, {"type": "Feature", "geometry": {"type": "Point", "coordinates": [16.1312973, 46.5221445]}, "properties": {"id": "EONET_20304", "hazard": "flood", "title": "Flood in Slovenia 1103927", "severity": "moderate", "source": "NASA EONET", "time": "2026-06-02T20:00:00Z", "magnitude": null, "depth_km": null, "url": "https://eonet.gsfc.nasa.gov/api/v3/events/EONET_20304/geojson", "description": "Flood in Slovenia 1103927", "status": "closed"}}, {"type": "Feature", "geometry": {"type": "Point", "coordinates": [24.849839, -33.912907]}, "properties": {"id": "EONET_20305", "hazard": "flood", "title": "Flood in South Africa 1103929", "severity": "moderate", "source": "NASA EONET", "time": "2026-06-02T20:00:00Z", "magnitude": null, "depth_km": null, "url": "https://eonet.gsfc.nasa.gov/api/v3/events/EONET_20305/geojson", "description": "Flood in South Africa 1103929", "status": "closed"}}, {"type": "Feature", "geometry": {"type": "Point", "coordinates": [37.896802, 44.9624541]}, "properties": {"id": "EONET_20360", "hazard": "flood", "title": "Flood in Russia 1103931", "severity": "moderate", "source": "NASA EONET", "time": "2026-06-02T20:00:00Z", "magnitude": null, "depth_km": null, "url": "https://eonet.gsfc.nasa.gov/api/v3/events/EONET_20360/geojson", "description": "Flood in Russia 1103931", "status": "closed"}}, {"type": "Feature", "geometry": {"type": "Point", "coordinates": [9.7732524, 45.5703694]}, "properties": {"id": "EONET_20294", "hazard": "flood", "title": "Flood in Italy 1103923", "severity": "moderate", "source": "NASA EONET", "time": "2026-06-01T20:00:00Z", "magnitude": null, "depth_km": null, "url": "https://eonet.gsfc.nasa.gov/api/v3/events/EONET_20294/geojson", "description": "Flood in Italy 1103923", "status": "closed"}}, {"type": "Feature", "geometry": {"type": "Point", "coordinates": [-88.007767, 15.4936387]}, "properties": {"id": "EONET_20306", "hazard": "flood", "title": "Flood in Honduras 1103928", "severity": "moderate", "source": "NASA EONET", "time": "2026-06-01T20:00:00Z", "magnitude": null, "depth_km": null, "url": "https://eonet.gsfc.nasa.gov/api/v3/events/EONET_20306/geojson", "description": "Flood in Honduras 1103928", "status": "closed"}}, {"type": "Feature", "geometry": {"type": "Point", "coordinates": [-75.7878384, 5.2295674]}, "properties": {"id": "EONET_20295", "hazard": "flood", "title": "Flood in Colombia 1103924", "severity": "moderate", "source": "NASA EONET", "time": "2026-05-31T20:00:00Z", "magnitude": null, "depth_km": null, "url": "https://eonet.gsfc.nasa.gov/api/v3/events/EONET_20295/geojson", "description": "Flood in Colombia 1103924", "status": "closed"}}, {"type": "Feature", "geometry": {"type": "Point", "coordinates": [16.4166666, 47.5000001]}, "properties": {"id": "EONET_20293", "hazard": "flood", "title": "Flood in Austria 1103921", "severity": "moderate", "source": "NASA EONET", "time": "2026-05-30T20:00:00Z", "magnitude": null, "depth_km": null, "url": "https://eonet.gsfc.nasa.gov/api/v3/events/EONET_20293/geojson", "description": "Flood in Austria 1103921", "status": "closed"}}, {"type": "Feature", "geometry": {"type": "Point", "coordinates": [173.1065596, -41.3748768]}, "properties": {"id": "EONET_20296", "hazard": "flood", "title": "Flood in New Zealand 1103922", "severity": "moderate", "source": "NASA EONET", "time": "2026-05-30T20:00:00Z", "magnitude": null, "depth_km": null, "url": "https://eonet.gsfc.nasa.gov/api/v3/events/EONET_20296/geojson", "description": "Flood in New Zealand 1103922", "status": "closed"}}, {"type": "Feature", "geometry": {"type": "Point", "coordinates": [4.5762789, 50.4025053]}, "properties": {"id": "EONET_20280", "hazard": "flood", "title": "Flood in Belgium 1103918", "severity": "moderate", "source": "NASA EONET", "time": "2026-05-29T20:00:00Z", "magnitude": null, "depth_km": null, "url": "https://eonet.gsfc.nasa.gov/api/v3/events/EONET_20280/geojson", "description": "Flood in Belgium 1103918", "status": "closed"}}, {"type": "Feature", "geometry": {"type": "Point", "coordinates": [6.959974, 50.938361]}, "properties": {"id": "EONET_20281", "hazard": "flood", "title": "Flood in Germany 1103919", "severity": "moderate", "source": "NASA EONET", "time": "2026-05-28T20:00:00Z", "magnitude": null, "depth_km": null, "url": "https://eonet.gsfc.nasa.gov/api/v3/events/EONET_20281/geojson", "description": "Flood in Germany 1103919", "status": "closed"}}, {"type": "Feature", "geometry": {"type": "Point", "coordinates": [77.5040646, 29.9856799]}, "properties": {"id": "EONET_20282", "hazard": "flood", "title": "Flood in India 1103917", "severity": "moderate", "source": "NASA EONET", "time": "2026-05-27T20:00:00Z", "magnitude": null, "depth_km": null, "url": "https://eonet.gsfc.nasa.gov/api/v3/events/EONET_20282/geojson", "description": "Flood in India 1103917", "status": "closed"}}, {"type": "Feature", "geometry": {"type": "Point", "coordinates": [-89.6237402, 20.9670759]}, "properties": {"id": "EONET_20283", "hazard": "flood", "title": "Flood in Mexico 1103911", "severity": "moderate", "source": "NASA EONET", "time": "2026-05-26T20:00:00Z", "magnitude": null, "depth_km": null, "url": "https://eonet.gsfc.nasa.gov/api/v3/events/EONET_20283/geojson", "description": "Flood in Mexico 1103911", "status": "closed"}}, {"type": "Feature", "geometry": {"type": "Point", "coordinates": [15.2592288, 24.5351182]}, "properties": {"id": "EONET_20284", "hazard": "flood", "title": "Flood in Libya 1103916", "severity": "moderate", "source": "NASA EONET", "time": "2026-05-25T20:00:00Z", "magnitude": null, "depth_km": null, "url": "https://eonet.gsfc.nasa.gov/api/v3/events/EONET_20284/geojson", "description": "Flood in Libya 1103916", "status": "closed"}}, {"type": "Feature", "geometry": {"type": "Point", "coordinates": [126.6907475, 33.3076683]}, "properties": {"id": "EONET_20297", "hazard": "flood", "title": "Flood in South Korea 1103910", "severity": "moderate", "source": "NASA EONET", "time": "2026-05-24T20:00:00Z", "magnitude": null, "depth_km": null, "url": "https://eonet.gsfc.nasa.gov/api/v3/events/EONET_20297/geojson", "description": "Flood in South Korea 1103910", "status": "closed"}}, {"type": "Feature", "geometry": {"type": "Point", "coordinates": [44.8422377, 41.6875091]}, "properties": {"id": "EONET_20277", "hazard": "flood", "title": "Flood in Georgia 1103909", "severity": "moderate", "source": "NASA EONET", "time": "2026-05-23T20:00:00Z", "magnitude": null, "depth_km": null, "url": "https://eonet.gsfc.nasa.gov/api/v3/events/EONET_20277/geojson", "description": "Flood in Georgia 1103909", "status": "closed"}}, {"type": "Feature", "geometry": {"type": "Point", "coordinates": [108.1335279, 11.6614957]}, "properties": {"id": "EONET_20266", "hazard": "flood", "title": "Flood in Vietnam 1103896", "severity": "moderate", "source": "NASA EONET", "time": "2026-05-22T20:00:00Z", "magnitude": null, "depth_km": null, "url": "https://eonet.gsfc.nasa.gov/api/v3/events/EONET_20266/geojson", "description": "Flood in Vietnam 1103896", "status": "closed"}}, {"type": "Feature", "geometry": {"type": "Point", "coordinates": [-41.6798294, -21.1351354]}, "properties": {"id": "EONET_20298", "hazard": "flood", "title": "Flood in Brazil 1103912", "severity": "moderate", "source": "NASA EONET", "time": "2026-05-22T20:00:00Z", "magnitude": null, "depth_km": null, "url": "https://eonet.gsfc.nasa.gov/api/v3/events/EONET_20298/geojson", "description": "Flood in Brazil 1103912", "status": "closed"}}, {"type": "Feature", "geometry": {"type": "Point", "coordinates": [24.9073116, 42.8155165]}, "properties": {"id": "EONET_20246", "hazard": "flood", "title": "Flood in Bulgaria 1103894", "severity": "moderate", "source": "NASA EONET", "time": "2026-05-21T20:00:00Z", "magnitude": null, "depth_km": null, "url": "https://eonet.gsfc.nasa.gov/api/v3/events/EONET_20246/geojson", "description": "Flood in Bulgaria 1103894", "status": "closed"}}, {"type": "Feature", "geometry": {"type": "Point", "coordinates": [72.8799131, 40.7068689]}, "properties": {"id": "EONET_20267", "hazard": "flood", "title": "Flood in Kyrgyzstan 1103895", "severity": "moderate", "source": "NASA EONET", "time": "2026-05-21T20:00:00Z", "magnitude": null, "depth_km": null, "url": "https://eonet.gsfc.nasa.gov/api/v3/events/EONET_20267/geojson", "description": "Flood in Kyrgyzstan 1103895", "status": "closed"}}, {"type": "Feature", "geometry": {"type": "Point", "coordinates": [23.683459, 44.69891]}, "properties": {"id": "EONET_20278", "hazard": "flood", "title": "Flood in Romania 1103908", "severity": "moderate", "source": "NASA EONET", "time": "2026-05-21T20:00:00Z", "magnitude": null, "depth_km": null, "url": "https://eonet.gsfc.nasa.gov/api/v3/events/EONET_20278/geojson", "description": "Flood in Romania 1103908", "status": "closed"}}, {"type": "Feature", "geometry": {"type": "Point", "coordinates": [28.2215511, 47.3269772]}, "properties": {"id": "EONET_20243", "hazard": "flood", "title": "Flood in Moldova 1103891", "severity": "moderate", "source": "NASA EONET", "time": "2026-05-20T20:00:00Z", "magnitude": null, "depth_km": null, "url": "https://eonet.gsfc.nasa.gov/api/v3/events/EONET_20243/geojson", "description": "Flood in Moldova 1103891", "status": "closed"}}, {"type": "Feature", "geometry": {"type": "Point", "coordinates": [-76.5421611, -10.4868888]}, "properties": {"id": "EONET_20244", "hazard": "flood", "title": "Flood in Peru 1103892", "severity": "moderate", "source": "NASA EONET", "time": "2026-05-20T20:00:00Z", "magnitude": null, "depth_km": null, "url": "https://eonet.gsfc.nasa.gov/api/v3/events/EONET_20244/geojson", "description": "Flood in Peru 1103892", "status": "closed"}}, {"type": "Feature", "geometry": {"type": "Point", "coordinates": [71.367658, 36.8040254]}, "properties": {"id": "EONET_20245", "hazard": "flood", "title": "Flood in Afghanistan 1103890", "severity": "moderate", "source": "NASA EONET", "time": "2026-05-19T20:00:00Z", "magnitude": null, "depth_km": null, "url": "https://eonet.gsfc.nasa.gov/api/v3/events/EONET_20245/geojson", "description": "Flood in Afghanistan 1103890", "status": "closed"}}, {"type": "Feature", "geometry": {"type": "Point", "coordinates": [-85.387185, 39.0750538]}, "properties": {"id": "EONET_20218", "hazard": "flood", "title": "Flood in United States 1103888", "severity": "moderate", "source": "NASA EONET", "time": "2026-05-18T20:00:00Z", "magnitude": null, "depth_km": null, "url": "https://eonet.gsfc.nasa.gov/api/v3/events/EONET_20218/geojson", "description": "Flood in United States 1103888", "status": "closed"}}, {"type": "Feature", "geometry": {"type": "Point", "coordinates": [41.0263622, 44.8930113]}, "properties": {"id": "EONET_20219", "hazard": "flood", "title": "Flood in Russia 1103889", "severity": "moderate", "source": "NASA EONET", "time": "2026-05-18T20:00:00Z", "magnitude": null, "depth_km": null, "url": "https://eonet.gsfc.nasa.gov/api/v3/events/EONET_20219/geojson", "description": "Flood in Russia 1103889", "status": "closed"}}, {"type": "Feature", "geometry": {"type": "Point", "coordinates": [152.7069221, -28.277991]}, "properties": {"id": "EONET_20207", "hazard": "flood", "title": "Flood in Australia 1103887", "severity": "moderate", "source": "NASA EONET", "time": "2026-05-17T20:00:00Z", "magnitude": null, "depth_km": null, "url": "https://eonet.gsfc.nasa.gov/api/v3/events/EONET_20207/geojson", "description": "Flood in Australia 1103887", "status": "closed"}}, {"type": "Feature", "geometry": {"type": "Point", "coordinates": [103.4352428, 1.6220942]}, "properties": {"id": "EONET_20130", "hazard": "flood", "title": "Flood in Malaysia 1103884", "severity": "moderate", "source": "NASA EONET", "time": "2026-05-15T20:00:00Z", "magnitude": null, "depth_km": null, "url": "https://eonet.gsfc.nasa.gov/api/v3/events/EONET_20130/geojson", "description": "Flood in Malaysia 1103884", "status": "closed"}}, {"type": "Feature", "geometry": {"type": "Point", "coordinates": [121.4249152, 23.6677535]}, "properties": {"id": "EONET_20131", "hazard": "flood", "title": "Flood in China 1103883", "severity": "moderate", "source": "NASA EONET", "time": "2026-05-14T20:00:00Z", "magnitude": null, "depth_km": null, "url": "https://eonet.gsfc.nasa.gov/api/v3/events/EONET_20131/geojson", "description": "Flood in China 1103883", "status": "closed"}}, {"type": "Feature", "geometry": {"type": "Point", "coordinates": [13.3316861, 47.2305949]}, "properties": {"id": "EONET_20143", "hazard": "flood", "title": "Flood in Austria 1103885", "severity": "moderate", "source": "NASA EONET", "time": "2026-05-14T20:00:00Z", "magnitude": null, "depth_km": null, "url": "https://eonet.gsfc.nasa.gov/api/v3/events/EONET_20143/geojson", "description": "Flood in Austria 1103885", "status": "closed"}}, {"type": "Feature", "geometry": {"type": "Point", "coordinates": [90.3395618, 25.1222567]}, "properties": {"id": "EONET_20104", "hazard": "flood", "title": "Flood in Bangladesh 1103878", "severity": "moderate", "source": "NASA EONET", "time": "2026-05-12T20:00:00Z", "magnitude": null, "depth_km": null, "url": "https://eonet.gsfc.nasa.gov/api/v3/events/EONET_20104/geojson", "description": "Flood in Bangladesh 1103878", "status": "closed"}}, {"type": "Feature", "geometry": {"type": "Point", "coordinates": [100.9552749, 16.3293171]}, "properties": {"id": "EONET_20117", "hazard": "flood", "title": "Flood in Thailand 1103881", "severity": "moderate", "source": "NASA EONET", "time": "2026-05-12T20:00:00Z", "magnitude": null, "depth_km": null, "url": "https://eonet.gsfc.nasa.gov/api/v3/events/EONET_20117/geojson", "description": "Flood in Thailand 1103881", "status": "closed"}}, {"type": "Feature", "geometry": {"type": "Point", "coordinates": [124.748923, 6.6191395]}, "properties": {"id": "EONET_20118", "hazard": "flood", "title": "Flood in Philippines 1103880", "severity": "moderate", "source": "NASA EONET", "time": "2026-05-12T20:00:00Z", "magnitude": null, "depth_km": null, "url": "https://eonet.gsfc.nasa.gov/api/v3/events/EONET_20118/geojson", "description": "Flood in Philippines 1103880", "status": "closed"}}, {"type": "Feature", "geometry": {"type": "Point", "coordinates": [43.767179, 13.757808]}, "properties": {"id": "EONET_20119", "hazard": "flood", "title": "Flood in Yemen 1103882", "severity": "moderate", "source": "NASA EONET", "time": "2026-05-12T20:00:00Z", "magnitude": null, "depth_km": null, "url": "https://eonet.gsfc.nasa.gov/api/v3/events/EONET_20119/geojson", "description": "Flood in Yemen 1103882", "status": "closed"}}, {"type": "Feature", "geometry": {"type": "Point", "coordinates": [71.2678805, 33.712802]}, "properties": {"id": "EONET_20078", "hazard": "flood", "title": "Flood in Pakistan 1103877", "severity": "moderate", "source": "NASA EONET", "time": "2026-05-09T20:00:00Z", "magnitude": null, "depth_km": null, "url": "https://eonet.gsfc.nasa.gov/api/v3/events/EONET_20078/geojson", "description": "Flood in Pakistan 1103877", "status": "closed"}}, {"type": "Feature", "geometry": {"type": "Point", "coordinates": [-60.3855889, -36.3789925]}, "properties": {"id": "EONET_20041", "hazard": "flood", "title": "Flood in Argentina 1103873", "severity": "moderate", "source": "NASA EONET", "time": "2026-05-07T20:00:00Z", "magnitude": null, "depth_km": null, "url": "https://eonet.gsfc.nasa.gov/api/v3/events/EONET_20041/geojson", "description": "Flood in Argentina 1103873", "status": "closed"}}, {"type": "Feature", "geometry": {"type": "Point", "coordinates": [-100.315258, 25.6802019]}, "properties": {"id": "EONET_20042", "hazard": "flood", "title": "Flood in Mexico 1103874", "severity": "moderate", "source": "NASA EONET", "time": "2026-05-06T20:00:00Z", "magnitude": null, "depth_km": null, "url": "https://eonet.gsfc.nasa.gov/api/v3/events/EONET_20042/geojson", "description": "Flood in Mexico 1103874", "status": "closed"}}, {"type": "Feature", "geometry": {"type": "Point", "coordinates": [-139.45673, 64.0942558]}, "properties": {"id": "EONET_20043", "hazard": "flood", "title": "Flood in Canada 1103875", "severity": "moderate", "source": "NASA EONET", "time": "2026-05-06T20:00:00Z", "magnitude": null, "depth_km": null, "url": "https://eonet.gsfc.nasa.gov/api/v3/events/EONET_20043/geojson", "description": "Flood in Canada 1103875", "status": "closed"}}, {"type": "Feature", "geometry": {"type": "Point", "coordinates": [14.0, 48.25]}, "properties": {"id": "EONET_20044", "hazard": "flood", "title": "Flood in Austria 1103872", "severity": "moderate", "source": "NASA EONET", "time": "2026-05-05T20:00:00Z", "magnitude": null, "depth_km": null, "url": "https://eonet.gsfc.nasa.gov/api/v3/events/EONET_20044/geojson", "description": "Flood in Austria 1103872", "status": "closed"}}, {"type": "Feature", "geometry": {"type": "Point", "coordinates": [11.6072307, 43.0570991]}, "properties": {"id": "EONET_20045", "hazard": "flood", "title": "Flood in Italy 1103871", "severity": "moderate", "source": "NASA EONET", "time": "2026-05-04T20:00:00Z", "magnitude": null, "depth_km": null, "url": "https://eonet.gsfc.nasa.gov/api/v3/events/EONET_20045/geojson", "description": "Flood in Italy 1103871", "status": "closed"}}, {"type": "Feature", "geometry": {"type": "Point", "coordinates": [39.5503242709742, -1.5327802]}, "properties": {"id": "EONET_19979", "hazard": "flood", "title": "Flood in Kenya, Mongolia 1103868", "severity": "moderate", "source": "NASA EONET", "time": "2026-05-02T20:00:00Z", "magnitude": null, "depth_km": null, "url": "https://eonet.gsfc.nasa.gov/api/v3/events/EONET_19979/geojson", "description": "Flood in Kenya, Mongolia 1103868", "status": "closed"}}, {"type": "Feature", "geometry": {"type": "Point", "coordinates": [34.1026752, 0.7407633]}, "properties": {"id": "EONET_19987", "hazard": "flood", "title": "Flood in Uganda 1103869", "severity": "moderate", "source": "NASA EONET", "time": "2026-05-02T20:00:00Z", "magnitude": null, "depth_km": null, "url": "https://eonet.gsfc.nasa.gov/api/v3/events/EONET_19987/geojson", "description": "Flood in Uganda 1103869", "status": "closed"}}, {"type": "Feature", "geometry": {"type": "Point", "coordinates": [6.5623343, 51.3331205]}, "properties": {"id": "EONET_19960", "hazard": "flood", "title": "Flood in Germany 1103862", "severity": "moderate", "source": "NASA EONET", "time": "2026-05-01T20:00:00Z", "magnitude": null, "depth_km": null, "url": "https://eonet.gsfc.nasa.gov/api/v3/events/EONET_19960/geojson", "description": "Flood in Germany 1103862", "status": "closed"}}, {"type": "Feature", "geometry": {"type": "Point", "coordinates": [70.6134164, 40.123264]}, "properties": {"id": "EONET_19961", "hazard": "flood", "title": "Flood in Tajikistan 1103861", "severity": "moderate", "source": "NASA EONET", "time": "2026-04-30T20:00:00Z", "magnitude": null, "depth_km": null, "url": "https://eonet.gsfc.nasa.gov/api/v3/events/EONET_19961/geojson", "description": "Flood in Tajikistan 1103861", "status": "closed"}}, {"type": "Feature", "geometry": {"type": "Point", "coordinates": [3.9276122, 35.1733735]}, "properties": {"id": "EONET_19962", "hazard": "flood", "title": "Flood in Algeria 1103863", "severity": "moderate", "source": "NASA EONET", "time": "2026-04-30T20:00:00Z", "magnitude": null, "depth_km": null, "url": "https://eonet.gsfc.nasa.gov/api/v3/events/EONET_19962/geojson", "description": "Flood in Algeria 1103863", "status": "closed"}}, {"type": "Feature", "geometry": {"type": "Point", "coordinates": [29.1375509, -3.4055866]}, "properties": {"id": "EONET_19963", "hazard": "flood", "title": "Flood in Democratic Republic of Congo 1103864", "severity": "moderate", "source": "NASA EONET", "time": "2026-04-30T20:00:00Z", "magnitude": null, "depth_km": null, "url": "https://eonet.gsfc.nasa.gov/api/v3/events/EONET_19963/geojson", "description": "Flood in Democratic Republic of Congo 1103864", "status": "closed"}}, {"type": "Feature", "geometry": {"type": "Point", "coordinates": [26.1125347, -27.1774223]}, "properties": {"id": "EONET_19964", "hazard": "flood", "title": "Flood in South Africa 1103865", "severity": "moderate", "source": "NASA EONET", "time": "2026-04-30T20:00:00Z", "magnitude": null, "depth_km": null, "url": "https://eonet.gsfc.nasa.gov/api/v3/events/EONET_19964/geojson", "description": "Flood in South Africa 1103865", "status": "closed"}}, {"type": "Feature", "geometry": {"type": "Point", "coordinates": [70.6039542, 40.4379858]}, "properties": {"id": "EONET_19980", "hazard": "flood", "title": "Flood in Uzbekistan 1103867", "severity": "moderate", "source": "NASA EONET", "time": "2026-04-30T20:00:00Z", "magnitude": null, "depth_km": null, "url": "https://eonet.gsfc.nasa.gov/api/v3/events/EONET_19980/geojson", "description": "Flood in Uzbekistan 1103867", "status": "closed"}}, {"type": "Feature", "geometry": {"type": "Point", "coordinates": [77.6046868, 12.983343]}, "properties": {"id": "EONET_19943", "hazard": "flood", "title": "Flood in India 1103858", "severity": "moderate", "source": "NASA EONET", "time": "2026-04-28T20:00:00Z", "magnitude": null, "depth_km": null, "url": "https://eonet.gsfc.nasa.gov/api/v3/events/EONET_19943/geojson", "description": "Flood in India 1103858", "status": "closed"}}, {"type": "Feature", "geometry": {"type": "Point", "coordinates": [91.7630179, 24.4880817]}, "properties": {"id": "EONET_19926", "hazard": "flood", "title": "Flood in Bangladesh 1103853", "severity": "moderate", "source": "NASA EONET", "time": "2026-04-27T20:00:00Z", "magnitude": null, "depth_km": null, "url": "https://eonet.gsfc.nasa.gov/api/v3/events/EONET_19926/geojson", "description": "Flood in Bangladesh 1103853", "status": "closed"}}, {"type": "Feature", "geometry": {"type": "Point", "coordinates": [-74.7975616, -6.4287985]}, "properties": {"id": "EONET_19927", "hazard": "flood", "title": "Flood in Peru 1103854", "severity": "moderate", "source": "NASA EONET", "time": "2026-04-27T20:00:00Z", "magnitude": null, "depth_km": null, "url": "https://eonet.gsfc.nasa.gov/api/v3/events/EONET_19927/geojson", "description": "Flood in Peru 1103854", "status": "closed"}}, {"type": "Feature", "geometry": {"type": "Point", "coordinates": [-8.7537606, 42.51333]}, "properties": {"id": "EONET_19944", "hazard": "flood", "title": "Flood in Spain 1103855", "severity": "moderate", "source": "NASA EONET", "time": "2026-04-27T20:00:00Z", "magnitude": null, "depth_km": null, "url": "https://eonet.gsfc.nasa.gov/api/v3/events/EONET_19944/geojson", "description": "Flood in Spain 1103855", "status": "closed"}}, {"type": "Feature", "geometry": {"type": "Point", "coordinates": [72.9119207, 40.896861]}, "properties": {"id": "EONET_19945", "hazard": "flood", "title": "Flood in Kyrgyzstan 1103857", "severity": "moderate", "source": "NASA EONET", "time": "2026-04-27T20:00:00Z", "magnitude": null, "depth_km": null, "url": "https://eonet.gsfc.nasa.gov/api/v3/events/EONET_19945/geojson", "description": "Flood in Kyrgyzstan 1103857", "status": "closed"}}, {"type": "Feature", "geometry": {"type": "Point", "coordinates": [121.6029, 23.9954]}, "properties": {"id": "gdacs-flood-1104081", "hazard": "flood", "title": "Flood in China \u2014 China", "severity": "high", "source": "GDACS", "time": "2026-08-25T01:00:00", "magnitude": null, "depth_km": null, "url": {"geometry": "https://www.gdacs.org/gdacsapi/api/polygons/getgeometry?eventtype=FL&eventid=1104081&episodeid=13", "report": "https://www.gdacs.org/report.aspx?eventid=1104081&episodeid=13&eventtype=FL", "details": "https://www.gdacs.org/gdacsapi/api/events/geteventdata?eventtype=FL&eventid=1104081"}, "description": "Orange Flood in China from: 31 Jul 2026 01 to: 25 Aug 2026 01.", "alert": "Orange", "country": "China", "glide": "FL-2026-000148-CHN"}}, {"type": "Feature", "geometry": {"type": "Point", "coordinates": [110.9725, 30.8276]}, "properties": {"id": "gdacs-flood-1104051", "hazard": "flood", "title": "Flood in China \u2014 China", "severity": "severe", "source": "GDACS", "time": "2026-07-31T01:00:00", "magnitude": null, "depth_km": null, "url": {"geometry": "https://www.gdacs.org/gdacsapi/api/polygons/getgeometry?eventtype=FL&eventid=1104051&episodeid=4", "report": "https://www.gdacs.org/report.aspx?eventid=1104051&episodeid=4&eventtype=FL", "details": "https://www.gdacs.org/gdacsapi/api/events/geteventdata?eventtype=FL&eventid=1104051"}, "description": "Red Flood in China from: 25 Jul 2026 01 to: 31 Jul 2026 01.", "alert": "Red", "country": "China", "glide": "FL-2026-000136-CHN"}}, {"type": "Feature", "geometry": {"type": "Point", "coordinates": [103.2791, 35.7003]}, "properties": {"id": "gdacs-flood-1103933", "hazard": "flood", "title": "Flood in China \u2014 China", "severity": "high", "source": "GDACS", "time": "2026-07-14T01:00:00", "magnitude": null, "depth_km": null, "url": {"geometry": "https://www.gdacs.org/gdacsapi/api/polygons/getgeometry?eventtype=FL&eventid=1103933&episodeid=18", "report": "https://www.gdacs.org/report.aspx?eventid=1103933&episodeid=18&eventtype=FL", "details": "https://www.gdacs.org/gdacsapi/api/events/geteventdata?eventtype=FL&eventid=1103933"}, "description": "Orange Flood in China from: 06 Jun 2026 01 to: 14 Jul 2026 01.", "alert": "Orange", "country": "China", "glide": "FL-2026-000105-CHN"}}, {"type": "Feature", "geometry": {"type": "Point", "coordinates": [63.9466, 32.1032]}, "properties": {"id": "gdacs-flood-1103815", "hazard": "flood", "title": "Flood in Afghanistan \u2014 Afghanistan", "severity": "high", "source": "GDACS", "time": "2026-04-14T01:00:00", "magnitude": null, "depth_km": null, "url": {"geometry": "https://www.gdacs.org/gdacsapi/api/polygons/getgeometry?eventtype=FL&eventid=1103815&episodeid=1", "report": "https://www.gdacs.org/report.aspx?eventid=1103815&episodeid=1&eventtype=FL", "details": "https://www.gdacs.org/gdacsapi/api/events/geteventdata?eventtype=FL&eventid=1103815"}, "description": "Orange Flood in Afghanistan from: 25 Mar 2026 01 to: 14 Apr 2026 01.", "alert": "Orange", "country": "Afghanistan", "glide": "FL-2026-000047-AFG"}}, {"type": "Feature", "geometry": {"type": "Point", "coordinates": [-70.5265, -9.0479]}, "properties": {"id": "gdacs-flood-1103757", "hazard": "flood", "title": "Flood in Brazil \u2014 Brazil", "severity": "high", "source": "GDACS", "time": "2026-03-31T01:00:00", "magnitude": null, "depth_km": null, "url": {"geometry": "https://www.gdacs.org/gdacsapi/api/polygons/getgeometry?eventtype=FL&eventid=1103757&episodeid=25", "report": "https://www.gdacs.org/report.aspx?eventid=1103757&episodeid=25&eventtype=FL", "details": "https://www.gdacs.org/gdacsapi/api/events/geteventdata?eventtype=FL&eventid=1103757"}, "description": "Orange Flood in Brazil from: 03 Feb 2026 01 to: 31 Mar 2026 01.", "alert": "Orange", "country": "Brazil", "glide": "FL-2026-000028-BRA"}}, {"type": "Feature", "geometry": {"type": "Point", "coordinates": [37.2621, 6.1701]}, "properties": {"id": "gdacs-flood-1103798", "hazard": "flood", "title": "Flood in Ethiopia \u2014 Ethiopia", "severity": "high", "source": "GDACS", "time": "2026-03-11T01:00:00", "magnitude": null, "depth_km": null, "url": {"geometry": "https://www.gdacs.org/gdacsapi/api/polygons/getgeometry?eventtype=FL&eventid=1103798&episodeid=1", "report": "https://www.gdacs.org/report.aspx?eventid=1103798&episodeid=1&eventtype=FL", "details": "https://www.gdacs.org/gdacsapi/api/events/geteventdata?eventtype=FL&eventid=1103798"}, "description": "Orange Flood in Ethiopia from: 09 Mar 2026 01 to: 11 Mar 2026 01.", "alert": "Orange", "country": "Ethiopia", "glide": "FL-2026-000033-ETH"}}, {"type": "Feature", "geometry": {"type": "Point", "coordinates": [28.7062, -0.5646]}, "properties": {"id": "gdacs-flood-1103784", "hazard": "flood", "title": "Flood in Democratic Republic of Congo \u2014 Democratic Republic of Congo", "severity": "high", "source": "GDACS", "time": "2026-03-05T01:00:00", "magnitude": null, "depth_km": null, "url": {"geometry": "https://www.gdacs.org/gdacsapi/api/polygons/getgeometry?eventtype=FL&eventid=1103784&episodeid=6", "report": "https://www.gdacs.org/report.aspx?eventid=1103784&episodeid=6&eventtype=FL", "details": "https://www.gdacs.org/gdacsapi/api/events/geteventdata?eventtype=FL&eventid=1103784"}, "description": "Orange Flood in Democratic Republic of Congo from: 11 Feb 2026 01 to: 05 Mar 2026 01.", "alert": "Orange", "country": "Democratic Republic of Congo", "glide": ""}}]}